"geo_name","latitude","longitude","geonameid","country_code"
"'s-Hertogenbosch",51.69917,5.30417,2747351,"NL"
"A Coruna",43.37135,-8.396,3119841,"ES"
"Aachen",50.77664,6.08342,3247449,"DE"
"Aalborg",57.048,9.9187,2624886,"DK"
"Aalst",50.93604,4.0355,2803448,"BE"
"Abakan",53.71556,91.42917,1512236,"RU"
"Abbotsford",49.05798,-122.25257,5881791,"CA"
"Aberdeen",57.14369,-2.09814,2657832,"GB"
"Abidjan",5.30966,-4.01266,2293538,"CI"
"Abilene",32.44874,-99.73314,4669635,"US"
"Abu Dhabi",24.46667,54.36667,292968,"AE"
"Abuja",9.05785,7.49508,2352778,"NG"
"Acapulco de Juarez",16.86336,-99.8901,3533462,"MX"
"Acarigua",9.55451,-69.19564,3649833,"VE"
"Accra",5.55602,-0.1969,2306104,"GH"
"Acharnes",38.08333,23.73333,265488,"GR"
"Addis Ababa",9.02497,38.74689,344979,"ET"
"Adelaide",-34.92866,138.59863,2078025,"AU"
"Adelaide Hills",-34.91119,138.70735,7302628,"AU"
"Adiyaman",37.76441,38.27629,325330,"TR"
"Afyonkarahisar",38.75667,30.54333,325303,"TR"
"Agadir",30.42018,-9.59815,2561668,"MA"
"Agra",27.18333,78.01667,1279259,"IN"
"Agri",39.71944,43.05139,309647,"TR"
"Agua Prieta",31.33071,-109.54876,4019260,"MX"
"Aguascalientes",21.88234,-102.28259,4019233,"MX"
"Ahmedabad",23.02579,72.58727,1279233,"IN"
"Aix-en-Provence",43.5283,5.44973,3038354,"FR"
"Ajaccio",41.91886,8.73812,3038334,"FR"
"Ajax",43.85012,-79.03288,5882873,"CA"
"Ajman",25.41111,55.43504,292932,"AE"
"Ajmer",26.4521,74.63867,1279159,"IN"
"Akita",39.71667,140.11667,2113126,"JP"
"Akron",41.08144,-81.51901,5145476,"US"
"Aksaray",38.37255,34.02537,324496,"TR"
"Aktau",43.65,51.16667,610612,"KZ"
"Al Ain",24.19167,55.76056,292913,"AE"
"Al'met'yevsk",54.90442,52.3154,582432,"RU"
"Alajuela",10.01625,-84.21163,3624955,"CR"
"Alameda",37.76521,-122.24164,5322737,"US"
"Alanya",36.54375,31.99982,324190,"TR"
"Alba Iulia",46.06667,23.58333,686578,"RO"
"Albacete",38.99424,-1.85643,2522258,"ES"
"Albany",31.57851,-84.15574,4179320,"US"
"Albany",42.65258,-73.75623,5106834,"US"
"Albi",43.9298,2.148,3038261,"FR"
"Albuquerque",35.08449,-106.65114,5454711,"US"
"Alcala de Guadaira",37.33791,-5.83951,2522165,"ES"
"Alcala de Henares",40.48205,-3.35996,3130616,"ES"
"Alcantarilla",37.96939,-1.21714,2522152,"ES"
"Alcobendas",40.54746,-3.64197,3130583,"ES"
"Alcorcon",40.34582,-3.82487,3130564,"ES"
"Alcoy",38.70545,-0.47432,2522098,"ES"
"Ales",44.12489,4.08082,3038224,"FR"
"Alessandria",44.90924,8.61007,3183299,"IT"
"Alexandria",31.31129,-92.44514,4314550,"US"
"Alexandria",38.80484,-77.04692,4744091,"US"
"Alexandria",43.98333,25.33333,686502,"RO"
"Alexandroupoli",40.84995,25.87644,736928,"GR"
"Alfenas",-21.42917,-45.94722,3472603,"BR"
"Algeciras",36.13326,-5.45051,2522013,"ES"
"Alhambra",34.09529,-118.12701,5323060,"US"
"Alicante",38.34517,-0.48149,2521978,"ES"
"Alimos",37.91033,23.72361,261614,"GR"
"Alkmaar",52.63167,4.74861,2759899,"NL"
"Allahabad",25.44478,81.84322,1278994,"IN"
"Allen",33.10317,-96.67055,4670300,"US"
"Allentown",40.60843,-75.49018,5178127,"US"
"Almaty",43.25667,76.92861,1526384,"KZ"
"Almelo",52.35667,6.6625,2759887,"NL"
"Almere Stad",52.37025,5.21413,2759879,"NL"
"Almeria",36.83814,-2.45974,2521886,"ES"
"Alor Setar",6.12104,100.36014,1736309,"MY"
"Altamira",22.39215,-97.93867,3533005,"MX"
"Altamonte Springs",28.66111,-81.36562,4145941,"US"
"Altoona",40.51868,-78.39474,5178195,"US"
"Alytus",54.39635,24.04142,601084,"LT"
"Alzira",39.15,-0.43333,2522129,"ES"
"Amadora",38.75382,-9.23083,2271772,"PT"
"Amagasaki",34.71667,135.41667,1865387,"JP"
"Amarillo",35.222,-101.8313,5516233,"US"
"Amasya",40.65333,35.83306,752015,"TR"
"Ambato",-1.24908,-78.61675,3660689,"EC"
"Amersfoort",52.155,5.3875,2759821,"NL"
"Ames",42.03471,-93.61994,4846834,"US"
"Amiens",49.9,2.3,3037854,"FR"
"Amora",38.62961,-9.11557,2271680,"PT"
"Amritsar",31.62234,74.87534,1278710,"IN"
"Amstelveen",52.30083,4.86389,2759798,"NL"
"Amsterdam",52.37403,4.88969,2759794,"NL"
"Amsterdam-Zuidoost",52.3075,4.97222,6544881,"NL"
"Anaheim",33.83529,-117.9145,5323810,"US"
"Anand",22.55251,72.9552,1278685,"IN"
"Ananindeua",-1.36556,-48.37222,3407669,"BR"
"Anchorage",61.21806,-149.90028,5879400,"US"
"Ancona",43.5942,13.50337,3183089,"IT"
"Anderson",40.10532,-85.68025,4917592,"US"
"Andong",36.56636,128.72275,1846986,"KR"
"Andover",51.21135,-1.49393,2657324,"GB"
"Angeles City",15.15,120.58333,1730737,"PH"
"Angers",47.46667,-0.55,3037656,"FR"
"Angouleme",45.65,0.15,3037598,"FR"
"Ankara",39.91987,32.85427,323786,"TR"
"Ann Arbor",42.27756,-83.74088,4984247,"US"
"Annandale",38.83039,-77.19637,4744468,"US"
"Annecy",45.9,6.11667,3037543,"FR"
"Ansan-si",37.32361,126.82194,1846918,"KR"
"Anseong",37.01083,127.27028,1846912,"KR"
"Antalya",36.90812,30.69556,323777,"TR"
"Antibes",43.56241,7.12777,3037456,"FR"
"Antioch",38.00492,-121.80579,5324200,"US"
"Antipolo",14.62578,121.12251,1730501,"PH"
"Antofagasta",-23.65236,-70.3954,3899539,"CL"
"Antony",48.75,2.3,3037423,"FR"
"Antwerpen",51.21989,4.40346,2803138,"BE"
"Anyang-si",37.3925,126.92694,1846898,"KR"
"Aomori",40.81667,140.73333,2130658,"JP"
"Apeldoorn",52.21,5.96944,2759706,"NL"
"Apopka",28.67617,-81.51186,4146166,"US"
"Apple Valley",34.50083,-117.18588,5324363,"US"
"Apple Valley",44.73191,-93.21772,5016494,"US"
"Appleton",44.26193,-88.41538,5244080,"US"
"Apucarana",-23.55083,-51.46083,3471910,"BR"
"Aqtobe",50.27969,57.20718,610611,"KZ"
"Aracaju",-10.91111,-37.07167,3471872,"BR"
"Aracatuba",-21.20889,-50.43278,3471859,"BR"
"Arad",46.18333,21.31667,686254,"RO"
"Araguaina",-7.19111,-48.20722,3407357,"BR"
"Arapongas",-23.41944,-51.42444,3471798,"BR"
"Ararangua",-28.93575,-49.49538,3471772,"BR"
"Araraquara",-21.79444,-48.17556,3471766,"BR"
"Araras",-22.35694,-47.38417,3471758,"BR"
"Araruama",-22.87278,-42.34306,3471715,"BR"
"Arequipa",-16.39889,-71.535,3947322,"PE"
"Argenteuil",48.95,2.25,3037044,"FR"
"Arhus",56.15674,10.21076,2624652,"DK"
"Arica",-18.4746,-70.29792,3899361,"CL"
"Arkhangel'sk",64.5401,40.5433,581049,"RU"
"Arlington",32.73569,-97.10807,4671240,"US"
"Arlington Heights",42.08836,-87.98063,4883555,"US"
"Arnhem",51.98,5.91111,2759661,"NL"
"Arras",50.29301,2.78186,3036784,"FR"
"Arrecife",28.96302,-13.54769,2521570,"ES"
"Arusha",-3.36667,36.68333,161325,"TZ"
"Arvada",39.80276,-105.08748,5412199,"US"
"As Sulaymaniyah",35.56496,45.4329,98463,"IQ"
"Asan",36.78361,127.00417,1839726,"KR"
"Asenovgrad",42.01667,24.86667,733618,"BG"
"Ashburn",39.04372,-77.48749,4744870,"US"
"Ashburn",41.74753,-87.71116,4883679,"US"
"Ashdod",31.79213,34.64966,295629,"IL"
"Asheville",35.60095,-82.55402,4453066,"US"
"Ashford",51.14648,0.87376,2656955,"GB"
"Ashkelon",31.66926,34.57149,295620,"IL"
"Asnieres-sur-Seine",48.91667,2.28333,3036572,"FR"
"Assen",52.99667,6.5625,2759633,"NL"
"Assis",-22.66167,-50.41222,3471374,"BR"
"Astana",51.1801,71.44598,1526273,"KZ"
"Astrakhan",46.34968,48.04076,580497,"RU"
"Asuncion",-25.30066,-57.63591,3439389,"PY"
"Atascocita",29.99883,-95.1766,4671524,"US"
"Athens",33.96095,-83.37794,4180386,"US"
"Athens",37.97945,23.71622,264371,"GR"
"Atibaia",-23.11694,-46.55028,3471335,"BR"
"Atlanta",33.749,-84.38798,4180439,"US"
"Atyrau",47.11667,51.88333,610529,"KZ"
"Aubervilliers",48.91667,2.38333,3036386,"FR"
"Auburn",32.60986,-85.48078,4830796,"US"
"Auckland",-36.84853,174.76349,2193733,"NZ"
"Augsburg",48.37154,10.89851,2954172,"DE"
"Augusta",33.47097,-81.97484,4180531,"US"
"Aulnay-sous-Bois",48.93814,2.49402,3036145,"FR"
"Aurangabad",19.87757,75.34226,1278149,"IN"
"Aurora",39.72943,-104.83192,5412347,"US"
"Aurora",41.76058,-88.32007,4883817,"US"
"Austin",30.26715,-97.74306,4671654,"US"
"Avare",-23.09861,-48.92583,3471291,"BR"
"Aveiro",40.64427,-8.64554,2742611,"PT"
"Avellino",40.91494,14.79103,3182650,"IT"
"Avignon",43.94834,4.80892,3035681,"FR"
"Avila",40.65724,-4.69951,3129136,"ES"
"Aviles",43.55473,-5.92483,3129135,"ES"
"Avondale",33.4356,-112.3496,5552301,"US"
"Ayacucho",-13.15878,-74.22321,3947019,"PE"
"Aydin",37.84501,27.83963,322830,"TR"
"Aylesbury",51.81665,-0.81458,2656719,"GB"
"Babahoyo",-1.80217,-79.53443,3660418,"EC"
"Bac Giang",21.27307,106.1946,1591527,"VN"
"Bacau",46.56718,26.91384,685948,"RO"
"Bacolod City",10.66667,122.95,1729564,"PH"
"Bacoor",14.45903,120.92903,1729524,"PH"
"Badajoz",38.87789,-6.97061,2521420,"ES"
"Baguio",16.41639,120.59306,1728930,"PH"
"Bahia Blanca",-38.71959,-62.27243,3865086,"AR"
"Baia Mare",47.65729,23.56808,685826,"RO"
"Bakersfield",35.37329,-119.01871,5325738,"US"
"Baki",-7.61278,110.78389,1650670,"ID"
"Baku",40.37767,49.89201,587084,"AZ"
"Balashikha",55.80945,37.95806,579464,"RU"
"Baldwin Park",34.08529,-117.9609,5325866,"US"
"Balikesir",39.64917,27.88611,322165,"TR"
"Balikpapan",-1.26753,116.82887,1650527,"ID"
"Balneario Camboriu",-26.99056,-48.63472,3471039,"BR"
"Balti",47.76314,27.92932,618605,"MD"
"Bamako",12.65,-8,2460596,"ML"
"Banbury",52.0632,-1.34222,2656406,"GB"
"Bandar Lampung",-5.42917,105.26111,1624917,"ID"
"Bandar Seri Begawan",4.89035,114.94006,1820906,"BN"
"Bandirma",40.35222,27.97667,751077,"TR"
"Bandung",-6.92222,107.60694,1650357,"ID"
"Bangkok",13.75398,100.50144,1609350,"TH"
"Banja Luka",44.77842,17.19386,3204541,"BA"
"Banjarmasin",-3.31987,114.59075,1650213,"ID"
"Banska Bystrica",48.73946,19.15349,3061186,"SK"
"Barakaldo",43.29639,-2.98813,3109453,"ES"
"Barbacena",-21.22583,-43.77361,3470858,"BR"
"Barcelona",10.13625,-64.68618,3648559,"VE"
"Barcelona",41.38879,2.15899,3128760,"ES"
"Bareilly",28.36678,79.43167,1277013,"IN"
"Bari",41.11148,16.8554,3182351,"IT"
"Barinas",8.62261,-70.20749,3648546,"VE"
"Barlad",46.23175,27.66907,684802,"RO"
"Barnaul",53.36056,83.76361,1510853,"RU"
"Barnsley",53.55,-1.48333,2656284,"GB"
"Barquisimeto",10.0647,-69.35703,3648522,"VE"
"Barra Mansa",-22.54417,-44.17139,3470636,"BR"
"Barreiro",38.66314,-9.0724,2271071,"PT"
"Barrie",44.40011,-79.66634,5894171,"CA"
"Barrow in Furness",54.11094,-3.22758,2656241,"GB"
"Barueri",-23.51056,-46.87611,3470353,"BR"
"Basauri",43.2397,-2.8858,6697039,"ES"
"Basel",47.55839,7.57327,2661604,"CH"
"Basildon",51.56844,0.45782,2656194,"GB"
"Basingstoke",51.26249,-1.08708,2656192,"GB"
"Bath",51.3751,-2.36172,2656173,"GB"
"Batman",37.88738,41.13221,321836,"TR"
"Baton Rouge",30.45075,-91.15455,4315588,"US"
"Battle Creek",42.3173,-85.17816,4985153,"US"
"Batumi",41.64228,41.63392,615532,"GE"
"Bauru",-22.31472,-49.06056,3470279,"BR"
"Bayamon",18.39856,-66.15572,4562831,"PR"
"Bayonne",40.66871,-74.11431,5095445,"US"
"Bayonne",43.48333,-1.48333,3034475,"FR"
"Baytown",29.7355,-94.97743,4672731,"US"
"Beau Bassin-Rose Hill",-20.23325,57.46609,934765,"MU"
"Beaumont",30.08605,-94.10185,4672989,"US"
"Beauvais",49.43333,2.08333,3034006,"FR"
"Beaverton",45.48706,-122.80371,5713376,"US"
"Bedford",52.13459,-0.46632,2656046,"GB"
"Beersheba",31.25181,34.7913,295530,"IL"
"Bekasi",-6.2349,106.9896,1649378,"ID"
"Bekescsaba",46.68333,21.1,722437,"HU"
"Belchatow",51.36883,19.35671,3103709,"PL"
"Belfast",54.59682,-5.92541,2655984,"GB"
"Belford Roxo",-22.76417,-43.39944,3470142,"BR"
"Belfort",47.63333,6.86667,3033791,"FR"
"Belgaum",15.85212,74.50447,1276533,"IN"
"Belgorod",50.61074,36.58015,578072,"RU"
"Belgrade",44.80401,20.46513,792680,"RS"
"Belize City",17.49952,-88.19756,3582677,"BZ"
"Belleville",44.16682,-77.38277,5897884,"CA"
"Bellevue",41.13667,-95.89084,5063805,"US"
"Bellevue",47.61038,-122.20068,5786882,"US"
"Bellflower",33.88168,-118.11701,5327422,"US"
"Bellingham",48.75955,-122.48822,5786899,"US"
"Bend",44.05817,-121.31531,5713587,"US"
"Benevento",41.1307,14.77816,3182179,"IT"
"Bengaluru",12.97194,77.59369,1277333,"IN"
"Beni Mellal",32.33725,-6.34983,2555745,"MA"
"Benidorm",38.53816,-0.13098,2521088,"ES"
"Bento Goncalves",-29.17139,-51.51917,3470073,"BR"
"Bentonville",36.37285,-94.20882,4101260,"US"
"Berazategui",-34.76531,-58.21278,3436043,"AR"
"Bergamo",45.69601,9.66721,3182164,"IT"
"Bergen op Zoom",51.495,4.29167,2759145,"NL"
"Berkeley",37.87159,-122.27275,5327684,"US"
"Berlin",52.52437,13.41053,2950159,"DE"
"Bern",46.94809,7.44744,2661552,"CH"
"Berwyn",41.85059,-87.79367,4884597,"US"
"Besancon",47.24878,6.01815,3033123,"FR"
"Bethlehem",40.62593,-75.37046,5180225,"US"
"Betim",-19.96778,-44.19833,3470044,"BR"
"Beziers",43.34122,3.21402,3032833,"FR"
"Bharatpur",27.6768,84.43589,1283613,"NP"
"Bhiwandi",19.30023,73.05881,1275901,"IN"
"Bhopal",23.25469,77.40289,1275841,"IN"
"Bhubaneshwar",20.27241,85.83385,1275817,"IN"
"Biala Podlaska",52.03238,23.11652,776175,"PL"
"Bialystok",53.13333,23.16433,776069,"PL"
"Biel/Bienne",47.13713,7.24608,2661513,"CH"
"Bielefeld",52.03333,8.53333,2949186,"DE"
"Bielsko-Biala",49.82245,19.04686,3103402,"PL"
"Bihac",44.81694,15.87083,3204222,"BA"
"Bila Tserkva",49.80939,30.11209,712165,"UA"
"Bilbao",43.26271,-2.92528,3128026,"ES"
"Bilecik",40.14192,29.97932,750598,"TR"
"Billings",45.78329,-108.50069,5640350,"US"
"Binan",14.34267,121.08071,1725115,"PH"
"Binghamton",42.09869,-75.91797,5109177,"US"
"Birigui",-21.28861,-50.34,3469989,"BR"
"Birkenhead",53.39337,-3.01479,2655613,"GB"
"Birmingham",33.52066,-86.80249,4049979,"US"
"Birmingham",52.48142,-1.89983,2655603,"GB"
"Bishkek",42.87,74.59,1528675,"KG"
"Bismarck",46.80833,-100.78374,5688025,"US"
"Bistrita",47.13316,24.50011,684657,"RO"
"Bitola",41.03143,21.33474,792578,"MK"
"Blackburn",53.75,-2.48333,2655524,"GB"
"Blackpool",53.81667,-3.05,2655459,"GB"
"Blacksburg",37.22957,-80.41394,4747845,"US"
"Blagoevgrad",42.01667,23.1,733191,"BG"
"Blagoveshchensk",50.27961,127.5405,2026609,"RU"
"Blaine",45.1608,-93.23495,5018651,"US"
"Blainville",45.66678,-73.88249,5903510,"CA"
"Bloemfontein",-29.12107,26.214,1018725,"ZA"
"Blois",47.58333,1.33333,3032213,"FR"
"Bloomfield",40.80677,-74.18542,5095779,"US"
"Bloomington",39.16533,-86.52639,4254679,"US"
"Bloomington",40.4842,-88.99369,4885164,"US"
"Bloomington",44.8408,-93.29828,5018739,"US"
"Blumenau",-26.91944,-49.06611,3469968,"BR"
"Boa Vista",2.81972,-60.67333,3664980,"BR"
"Boca Raton",26.35869,-80.0831,4148411,"US"
"Bochum",51.48165,7.21648,2947416,"DE"
"Bogor",-6.59444,106.78917,1648473,"ID"
"Bogota",4.60971,-74.08175,3688689,"CO"
"Boise",43.6135,-116.20345,5586437,"US"
"Bolingbrook",41.69864,-88.0684,4885265,"US"
"Bologna",44.49381,11.33875,3181928,"IT"
"Bolton",53.58333,-2.43333,2655237,"GB"
"Bolu",40.73583,31.60611,750516,"TR"
"Bolzano",46.49067,11.33982,3181913,"IT"
"Bonao",18.93687,-70.40923,3511233,"DO"
"Bondy",48.9018,2.48931,3031815,"FR"
"Bonn",50.73438,7.09549,2946447,"DE"
"Boras",57.72101,12.9401,2720501,"SE"
"Bordeaux",44.84044,-0.5805,3031582,"FR"
"Borlaenge",60.4858,15.43714,2720383,"SE"
"Bossier City",32.51599,-93.73212,4317639,"US"
"Boston",42.35843,-71.05977,4930956,"US"
"Boston",52.97633,-0.02664,2655138,"GB"
"Botosani",47.75,26.66667,684039,"RO"
"Botucatu",-22.88583,-48.445,3469136,"BR"
"Boulder",40.01499,-105.27055,5574991,"US"
"Boulogne-Billancourt",48.83333,2.25,3031137,"FR"
"Boulogne-sur-Mer",50.71667,1.61667,3031133,"FR"
"Bourg-en-Bresse",46.20574,5.2258,3031009,"FR"
"Bourges",47.08333,2.4,3031005,"FR"
"Bournemouth",50.72048,-1.8795,2655095,"GB"
"Bowie",38.94278,-76.73028,4349159,"US"
"Bowling Green",36.99032,-86.4436,4285268,"US"
"Boynton Beach",26.52535,-80.06643,4148677,"US"
"Bozeman",45.67965,-111.03856,5641727,"US"
"Bracknell",51.41363,-0.75054,2655009,"GB"
"Bradenton",27.49893,-82.57482,4148708,"US"
"Bradford",53.79391,-1.75206,2654993,"GB"
"Braga",41.55032,-8.42005,2742032,"PT"
"Braganca Paulista",-22.9527,-46.54418,3469092,"BR"
"Braila",45.26667,27.98333,683902,"RO"
"Brampton",43.68341,-79.76633,5907364,"CA"
"Brandon",27.9378,-82.28592,4148757,"US"
"Brasilia",-15.77972,-47.92972,3469058,"BR"
"Brasov",45.64861,25.60613,683844,"RO"
"Bratislava",48.14816,17.10674,3060972,"SK"
"Braunschweig",52.26594,10.52673,2945024,"DE"
"Breda",51.58656,4.77596,2758401,"NL"
"Bremen",53.07516,8.80777,2944388,"DE"
"Brentwood",37.93187,-121.69579,5330642,"US"
"Brentwood",40.78121,-73.24623,5110077,"US"
"Brescia",45.53558,10.21472,3181554,"IT"
"Brest",48.39029,-4.48628,3030300,"FR"
"Brest",52.09755,23.68775,629634,"BY"
"Bridgend",51.50583,-3.57722,2654755,"GB"
"Bridgeport",41.16704,-73.20483,5282804,"US"
"Bridgetown",13.10732,-59.62021,3374036,"BB"
"Bridgewater",40.60079,-74.64815,8299576,"US"
"Bridgwater",51.12837,-3.00356,2654730,"GB"
"Brighton",50.82838,-0.13947,2654710,"GB"
"Brisbane",-27.46794,153.02809,2174003,"AU"
"Bristol",51.45523,-2.59665,2654675,"GB"
"Brive-la-Gaillarde",45.15,1.53333,3029974,"FR"
"Brno",49.19522,16.60796,3078610,"CZ"
"Brockton",42.08343,-71.01838,4931429,"US"
"Broken Arrow",36.0526,-95.79082,4531405,"US"
"Brooklyn Park",45.09413,-93.35634,5019335,"US"
"Brossard",45.45008,-73.46583,5909629,"CA"
"Brownsville",25.90175,-97.49748,4676740,"US"
"Brownsville",40.66094,-73.92014,5110446,"US"
"Brugge",51.20892,3.22424,2800931,"BE"
"Brusque",-27.09795,-48.91281,3468879,"BR"
"Brussels",50.85045,4.34878,2800866,"BE"
"Bryansk",53.25209,34.37167,571476,"RU"
"Bucharest",44.43225,26.10626,683506,"RO"
"Bucheon-si",37.49889,126.78306,1838716,"KR"
"Budapest",47.49801,19.03991,3054643,"HU"
"Buena Park",33.86751,-117.99812,5331575,"US"
"Buenos Aires",-34.61315,-58.37723,3435910,"AR"
"Buffalo",42.88645,-78.87837,5110629,"US"
"Bukit Mertajam",5.36301,100.4667,1735079,"MY"
"Buon Ma Thuot",12.66747,108.03775,1586896,"VN"
"Burdur",37.72028,30.29083,320392,"TR"
"Burgas",42.50606,27.46781,732770,"BG"
"Burgos",42.34106,-3.70184,3127461,"ES"
"Burke",38.79345,-77.27165,4749950,"US"
"Burlington",43.38621,-79.83713,5911592,"CA"
"Burlington",44.47588,-73.21207,5234372,"US"
"Burnaby",49.26636,-122.95263,5911606,"CA"
"Burnley",53.8,-2.23333,2654264,"GB"
"Burton upon Trent",52.80728,-1.64263,2654200,"GB"
"Bury",53.6,-2.3,2654187,"GB"
"Busan",35.10278,129.04028,1838524,"KR"
"Butuan",8.94917,125.54361,1722186,"PH"
"Buzau",45.15,26.83333,683123,"RO"
"Bydgoszcz",53.1235,18.00762,3102014,"PL"
"Bytom",50.34802,18.93282,3101950,"PL"
"Cabimas",10.38828,-71.43993,3647651,"VE"
"Cabo San Lucas",22.89088,-109.91238,3985710,"MX"
"Cacador",-26.77528,-51.015,3468570,"BR"
"Cacapava",-23.10083,-45.70694,3468562,"BR"
"Caceres",39.47649,-6.37224,2520611,"ES"
"Cachoeiro de Itapemirim",-20.84889,-41.11278,3468376,"BR"
"Cadiz",36.52672,-6.2891,2520600,"ES"
"Caen",49.18585,-0.35912,3029241,"FR"
"Cagayan de Oro",8.48222,124.64722,1721080,"PH"
"Cagliari",39.23054,9.11917,2525473,"IT"
"Cagua",10.18634,-67.45935,3647549,"VE"
"Caguas",18.23412,-66.0485,4563008,"PR"
"Cajamarca",-7.16378,-78.50027,3699088,"PE"
"Cajazeiras",-6.89028,-38.55528,3404020,"BR"
"Calais",50.95194,1.85635,3029162,"FR"
"Calama",-22.45667,-68.92371,3897347,"CL"
"Calamba",14.21167,121.16528,1720681,"PH"
"Calgary",51.05011,-114.08529,5913490,"CA"
"Caloocan City",14.64953,120.96788,1720151,"PH"
"Camarillo",34.21639,-119.0376,5333180,"US"
"Cambridge",42.3751,-71.10561,4931972,"US"
"Cambridge",43.3601,-80.31269,5913695,"CA"
"Cambridge",52.2,0.11667,2653941,"GB"
"Camden",39.92595,-75.11962,4501018,"US"
"Campana",-34.16874,-58.95914,3435810,"AR"
"Campeche",19.84386,-90.52554,3531732,"MX"
"Campina",45.12619,25.73496,681862,"RO"
"Campina Grande",-7.23056,-35.88111,3403642,"BR"
"Campo Grande",-20.44278,-54.64639,3467747,"BR"
"Campo Mourao",-24.04309,-52.37929,3467717,"BR"
"Canakkale",40.15552,26.41271,749780,"TR"
"Cancun",21.17429,-86.84656,3531673,"MX"
"Cannes",43.55135,7.01275,3028808,"FR"
"Cannock",52.69045,-2.03085,2653883,"GB"
"Canoas",-29.91778,-51.18361,3467467,"BR"
"Canterbury",51.27904,1.07992,2653877,"GB"
"Canton",40.79895,-81.37845,5149222,"US"
"Canton",42.30865,-83.48216,4987990,"US"
"Cape Coral",26.56285,-81.94953,4149962,"US"
"Cape Town",-33.92584,18.42322,3369157,"ZA"
"Caracas",10.48801,-66.87919,3646738,"VE"
"Carapicuiba",-23.52272,-46.835,3466998,"BR"
"Carcassonne",43.21667,2.35,3028641,"FR"
"Cardiff",51.48,-3.18,2653822,"GB"
"Carlisle",54.8951,-2.9382,2653775,"GB"
"Carlsbad",33.15809,-117.35059,5334223,"US"
"Carrollton",32.95373,-96.89028,4679195,"US"
"Carson",33.83141,-118.28202,5334519,"US"
"Cartagena",37.60512,-0.98623,2520058,"ES"
"Caruaru",-8.28333,-35.97611,3402655,"BR"
"Cary",35.79154,-78.78112,4459467,"US"
"Casablanca",33.58831,-7.61138,2553604,"MA"
"Cascavel",-24.95583,-53.45528,3466779,"BR"
"Casper",42.86663,-106.31308,5820705,"US"
"Castello de la Plana",39.98567,-0.04935,2519752,"ES"
"Cataguases",-21.38917,-42.69667,3466698,"BR"
"Catanduva",-21.13778,-48.97278,3466692,"BR"
"Catania",37.49223,15.07041,2525068,"IT"
"Catanzaro",38.88247,16.60086,2525059,"IT"
"Catonsville",39.27205,-76.73192,4350635,"US"
"Caxias",-4.85889,-43.35611,3402383,"BR"
"Caxias do Sul",-29.16806,-51.17944,3466537,"BR"
"Cayenne",4.93333,-52.33333,3382160,"GF"
"Cebu City",10.31672,123.89071,1717512,"PH"
"Cedar Falls",42.52776,-92.44547,4850699,"US"
"Cedar Park",30.5052,-97.82029,4679867,"US"
"Cedar Rapids",42.00833,-91.64407,4850751,"US"
"Celaya",20.52353,-100.8157,4014875,"MX"
"Centreville",38.84039,-77.42888,4751839,"US"
"Centurion",-25.85891,28.18577,1105777,"ZA"
"Ceres",37.59493,-120.95771,5335650,"US"
"Cergy",49.03645,2.07613,3027883,"FR"
"Cerritos",33.85835,-118.06479,5335663,"US"
"Cesena",44.1391,12.24315,3178957,"IT"
"Ceske Budejovice",48.97447,14.47434,3077916,"CZ"
"Chalkida",38.46354,23.60284,260133,"GR"
"Chalon-sur-Saone",46.78333,4.85,3027484,"FR"
"Chalons-en-Champagne",48.95393,4.36724,3027487,"FR"
"Chambery",45.56667,5.93333,3027422,"FR"
"Champaign",40.11642,-88.24338,4887158,"US"
"Champigny-sur-Marne",48.81642,2.49366,3027105,"FR"
"Chandigarh",30.73629,76.7884,1274746,"IN"
"Chandler",33.30616,-111.84125,5289282,"US"
"Chania",35.51124,24.02921,260114,"GR"
"Chanthaburi",12.60961,102.10447,1611269,"TH"
"Chapeco",-27.09639,-52.61833,3466296,"BR"
"Chapel Hill",35.9132,-79.05584,4460162,"US"
"Charallave",10.24247,-66.85723,3645854,"VE"
"Charleroi",50.41136,4.44448,2800481,"BE"
"Charleston",32.77657,-79.93092,4574324,"US"
"Charleston",38.34982,-81.63262,4801859,"US"
"Charleville-Mezieres",49.76667,4.71667,3026613,"FR"
"Charlottesville",38.02931,-78.47668,4752031,"US"
"Charlottetown",46.23899,-63.13414,5920288,"CA"
"Chartres",48.44685,1.48925,3026467,"FR"
"Chateauguay",45.38338,-73.74919,5920433,"CA"
"Chatham",42.41224,-82.18494,5920457,"CA"
"Chatham",51.37891,0.52786,2653305,"GB"
"Chattanooga",35.04563,-85.30968,4612862,"US"
"Cheboksary",56.13222,47.25194,569696,"RU"
"Cheektowaga",42.90339,-78.75475,5112375,"US"
"Chelles",48.88109,2.59295,3025622,"FR"
"Chelm",51.14312,23.4716,774558,"PL"
"Chelmsford",51.73575,0.46958,2653266,"GB"
"Cheltenham",51.90006,-2.07972,2653261,"GB"
"Chelyabinsk",55.15402,61.42915,1508291,"RU"
"Chemnitz",50.8357,12.92922,2940132,"DE"
"Chennai",13.08784,80.27847,1264527,"IN"
"Cheonan",36.8065,127.1522,1845759,"KR"
"Cheongju-si",36.63722,127.48972,1845604,"KR"
"Cherepovets",59.13333,37.9,569223,"RU"
"Cherkasy",49.42854,32.06207,710791,"UA"
"Cherkessk",44.22333,42.05778,569154,"RU"
"Chernihiv",51.50551,31.28487,710735,"UA"
"Chernivtsi",48.29149,25.94034,710719,"UA"
"Cherry Hill",39.93484,-75.03073,4501198,"US"
"Chesapeake",36.81904,-76.27494,4752186,"US"
"Chester",53.1905,-2.89189,2653228,"GB"
"Chesterfield",38.66311,-90.57707,4381072,"US"
"Chesterfield",53.25,-1.41667,2653225,"GB"
"Chetumal",18.51413,-88.30381,3531023,"MX"
"Cheyenne",41.13998,-104.82025,5821086,"US"
"Chiang Rai",19.90858,99.8325,1153669,"TH"
"Chiba",35.6,140.11667,2113015,"JP"
"Chicago",41.85003,-87.65005,4887398,"US"
"Chiclana de la Frontera",36.41976,-6.14367,2519513,"ES"
"Chiclayo",-6.77137,-79.84088,3698350,"PE"
"Chico",39.72849,-121.83748,5336269,"US"
"Chicopee",42.1487,-72.60787,4933002,"US"
"Chieti",42.34827,14.16494,3178796,"IT"
"Chihuahua",28.63528,-106.08889,4014338,"MX"
"Chillan",-36.60664,-72.10344,3895088,"CL"
"Chilliwack",49.16638,-121.95257,5921356,"CA"
"Chimbote",-9.08528,-78.57833,3698304,"PE"
"Chinandega",12.62937,-87.13105,3620381,"NI"
"Chinju",35.19278,128.08472,1846052,"KR"
"Chino",34.01223,-117.68894,5336537,"US"
"Chino Hills",33.9938,-117.75888,5336545,"US"
"Chisinau",47.00556,28.8575,618426,"MD"
"Chita",52.03171,113.50087,2025339,"RU"
"Chittagong",22.3384,91.83168,1205733,"BD"
"Chivilcoy",-34.89566,-60.01667,3861344,"AR"
"Cholet",47.06667,-0.88333,3025053,"FR"
"Chomutov",50.46048,13.41779,3077685,"CZ"
"Chorzow",50.30582,18.9742,3101619,"PL"
"Christchurch",-43.53333,172.63333,2192362,"NZ"
"Chula Vista",32.64005,-117.0842,5336899,"US"
"Chuncheon",37.87472,127.73417,1845136,"KR"
"Cicero",41.84559,-87.75394,4888015,"US"
"Cincinnati",39.12711,-84.51439,4508722,"US"
"Cipolletti",-38.93392,-67.99032,3861056,"AR"
"Citrus Heights",38.70712,-121.28106,5337561,"US"
"City of Balikpapan",-1.24204,116.89419,8224624,"ID"
"Ciudad Apodaca",25.78195,-100.18839,4018390,"MX"
"Ciudad Bolivar",8.12923,-63.54086,3645532,"VE"
"Ciudad Choluteca",13.30028,-87.19083,3613528,"HN"
"Ciudad del Carmen",18.64592,-91.82991,3530599,"MX"
"Ciudad del Este",-25.50972,-54.61111,3439101,"PY"
"Ciudad Delicias",28.19013,-105.47012,4013720,"MX"
"Ciudad Guayana",8.35122,-62.64102,3645528,"VE"
"Ciudad Guzman",19.70466,-103.4617,4013714,"MX"
"Ciudad Juarez",31.72024,-106.46084,4013708,"MX"
"Ciudad Mante",22.74304,-98.9739,3528756,"MX"
"Ciudad Nezahualcoyotl",19.40061,-99.01483,3530589,"MX"
"Ciudad Obregon",27.48642,-109.94083,4013704,"MX"
"Ciudad Real",38.98626,-3.92907,2519402,"ES"
"Ciudad Valles",21.98333,-99.01667,3530582,"MX"
"Ciudad Valles",21.99631,-99.01093,3483849,"MX"
"Ciudad Victoria",23.74174,-99.14599,3530580,"MX"
"Clamart",48.80299,2.26692,3024783,"FR"
"Clarksville",36.52977,-87.35945,4613868,"US"
"Clearwater",27.96585,-82.8001,4151316,"US"
"Clermont-Ferrand",45.77966,3.08628,3024635,"FR"
"Cleveland",35.15952,-84.87661,4614088,"US"
"Cleveland",41.4995,-81.69541,5150529,"US"
"Cleveland Heights",41.52005,-81.55624,4833320,"US"
"Clichy",48.90018,2.30952,3024597,"FR"
"Clifton",40.85843,-74.16376,5096699,"US"
"Clinton Township",42.58698,-82.91992,4989133,"US"
"Clovis",36.82523,-119.70292,5338122,"US"
"Cluj-Napoca",46.76667,23.6,681290,"RO"
"Coatzacoalcos",18.13346,-94.44242,3530517,"MX"
"Cochabamba",-17.3895,-66.1568,3919968,"BO"
"Coeur d'Alene",47.67768,-116.78047,5589173,"US"
"Coimbatore",11.00555,76.96612,1273865,"IN"
"Coimbra",40.20564,-8.41955,2740637,"PT"
"Colatina",-19.53944,-40.63056,3465944,"BR"
"Colchester",51.88921,0.90421,2652618,"GB"
"Colima",19.24997,-103.72714,4013516,"MX"
"College Station",30.62798,-96.33441,4682464,"US"
"Colmar",48.08333,7.36667,3024297,"FR"
"Colombes",48.91882,2.25404,3024266,"FR"
"Colombo",6.93194,79.84778,1248991,"LK"
"Colorado Springs",38.83388,-104.82136,5417598,"US"
"Colton",34.0739,-117.31365,5338783,"US"
"Columbia",34.00071,-81.03481,4575352,"US"
"Columbia",38.95171,-92.33407,4381982,"US"
"Columbia",39.24038,-76.83942,4352053,"US"
"Columbus",32.46098,-84.98771,4188985,"US"
"Columbus",39.20144,-85.92138,4256038,"US"
"Columbus",39.96118,-82.99879,4509177,"US"
"Como",45.80819,9.0832,3178229,"IT"
"Comodoro Rivadavia",-45.86413,-67.49656,3860443,"AR"
"Compiegne",49.41794,2.82606,3024066,"FR"
"Compton",33.89585,-118.22007,5339066,"US"
"Conakry",9.53795,-13.67729,2422465,"GN"
"Concepcion",-23.39985,-57.43236,3438834,"PY"
"Concepcion",-36.82699,-73.04977,3893894,"CL"
"Concord",35.40888,-80.58158,4461574,"US"
"Concord",37.97798,-122.03107,5339111,"US"
"Concord",43.20814,-71.53757,5084868,"US"
"Concordia",-27.23417,-52.02778,3465721,"BR"
"Conroe",30.31188,-95.45605,4682991,"US"
"Conselheiro Lafaiete",-20.66028,-43.78611,3465644,"BR"
"Constanta",44.18073,28.63432,680963,"RO"
"Contagem",-19.93167,-44.05361,3465624,"BR"
"Conway",35.0887,-92.4421,4106458,"US"
"Copenhagen",55.67594,12.56553,2618425,"DK"
"Copiapo",-27.36679,-70.3314,3893656,"CL"
"Coquimbo",-29.95332,-71.33947,3893629,"CL"
"Coquitlam",49.28297,-122.75262,5927689,"CA"
"Coral Gables",25.72149,-80.26838,4151871,"US"
"Coral Springs",26.27119,-80.2706,4151909,"US"
"Cordoba",-31.4135,-64.18105,3860259,"AR"
"Cordoba",18.8842,-96.92559,3530240,"MX"
"Cordoba",37.89155,-4.77275,2519240,"ES"
"Cork",51.89797,-8.47061,2965140,"IE"
"Corlu",41.15917,27.8,748893,"TR"
"Cornella de Llobregat",41.35,2.08333,3124569,"ES"
"Cornwall",45.01809,-74.72815,5928065,"CA"
"Corona",33.87529,-117.56644,5339631,"US"
"Corona",40.74705,-73.86014,5113779,"US"
"Coronel",-37.03386,-73.14019,3893532,"CL"
"Corpus Christi",27.80058,-97.39638,4683416,"US"
"Corrientes",-27.4806,-58.8341,3435217,"AR"
"Corroios",38.64502,-9.14843,2269041,"PT"
"Corum",40.54889,34.95333,748879,"TR"
"Cosenza",39.2989,16.25307,2524907,"IT"
"Coslada",40.42378,-3.56129,3124408,"ES"
"Costa Mesa",33.64113,-117.91867,5339840,"US"
"Cotia",-23.60389,-46.91917,3465284,"BR"
"Council Bluffs",41.26194,-95.86083,4852832,"US"
"Country Club",25.94815,-80.317,4152093,"US"
"Courbevoie",48.89672,2.25666,3023141,"FR"
"Coventry",52.40656,-1.51217,2652221,"GB"
"Covina",34.09001,-117.89034,5340175,"US"
"Coyhaique",-45.57524,-72.06619,3894426,"CL"
"Craiova",44.31667,23.8,680332,"RO"
"Cranston",41.77982,-71.43728,5221659,"US"
"Crawley",51.11303,-0.18312,2652053,"GB"
"Cremona",45.13325,10.02129,3177838,"IT"
"Creteil",48.78333,2.46667,3022530,"FR"
"Crewe",53.09787,-2.44161,2652002,"GB"
"Criciuma",-28.6775,-49.36972,3465196,"BR"
"Croydon",51.38333,-0.1,2651817,"GB"
"Cuautitlan Izcalli",19.64388,-99.21598,3515807,"MX"
"Cuautla",18.8106,-98.93525,3529982,"MX"
"Cubatao",-23.895,-46.42528,3465059,"BR"
"Cuenca",40.06667,-2.13333,3124132,"ES"
"Cuernavaca",18.9261,-99.23075,3529947,"MX"
"Cuiaba",-15.59611,-56.09667,3465038,"BR"
"Culiacan",24.79032,-107.38782,4012176,"MX"
"Cumana",10.45397,-64.18256,3644768,"VE"
"Cupertino",37.323,-122.03218,5341145,"US"
"Curico",-34.98279,-71.23943,3892870,"CL"
"Cusco",-13.52264,-71.96734,3941584,"PE"
"Cutral-Co",-38.93424,-69.23052,3859552,"AR"
"Cuttack",20.46497,85.87927,1273780,"IN"
"Cypress",33.81696,-118.03729,5341256,"US"
"Czestochowa",50.79646,19.12409,3100946,"PL"
"Da Lat",11.94646,108.44193,1584071,"VN"
"Da Nang",16.06778,108.22083,1583992,"VN"
"Dabrowa Gornicza",50.31818,19.2374,3100796,"PL"
"Daegu",35.87028,128.59111,1835329,"KR"
"Daejeon",36.32139,127.41972,1835235,"KR"
"Dagenham",51.55,0.16667,2651621,"GB"
"Dagupan",16.04313,120.33325,1716198,"PH"
"Dakar",14.6937,-17.44406,2253354,"SN"
"Dale City",38.63706,-77.31109,4755158,"US"
"Dallas",32.78306,-96.80667,4684888,"US"
"Daly City",37.70577,-122.46192,5341430,"US"
"Damascus",33.5102,36.29128,170654,"SY"
"Danbury",41.39482,-73.45401,4832353,"US"
"Dar es Salaam",-6.82349,39.26951,160263,"TZ"
"Darlington",54.52429,-1.55039,2651513,"GB"
"Darmstadt",49.87167,8.65027,2938913,"DE"
"Dartford",51.44657,0.21423,2651500,"GB"
"Dartmouth",44.67134,-63.57719,5935277,"CA"
"Dasmarinas",14.32944,120.93667,1715430,"PH"
"Daugavpils",55.88333,26.53333,460413,"LV"
"Davao",7.07306,125.61278,1715348,"PH"
"Davenport",41.52364,-90.57764,4853423,"US"
"David",8.42729,-82.43085,3711668,"PA"
"Davie",26.06287,-80.2331,4152820,"US"
"Davis",38.54491,-121.74052,5341704,"US"
"Dayton",39.75895,-84.19161,4509884,"US"
"Dearborn",42.32226,-83.17631,4990510,"US"
"Debica",50.05146,21.41141,773380,"PL"
"Debrecen",47.53333,21.63333,721472,"HU"
"Decatur",34.60593,-86.98334,4058553,"US"
"Decatur",39.84031,-88.9548,4236895,"US"
"Decin",50.78215,14.21478,3077244,"CZ"
"Dehra Dun",30.32443,78.03392,1273313,"IN"
"DeKalb",41.92947,-88.75036,4889553,"US"
"Delano",35.76884,-119.24705,5342485,"US"
"Delft",52.00667,4.35556,2757345,"NL"
"Delhi",28.65195,77.23149,1273294,"IN"
"Delta",49.14399,-122.9068,5937615,"CA"
"Deltona",28.90054,-81.26367,4153146,"US"
"Den Helder",52.95988,4.75933,2757220,"NL"
"Denizli",37.77417,29.0875,317109,"TR"
"Denpasar",-8.65,115.21667,1645528,"ID"
"Denton",33.21484,-97.13307,4685907,"US"
"Denver",39.73915,-104.9847,5419384,"US"
"Depok",-6.4,106.81861,1645524,"ID"
"Depok",-7.7625,110.43167,1645518,"ID"
"Derby",52.92277,-1.47663,2651347,"GB"
"Derry",54.9981,-7.30934,2643736,"GB"
"Des Moines",41.60054,-93.60911,4853828,"US"
"Des Plaines",42.03336,-87.8834,4889772,"US"
"Detroit",42.33143,-83.04575,4990729,"US"
"Deva",45.88333,22.9,679452,"RO"
"Deventer",52.255,6.16389,2756987,"NL"
"Dhaka",23.7104,90.40744,1185241,"BD"
"Diadema",-23.68611,-46.62278,3464739,"BR"
"Dijon",47.31667,5.01667,3021372,"FR"
"Dimitrovgrad",42.05,25.6,732263,"BG"
"Divinopolis",-20.14355,-44.89065,3464688,"BR"
"Diyarbakir",37.91363,40.21721,316541,"TR"
"Dnipro",48.4593,35.03865,709930,"UA"
"Dniprodzerzhyns'k",48.51134,34.6021,709932,"UA"
"Dobrich",43.56667,27.83333,726418,"BG"
"Doetinchem",51.965,6.28889,2756767,"NL"
"Doha",25.28545,51.53096,290030,"QA"
"Dolores Hidalgo Cuna de la Independencia Nacional",21.15611,-100.9325,4023117,"MX"
"Dombivli",19.21667,73.08333,1272423,"IN"
"Doncaster",53.52285,-1.13116,2651123,"GB"
"Donetsk",48.023,37.80224,709717,"UA"
"Doral",25.81954,-80.35533,4153471,"US"
"Dordrecht",51.81,4.67361,2756669,"NL"
"Dornbirn",47.41427,9.74195,2780741,"AT"
"Dortmund",51.51494,7.466,2935517,"DE"
"Dos Hermanas",37.28287,-5.92088,2518794,"ES"
"Dothan",31.22323,-85.39049,4059102,"US"
"Douai",50.36667,3.06667,3021000,"FR"
"Douala",4.04827,9.70428,2232593,"CM"
"Downers Grove",41.80892,-88.01117,4890119,"US"
"Downey",33.94001,-118.13257,5343858,"US"
"Drachten",53.11254,6.0989,2756644,"NL"
"Drancy",48.92578,2.44533,3020839,"FR"
"Draper",40.52467,-111.86382,5774001,"US"
"Dresden",51.05089,13.73832,2935022,"DE"
"Drobeta-Turnu Severin",44.63194,22.65611,678817,"RO"
"Drummondville",45.88336,-72.48241,5942845,"CA"
"Dubai",25.0657,55.17128,292223,"AE"
"Dublin",37.70215,-121.93579,5344157,"US"
"Dublin",40.09923,-83.11408,5152333,"US"
"Dublin",53.33306,-6.24889,2964574,"IE"
"Dubuque",42.50056,-90.66457,4854529,"US"
"Dudley",52.5,-2.08333,2650839,"GB"
"Duesseldorf",51.22172,6.77616,2934246,"DE"
"Duisburg",51.43247,6.76516,2934691,"DE"
"Duluth",46.78327,-92.10658,5024719,"US"
"Dunaujvaros",46.96479,18.93974,3053438,"HU"
"Dundalk",39.25066,-76.52052,4353765,"US"
"Dundee",56.46913,-2.97489,2650752,"GB"
"Dunedin",-45.87416,170.50361,2191562,"NZ"
"Dunkerque",51.03297,2.377,3020686,"FR"
"Dunwoody",33.94621,-84.33465,4192375,"US"
"Duque de Caxias",-22.78556,-43.31167,3464374,"BR"
"Durban",-29.8579,31.0292,1007311,"ZA"
"Durgapur",23.51583,87.30801,1272175,"IN"
"Durham",35.99403,-78.89862,4464368,"US"
"Durham",54.77676,-1.57566,2650628,"GB"
"Durres",41.32306,19.44139,3185728,"AL"
"Duzce",40.83889,31.16389,747764,"TR"
"Eagan",44.80413,-93.16689,5024825,"US"
"East Brunswick",40.42788,-74.41598,5097402,"US"
"East Honolulu",21.28906,-157.71734,7315245,"US"
"East Jerusalem",31.78336,35.23388,7303419,"PS"
"East Los Angeles",34.0239,-118.17202,5344994,"US"
"East Norwalk",41.10565,-73.39845,4833505,"US"
"Eastbourne",50.76871,0.28453,2650497,"GB"
"Eau Claire",44.81135,-91.49849,5251436,"US"
"Ede",52.03333,5.65833,2756429,"NL"
"Edinburgh",55.95206,-3.19648,2650225,"GB"
"Edirne",41.67719,26.55597,747712,"TR"
"Edison",40.51872,-74.4121,5097529,"US"
"Edmond",35.65283,-97.4781,4535740,"US"
"Edmonton",53.55014,-113.46871,5946768,"CA"
"Eger",47.90265,20.37329,721239,"HU"
"Eindhoven",51.44083,5.47778,2756253,"NL"
"El Cajon",32.79477,-116.96253,5345529,"US"
"El Centro",32.792,-115.56305,5345609,"US"
"El Jadid",33.25682,-8.50882,2550078,"MA"
"El Monte",34.06862,-118.02757,5345743,"US"
"El Paso",31.75872,-106.48693,5520993,"US"
"El Progreso",15.4,-87.8,3610613,"HN"
"El Tigre",8.88752,-64.24544,3641351,"VE"
"Elazig",38.67431,39.22321,315808,"TR"
"Elblag",54.1522,19.40884,3099759,"PL"
"Elche",38.26218,-0.70107,2518559,"ES"
"Elgin",42.03725,-88.28119,4890864,"US"
"Elizabeth",40.66399,-74.2107,5097598,"US"
"Elk",53.82824,22.36469,772621,"PL"
"Elk Grove",38.4088,-121.37162,5346111,"US"
"Elkhart",41.68199,-85.97667,4919987,"US"
"Ellesmere Port",53.27875,-2.90134,2650096,"GB"
"Ellicott City",39.26733,-76.79831,4354265,"US"
"Elyria",41.36838,-82.10765,5153207,"US"
"Emmeloord",52.71083,5.74861,2756139,"NL"
"Enfield Town",51.65147,-0.08497,2649997,"GB"
"Enschede",52.21833,6.89583,2756071,"NL"
"Ensenada",31.87149,-116.60071,4006702,"MX"
"Erbil",36.19257,44.01062,95446,"IQ"
"Erd",47.39489,18.91361,3053281,"HU"
"Erfurt",50.9787,11.03283,2929670,"DE"
"Erie",42.12922,-80.08506,5188843,"US"
"Erlangen",49.59099,11.00783,2929567,"DE"
"Erzincan",39.73919,39.49015,315373,"TR"
"Erzurum",39.90861,41.27694,315368,"TR"
"Esbjerg",55.47028,8.45187,2622447,"DK"
"Escondido",33.11921,-117.08642,5346827,"US"
"Eskilstuna",59.36661,16.5077,2715953,"SE"
"Eskisehir",39.77667,30.52056,315202,"TR"
"Esmeraldas",-19.7625,-44.31389,3464008,"BR"
"Esmeraldas",0.9592,-79.65397,3657990,"EC"
"Essen",51.45657,7.01228,2928810,"DE"
"Esteli",13.09185,-86.35384,3619194,"NI"
"Eugene",44.05207,-123.08675,5725846,"US"
"Evanston",42.04114,-87.69006,4891382,"US"
"Evansville",37.97476,-87.55585,4257227,"US"
"Everett",47.97898,-122.20208,5793933,"US"
"Evora",38.56667,-7.9,2268406,"PT"
"Evreux",49.02414,1.15082,3019265,"FR"
"Evry",48.63333,2.45,3019256,"FR"
"Exeter",50.7236,-3.52751,2649808,"GB"
"Fairfield",38.24936,-122.03997,5347335,"US"
"Fairfield",39.34589,-84.5605,4511283,"US"
"Fairfield",41.14121,-73.26373,4834157,"US"
"Fall River",41.70149,-71.15505,4936159,"US"
"Famagusta",35.12054,33.93894,146617,"CY"
"Fargo",46.87719,-96.7898,5059163,"US"
"Faridabad",28.41124,77.31316,1271951,"IN"
"Farmington Hills",42.48531,-83.37716,4992523,"US"
"Farnborough",51.29424,-0.75565,2649672,"GB"
"Faro",37.01937,-7.93223,2268339,"PT"
"Fayetteville",35.05266,-78.87836,4466033,"US"
"Federal Way",47.32232,-122.31262,5794245,"US"
"Feira de Santana",-12.26667,-38.96667,3463478,"BR"
"Ferizaj",42.37056,21.15528,784759,"XK"
"Ferrara",44.83804,11.62057,3177090,"IT"
"Fes",34.03313,-5.00028,2548885,"MA"
"Fethiye",36.64038,29.12758,314967,"TR"
"Figueres",42.26645,2.96163,3122453,"ES"
"Findlay",41.04422,-83.64993,5153924,"US"
"Fishers",39.95559,-86.01387,4257494,"US"
"Flagstaff",35.19807,-111.65127,5294810,"US"
"Flensburg",54.78431,9.43961,2926271,"DE"
"Florence",43.77925,11.24626,3176959,"IT"
"Florissant",38.78922,-90.32261,4386802,"US"
"Flower Mound",33.01457,-97.09696,4691585,"US"
"Focsani",45.7,27.18333,678015,"RO"
"Foggia",41.45845,15.55188,3176885,"IT"
"Folsom",38.67796,-121.17606,5349705,"US"
"Fond du Lac",43.775,-88.43883,5253352,"US"
"Fontana",34.09223,-117.43505,5349755,"US"
"Fontenay-sous-Bois",48.85442,2.48268,3017910,"FR"
"Forli",44.22177,12.04144,3176746,"IT"
"Formosa",-26.17753,-58.17814,3433899,"AR"
"Fort Collins",40.58526,-105.08442,5577147,"US"
"Fort Lauderdale",26.12231,-80.14338,4155966,"US"
"Fort McMurray",56.72676,-111.38103,5955895,"CA"
"Fort Myers",26.62168,-81.84059,4155995,"US"
"Fort Smith",35.38592,-94.39855,4111410,"US"
"Fort Wayne",41.1306,-85.12886,4920423,"US"
"Fort Worth",32.72541,-97.32085,4691930,"US"
"Fort-de-France",14.60892,-61.07334,3570675,"MQ"
"Fountain Valley",33.70918,-117.95367,5350207,"US"
"Framingham",42.27926,-71.41617,4937230,"US"
"Franca",-20.53861,-47.40083,3463011,"BR"
"Francisco Beltrao",-26.08111,-53.055,3462996,"BR"
"Frankfurt am Main",50.11552,8.68417,2925533,"DE"
"Franklin",35.92506,-86.86889,4623560,"US"
"Frederick",39.41427,-77.41054,4355585,"US"
"Fredericton",45.94541,-66.66558,5957776,"CA"
"Frederiksberg",55.67938,12.53463,2621942,"DK"
"Freeport",40.6576,-73.58318,5117949,"US"
"Freiburg",47.9959,7.85222,2925177,"DE"
"Frejus",43.43286,6.73524,3017253,"FR"
"Fremont",37.54827,-121.98857,5350734,"US"
"Fresnillo",23.18126,-102.87136,4006163,"MX"
"Fresno",36.74773,-119.77237,5350937,"US"
"Frisco",33.15067,-96.82361,4692559,"US"
"Frydek-Mistek",49.68333,18.35,3076127,"CZ"
"Fuengirola",36.53998,-4.62473,2517595,"ES"
"Fuenlabrada",40.28419,-3.79415,3121960,"ES"
"Fujisawa",35.34926,139.47666,1864092,"JP"
"Fukui-shi",36.06443,136.22257,1863985,"JP"
"Fukuoka",33.6,130.41667,1863967,"JP"
"Fukushima",37.75,140.46667,2112923,"JP"
"Fukuyama",34.48333,133.36667,1863917,"JP"
"Fullerton",33.87029,-117.92534,5351247,"US"
"Funchal",32.66568,-16.92547,2267827,"PT"
"Gabrovo",42.87472,25.33417,731549,"BG"
"Gaevle",60.67452,17.14174,2712414,"SE"
"Gainesville",29.65163,-82.32483,4156404,"US"
"Gaithersburg",39.14344,-77.20137,4355843,"US"
"Galati",45.45,28.05,677697,"RO"
"Gandia",38.96667,-0.18333,2517367,"ES"
"Ganja",40.68278,46.36056,586523,"AZ"
"Garanhuns",-8.88202,-36.50216,3399058,"BR"
"Garden Grove",33.77391,-117.94145,5351515,"US"
"Garland",32.91262,-96.63888,4693003,"US"
"Gary",41.59337,-87.34643,4920607,"US"
"Gastonia",35.26208,-81.1873,4467732,"US"
"Gateshead",54.96209,-1.60168,2648773,"GB"
"Gatineau",45.47723,-75.70164,5959974,"CA"
"Gaziantep",37.05944,37.3825,314830,"TR"
"Gdansk",54.35205,18.64637,3099434,"PL"
"Gdynia",54.51889,18.53188,3099424,"PL"
"Gelsenkirchen",51.50508,7.09654,2921466,"DE"
"General Pico",-35.65662,-63.75682,3855075,"AR"
"General Santos",6.11278,125.17167,1713022,"PH"
"Geneve",46.20222,6.14569,2660646,"CH"
"Gennevilliers",48.93333,2.3,3016321,"FR"
"Genoa",44.40478,8.94439,3176219,"IT"
"Gent",51.05,3.71667,2797656,"BE"
"George Town",5.41123,100.33543,1735106,"MY"
"Georgetown",6.80448,-58.15527,3378644,"GY"
"Germantown",39.17316,-77.27165,4356050,"US"
"Getafe",40.30571,-3.73295,3121437,"ES"
"Ghaziabad",28.66535,77.43915,1271308,"IN"
"Giessen",50.58727,8.67554,2920512,"DE"
"Gifu-shi",35.42291,136.76039,1863641,"JP"
"Gijon",43.53573,-5.66152,3121424,"ES"
"Gilbert",33.35283,-111.78903,5295903,"US"
"Gillingham",51.38914,0.54863,2648657,"GB"
"Gilroy",37.00578,-121.56828,5352214,"US"
"Giresun",40.91698,38.38741,746881,"TR"
"Girona",41.98311,2.82493,3121456,"ES"
"Giurgiu",43.88333,25.96667,677106,"RO"
"Gjilan",42.46045,21.46986,790674,"XK"
"Glasgow",55.86515,-4.25763,2648579,"GB"
"Glen Burnie",39.16261,-76.62469,4356188,"US"
"Glendale",33.53865,-112.18599,5295985,"US"
"Glendale",34.14251,-118.25508,5352423,"US"
"Gliwice",50.29761,18.67658,3099230,"PL"
"Glogow",51.66361,16.0845,3099213,"PL"
"Gloucester",51.86568,-2.2431,2648404,"GB"
"Gniezno",52.53481,17.58259,3099112,"PL"
"Goeteborg",57.70716,11.96679,2711537,"SE"
"Goettingen",51.53443,9.93228,2918632,"DE"
"Goianesia",-15.3175,-49.1175,3462378,"BR"
"Gold Coast",-28.00029,153.43088,2165087,"AU"
"Gomel",52.4345,30.9754,627907,"BY"
"Gomez Palacio",25.56985,-103.49588,4005775,"MX"
"Gongju",36.45556,127.12472,1842616,"KR"
"Goodyear",33.43532,-112.35821,5296266,"US"
"Goose Creek",32.98101,-80.03259,4580098,"US"
"Gorzow Wielkopolski",52.73679,15.22878,3098722,"PL"
"Gosport",50.79509,-1.12902,2648272,"GB"
"Gostivar",41.79601,20.90819,790295,"MK"
"Gouda",52.01667,4.70833,2755420,"NL"
"Governador Valadares",-18.85111,-41.94944,3462315,"BR"
"Goyang-si",37.65639,126.835,1842485,"KR"
"Granada",11.92988,-85.95602,3619136,"NI"
"Granada",37.18817,-3.60667,2517117,"ES"
"Granby",45.40008,-72.73243,5964215,"CA"
"Grand Forks",47.92526,-97.03285,5059429,"US"
"Grand Island",40.92501,-98.34201,5069297,"US"
"Grand Junction",39.06387,-108.55065,5423573,"US"
"Grand Prairie",32.74596,-96.99778,4694482,"US"
"Grand Rapids",42.96336,-85.66809,4994358,"US"
"Grande Prairie",55.16667,-118.80271,5964347,"CA"
"Granollers",41.60797,2.28773,3121145,"ES"
"Grantham",52.91149,-0.64184,2648208,"GB"
"Gravesend",51.44206,0.37106,2648187,"GB"
"Grays",51.47566,0.32521,2648182,"GB"
"Graz",47.06667,15.45,2778067,"AT"
"Great Falls",47.50024,-111.30081,5655240,"US"
"Great Yarmouth",52.60831,1.73052,2647984,"GB"
"Greater Noida",28.49615,77.53601,6954929,"IN"
"Greater Sudbury",46.49,-80.99001,5964700,"CA"
"Greeley",40.42331,-104.70913,5577592,"US"
"Green Bay",44.51916,-88.01983,5254962,"US"
"Greenock",55.94838,-4.76121,2647948,"GB"
"Greensboro",36.07264,-79.79198,4469146,"US"
"Greenville",35.61266,-77.36635,4469160,"US"
"Greenwood",39.61366,-86.10665,4258313,"US"
"Grenoble",45.16667,5.71667,3014728,"FR"
"Gresham",45.49818,-122.43148,5729485,"US"
"Greve",55.58333,12.3,2621215,"DK"
"Grimsby",53.56539,-0.07553,2647878,"GB"
"Groningen",53.21917,6.56667,2755251,"NL"
"Groznyy",43.31195,45.68895,558418,"RU"
"Grudziadz",53.48411,18.75366,3098218,"PL"
"Guadalajara",20.66682,-103.39182,4005539,"MX"
"Guadalajara",40.62862,-3.16185,3121070,"ES"
"Gualeguaychu",-33.00937,-58.51722,3433658,"AR"
"Guamuchil",25.4587,-108.07732,4005297,"MX"
"Guarapuava",-25.39048,-51.46541,3461879,"BR"
"Guasave",25.56745,-108.46756,4005219,"MX"
"Guatemala City",14.64072,-90.51327,3598132,"GT"
"Guatire",10.4762,-66.54266,3639898,"VE"
"Guayaquil",-2.20584,-79.90795,3657509,"EC"
"Guelph",43.54594,-80.25599,5967629,"CA"
"Guildford",51.23536,-0.57427,2647793,"GB"
"Guimaraes",41.44443,-8.29619,2738752,"PT"
"Gulfport",30.36742,-89.09282,4428667,"US"
"Gumi",36.1136,128.336,1842225,"KR"
"Gunsan",35.97861,126.71139,1842025,"KR"
"Guntur",16.29974,80.45729,1270668,"IN"
"Gurgaon",28.4601,77.02635,1270642,"IN"
"Guri-si",37.5986,127.1394,1841988,"KR"
"Guwahati",26.1844,91.7458,1271476,"IN"
"Gwalior",26.22983,78.17337,1270583,"IN"
"Gwangju",35.15472,126.91556,1841811,"KR"
"Gwangju",37.41,127.25722,1841810,"KR"
"Gyeongju",35.84278,129.21167,1841603,"KR"
"Gyeongsan-si",35.82333,128.73778,1841598,"KR"
"Gyor",47.68333,17.63512,3052009,"HU"
"Haarlem",52.38084,4.63683,2755003,"NL"
"Hachinohe",40.5,141.5,2130203,"JP"
"Hachioji",35.65583,139.32389,1863440,"JP"
"Hacienda Heights",33.99307,-117.96868,5354819,"US"
"Hackensack",40.88593,-74.04347,5098706,"US"
"Hadera",32.44192,34.9039,294946,"IL"
"Hagerstown",39.64176,-77.71999,4357141,"US"
"Haifa",32.81841,34.9885,294801,"IL"
"Haiphong",20.86481,106.68345,1581298,"VN"
"Hakodate",41.77583,140.73667,2130188,"JP"
"Halifax",53.71667,-1.85,2647632,"GB"
"Halle (Saale)",51.48158,11.97947,2911522,"DE"
"Halmstad",56.67446,12.85676,2708365,"SE"
"Hamamatsu",34.7,137.73333,1863289,"JP"
"Hamburg",53.57532,10.01534,2911298,"DE"
"Hamilton",-37.78333,175.28333,2190324,"NZ"
"Hamilton",43.25011,-79.84963,5969782,"CA"
"Hamilton",55.76667,-4.03333,2647570,"GB"
"Hammond",41.58337,-87.50004,4921100,"US"
"Hampton",37.02987,-76.34522,4762894,"US"
"Hanford",36.32745,-119.64568,5355180,"US"
"Hannover",52.37052,9.73322,2910831,"DE"
"Hanoi",21.0245,105.84117,1581130,"VN"
"Hardenberg",52.57583,6.61944,2754861,"NL"
"Harderwijk",52.34167,5.62083,2754848,"NL"
"Harlingen",26.19063,-97.6961,4696233,"US"
"Harlow",51.77655,0.11158,2647461,"GB"
"Harrisburg",40.2737,-76.88442,5192726,"US"
"Harrogate",53.99078,-1.5373,2647428,"GB"
"Hartford",41.76371,-72.68509,4835797,"US"
"Hartlepool",54.68611,-1.2125,2647400,"GB"
"Haskovo",41.93415,25.55557,730435,"BG"
"Hasselt",50.93106,5.33781,2796491,"BE"
"Hastings",50.85519,0.57292,2647356,"GB"
"Hat Yai",7.00836,100.47668,1610780,"TH"
"Hatfield",51.76338,-0.22419,2647349,"GB"
"Hattiesburg",31.32712,-89.29034,4429295,"US"
"Havant",50.8567,-0.98559,2647317,"GB"
"Havirov",49.77984,18.43688,3075921,"CZ"
"Hawalli",29.33278,48.02861,285629,"KW"
"Hawthorne",33.9164,-118.35257,5355828,"US"
"Hayes",51.51579,-0.4234,2647261,"GB"
"Hayward",37.66882,-122.0808,5355933,"US"
"Heerenveen",52.95929,5.91854,2754669,"NL"
"Heerhugowaard",52.67144,4.84862,2754659,"NL"
"Heerlen",50.88365,5.98154,2754652,"NL"
"Heidelberg",49.40768,8.69079,2907911,"DE"
"Heilbronn",49.13995,9.22054,2907669,"DE"
"Helmond",51.48167,5.66111,2754447,"NL"
"Helsingborg",56.04673,12.69437,2706767,"SE"
"Hemel Hempstead",51.75368,-0.44975,2647138,"GB"
"Hemet",33.74761,-116.97307,5356277,"US"
"Hempstead",40.70621,-73.61874,5120478,"US"
"Hengelo",52.26583,6.79306,2754394,"NL"
"Hereford",52.05684,-2.71482,2647074,"GB"
"Hermosillo",29.1026,-110.97732,4004898,"MX"
"Herning",56.13932,8.97378,2620425,"DK"
"Heroica Guaymas",27.91928,-110.89755,4005143,"MX"
"Heroica Matamoros",25.87972,-97.50417,3523466,"MX"
"Heroica Zitacuaro",19.43612,-100.35733,4004885,"MX"
"Herzliya",32.16627,34.82536,294778,"IL"
"Hesperia",34.42639,-117.30088,5356576,"US"
"Hialeah",25.8576,-80.27811,4158476,"US"
"Hickory",35.73319,-81.3412,4470778,"US"
"Hicksville",40.76843,-73.52513,5120656,"US"
"High Point",35.95569,-80.00532,4471025,"US"
"High Wycombe",51.62907,-0.74934,2646914,"GB"
"Highlands Ranch",39.55388,-104.96943,5425043,"US"
"Hillsboro",45.52289,-122.98983,5731371,"US"
"Hilo",19.72991,-155.09073,5855927,"US"
"Hilversum",52.22333,5.17639,2754064,"NL"
"Himeji",34.81667,134.7,1862627,"JP"
"Hirakata",34.81352,135.64914,1862540,"JP"
"Hiroshima",34.4,132.45,1862415,"JP"
"Hoboken",40.74399,-74.03236,5099133,"US"
"Hodmezovasarhely",46.41667,20.33333,719965,"HU"
"Hollywood",26.0112,-80.14949,4158928,"US"
"Holon",32.01034,34.77918,294751,"IL"
"Homestead",25.46872,-80.47756,4159050,"US"
"Hong Kong",22.27832,114.17469,1819729,"HK"
"Honolulu",21.30694,-157.85833,5856195,"US"
"Hoofddorp",52.3025,4.68889,2753801,"NL"
"Hoorn",52.6425,5.05972,2753638,"NL"
"Hoover",33.40539,-86.81138,4067994,"US"
"Horsens",55.86066,9.85034,2619771,"DK"
"Hortolandia",-22.85833,-47.22,3461655,"BR"
"Houston",29.76328,-95.36327,4699066,"US"
"Hove",50.83088,-0.1672,2646504,"GB"
"Hradec Kralove",50.20923,15.83277,3074967,"CZ"
"Hrodna",53.6884,23.8258,627904,"BY"
"Huancayo",-12.06513,-75.20486,3939459,"PE"
"Huanuco",-9.93062,-76.24223,3696417,"PE"
"Huddersfield",53.64904,-1.78416,2646458,"GB"
"Hue",16.4619,107.59546,1580240,"VN"
"Huelva",37.26638,-6.94004,2516548,"ES"
"Huesca",42.13615,-0.4087,3120514,"ES"
"Hunedoara",45.75,22.9,675918,"RO"
"Huntington",38.41925,-82.44515,4809537,"US"
"Huntington Beach",33.6603,-117.99923,5358705,"US"
"Huntington Park",33.98168,-118.22507,5358736,"US"
"Huntsville",34.7304,-86.58594,4068590,"US"
"Hvidovre",55.65719,12.47364,2619528,"DK"
"Hwaseong-si",37.20682,126.8169,1843847,"KR"
"Hyderabad",17.38405,78.45636,1269843,"IN"
"Hyeres",43.12038,6.12857,3012937,"FR"
"Iasi",47.16667,27.6,675810,"RO"
"Ibarra",0.35171,-78.12233,3655673,"EC"
"Ica",-14.06777,-75.72861,3938527,"PE"
"Icheon-si",37.27917,127.4425,1843702,"KR"
"Idaho Falls",43.46658,-112.03414,5596475,"US"
"Iguatu",-6.35944,-39.29861,3398331,"BR"
"Iksan",35.94389,126.95444,1843491,"KR"
"Iligan",8.2289,124.24344,1711084,"PH"
"Iligan City",8.25,124.4,1711082,"PH"
"Iloilo",10.69694,122.56444,1711005,"PH"
"Imus",14.42972,120.93667,1710914,"PH"
"Incheon",37.45646,126.70515,1843564,"KR"
"Independence",39.09112,-94.41551,4391812,"US"
"Indianapolis",39.76838,-86.15804,4259418,"US"
"Indio",33.7207,-116.21677,5359446,"US"
"Indore",22.71792,75.8333,1269743,"IN"
"Inglewood",33.96168,-118.35313,5359488,"US"
"Ingolstadt",48.76508,11.42372,2895992,"DE"
"Innsbruck",47.26266,11.39454,2775220,"AT"
"Inowroclaw",52.79886,18.26387,3097872,"PL"
"Inverness",57.47908,-4.22398,2646088,"GB"
"Ioannina",39.66486,20.85189,261779,"GR"
"Iowa City",41.66113,-91.53017,4862034,"US"
"Ipoh",4.5841,101.0829,1734634,"MY"
"Ipswich",52.05917,1.15545,2646057,"GB"
"Iquique",-20.22036,-70.13913,3887127,"CL"
"Iquitos",-3.74912,-73.25383,3696183,"PE"
"Irapuato",20.67675,-101.35628,4004330,"MX"
"Irkutsk",52.29778,104.29639,2023469,"RU"
"Irvine",33.66946,-117.82311,5359777,"US"
"Irvington",40.73232,-74.23487,5099724,"US"
"Iskenderun",36.58718,36.17347,311111,"TR"
"Isparta",37.76444,30.55222,311073,"TR"
"Issy-les-Moulineaux",48.82104,2.27718,3012649,"FR"
"Istanbul",41.01384,28.94966,745044,"TR"
"Itabira",-19.61917,-43.22694,3460960,"BR"
"Itaborai",-22.74444,-42.85944,3460950,"BR"
"Itajuba",-22.42556,-45.45278,3460834,"BR"
"Itaquaquecetuba",-23.48611,-46.34833,3460644,"BR"
"Itatiba",-23.00583,-46.83889,3460598,"BR"
"Itu",-23.26417,-47.29917,3460535,"BR"
"Ivano-Frankivsk",48.9215,24.70972,707471,"UA"
"Ivanovo",56.99719,40.97139,555312,"RU"
"Ivry-sur-Seine",48.81568,2.38487,3012621,"FR"
"Iwaki",37.05,140.88333,2112539,"JP"
"Ixtapaluca",19.31556,-98.88284,3526682,"MX"
"Izhevsk",56.84976,53.20448,554840,"RU"
"Izmir",38.41273,27.13838,311046,"TR"
"Izumisano",34.41667,135.31667,1861091,"JP"
"Jabalpur",23.16697,79.95006,1269633,"IN"
"Jablonec nad Nisou",50.72431,15.17108,3074603,"CZ"
"Jacarei",-23.30528,-45.96583,3460370,"BR"
"Jackson",32.29876,-90.18481,4431410,"US"
"Jackson",35.61452,-88.81395,4632595,"US"
"Jackson",39.7765,-74.86238,4502434,"US"
"Jacksonville",30.33218,-81.65565,4160021,"US"
"Jacksonville",34.75405,-77.43024,4473083,"US"
"Jaen",37.76922,-3.79028,2516395,"ES"
"Jaipur",26.91962,75.78781,1269515,"IN"
"Jakarta",-6.21462,106.84513,1642911,"ID"
"Jalandhar",31.32556,75.57917,1268782,"IN"
"Jammu",32.73569,74.86911,1269321,"IN"
"Jamshedpur",22.80278,86.18545,1269300,"IN"
"Janesville",42.68279,-89.01872,5257754,"US"
"Jaragua do Sul",-26.48611,-49.06667,3460102,"BR"
"Jaroslaw",50.01623,22.67776,770380,"PL"
"Jastrzebie Zdroj",49.95542,18.57479,3097391,"PL"
"Jau",-22.29639,-48.55778,3460005,"BR"
"Jaworzno",50.20528,19.27498,3097333,"PL"
"Jeddah",21.54238,39.19797,105343,"SA"
"Jefferson City",38.5767,-92.17352,4392388,"US"
"Jeffersonville",38.27757,-85.73718,4259671,"US"
"Jeju City",33.50972,126.52194,1846266,"KR"
"Jelenia Gora",50.89973,15.72899,3097257,"PL"
"Jelgava",56.65,23.71278,459279,"LV"
"Jeongeup",35.60004,126.91699,11695689,"KR"
"Jeonju",35.82194,127.14889,1845457,"KR"
"Jerez de la Frontera",36.68645,-6.13606,2516326,"ES"
"Jersey City",40.72816,-74.07764,5099836,"US"
"Jerusalem",31.76904,35.21633,281184,"IL"
"Jihlava",49.3961,15.59124,3074199,"CZ"
"Joao Pessoa",-7.115,-34.86306,3397277,"BR"
"Jodhpur",21.90174,70.0327,1268866,"IN"
"Jodhpur",26.26841,73.00594,1268865,"IN"
"Joenkoeping",57.78145,14.15618,2702979,"SE"
"Johannesburg",-26.20227,28.04363,993800,"ZA"
"Johns Creek",34.02893,-84.19858,6331909,"US"
"Johnson City",36.31344,-82.35347,4633419,"US"
"Johor Bahru",1.4655,103.7578,1732752,"MY"
"Joinville",-26.30444,-48.84556,3459712,"BR"
"Joliet",41.52519,-88.0834,4898015,"US"
"Jonesboro",35.8423,-90.70428,4116834,"US"
"Joplin",37.08423,-94.51328,4392768,"US"
"Juchitan de Zaragoza",16.43603,-95.01975,3526357,"MX"
"Juiz de Fora",-21.76417,-43.35028,3459505,"BR"
"Juliaca",-15.5,-70.13333,3937513,"PE"
"Jundiai",-23.18639,-46.88417,3459462,"BR"
"Junin",-34.58382,-60.94332,3853354,"AR"
"Kabul",34.52813,69.17233,1138958,"AF"
"Kagoshima",31.56667,130.55,1860827,"JP"
"Kahramanmaras",37.5847,36.92641,310859,"TR"
"Kaiserslautern",49.443,7.77161,2894003,"DE"
"Kakinada",16.96036,82.23809,1268561,"IN"
"Kakogawacho-honmachi",34.76943,134.82905,1860704,"JP"
"Kalamata",37.03913,22.11265,261604,"GR"
"Kalamazoo",42.29171,-85.58723,4997787,"US"
"Kalasin",16.43281,103.50658,1610469,"TH"
"Kaliningrad",54.70649,20.51095,554234,"RU"
"Kalisz",51.76109,18.09102,3096880,"PL"
"Kaluga",54.5293,36.27542,553915,"RU"
"Kamloops",50.66648,-120.3192,5989045,"CA"
"Kampen",52.555,5.91111,2753106,"NL"
"Kanazawa",36.6,136.61667,1860243,"JP"
"Kang-neung",37.75556,128.89611,1843137,"KR"
"Kannur",11.86752,75.35763,1274987,"IN"
"Kanpur",26.46523,80.34975,1267995,"IN"
"Kansas City",39.09973,-94.57857,4393217,"US"
"Kansas City",39.11417,-94.62746,4273837,"US"
"Kaohsiung",22.61626,120.31333,1673820,"TW"
"Kaposvar",46.36667,17.8,3050616,"HU"
"Karabuk",41.20488,32.62768,744562,"TR"
"Karachi",24.8608,67.0104,1174872,"PK"
"Karagandy",49.83333,73.1658,609655,"KZ"
"Karaman",37.18111,33.215,309527,"TR"
"Kardzhali",41.65,25.36667,729794,"BG"
"Karlovy Vary",50.23271,12.87117,3073803,"CZ"
"Karlsruhe",49.00937,8.40444,2892794,"DE"
"Karlstad",59.3793,13.50357,2701680,"SE"
"Kars",40.59825,43.08548,743952,"TR"
"Karvina",49.854,18.54169,3073789,"CZ"
"Kashiwa",35.86224,139.97732,1859924,"JP"
"Kassel",51.31667,9.5,2892518,"DE"
"Kastamonu",41.37805,33.77528,743882,"TR"
"Kathmandu",27.70169,85.3206,1283240,"NP"
"Katowice",50.25841,19.02754,3096472,"PL"
"Kaunas",54.90272,23.90961,598316,"LT"
"Kawagoe",35.90861,139.48528,1859740,"JP"
"Kawaguchi",35.80521,139.71072,1859730,"JP"
"Kawasaki",35.52056,139.71722,1859642,"JP"
"Kayseri",38.73222,35.48528,308464,"TR"
"Kazan",55.78874,49.12214,551487,"RU"
"Kazanlak",42.61667,25.4,730496,"BG"
"Kearny",40.76843,-74.14542,5099967,"US"
"Kecskemet",46.90618,19.69128,3050434,"HU"
"Kediri",-7.81667,112.01667,1640660,"ID"
"Kedzierzyn-Kozle",50.34984,18.22606,3096372,"PL"
"Kelowna",49.88307,-119.48568,5990579,"CA"
"Kemerovo",55.33333,86.08333,1503901,"RU"
"Kendall",25.67927,-80.31727,4160711,"US"
"Kenitra",34.26101,-6.5802,2544571,"MA"
"Kenner",29.99409,-90.24174,4329753,"US"
"Kennewick",46.21125,-119.13723,5799610,"US"
"Kenosha",42.58474,-87.82119,5258393,"US"
"Kent",47.38093,-122.23484,5799625,"US"
"Kerkrade",50.86583,6.0625,2752923,"NL"
"Kettering",52.39836,-0.72571,2645753,"GB"
"Kfar Saba",32.175,34.90694,294514,"IL"
"Khanjarah",40.59995,33.6153,749748,"TR"
"Kharkiv",49.98081,36.25272,706483,"UA"
"Khartoum",15.55177,32.53241,379252,"SD"
"Kherson",46.65581,32.6178,706448,"UA"
"Khimki",55.89704,37.42969,550280,"RU"
"Khmelnytskyi",49.42161,26.99653,706369,"UA"
"Khon Kaen",16.44671,102.833,1609776,"TH"
"Kiel",54.32133,10.13489,2891122,"DE"
"Kielce",50.87033,20.62752,769250,"PL"
"Kigali",-1.94995,30.05885,202061,"RW"
"Killeen",31.11712,-97.7278,4703223,"US"
"Kimhae",35.23417,128.88111,1842943,"KR"
"Kingsport",36.54843,-82.56182,4634662,"US"
"Kingston",17.99702,-76.79358,3489854,"JM"
"Kingston",44.22976,-76.48098,5992500,"CA"
"Kingston upon Hull",53.7446,-0.33525,2645425,"GB"
"Kirikkale",39.84528,33.50639,307654,"TR"
"Kirkcaldy",56.11683,-3.15999,2645298,"GB"
"Kirkland",47.68149,-122.20874,5799841,"US"
"Kirov",58.59665,49.66007,548408,"RU"
"Kirsehir",39.14583,34.16389,307515,"TR"
"Kissimmee",28.30468,-81.41667,4160983,"US"
"Kitakyushu",33.85181,130.85034,1859307,"JP"
"Kitchener",43.42537,-80.5112,5992996,"CA"
"Kladno",50.14734,14.10285,3073699,"CZ"
"Klagenfurt am Woerthersee",46.62472,14.30528,2774326,"AT"
"Klaipeda",55.70888,21.14312,598098,"LT"
"Klang",3.03333,101.45,1732905,"MY"
"Knoxville",35.96064,-83.92074,4634946,"US"
"Kobe",34.6913,135.183,1859171,"JP"
"Koblenz",50.35357,7.57883,2886946,"DE"
"Kochi",33.55,133.53333,1859146,"JP"
"Koeln",50.93333,6.95,2886242,"DE"
"Kofu",35.66667,138.56667,1859100,"JP"
"Kokomo",40.48643,-86.1336,4922388,"US"
"Kokshetau",53.28333,69.4,1522203,"KZ"
"Kolding",55.4904,9.47216,2618528,"DK"
"Kolhapur",16.69563,74.23167,1266285,"IN"
"Kolkata",22.56263,88.36304,1275004,"IN"
"Kollam",8.88113,76.58469,1259091,"IN"
"Komotini",41.11917,25.40535,735640,"GR"
"Komsomolsk-on-Amur",50.55034,137.00995,2021851,"RU"
"Kon Tum",14.35451,108.00759,1578500,"VN"
"Konin",52.22338,18.25121,3095321,"PL"
"Konstanz",47.66033,9.17582,2885679,"DE"
"Konya",37.87135,32.48464,306571,"TR"
"Koriyama",37.4,140.38333,2112141,"JP"
"Korolev",55.91417,37.82556,554233,"RU"
"Korolyov",55.91732,37.81786,8521441,"RU"
"Kortrijk",50.82803,3.26487,2794055,"BE"
"Koshigaya",35.89035,139.78916,1858729,"JP"
"Kosice",48.71395,21.25808,724443,"SK"
"Kostanay",53.21435,63.62463,1519928,"KZ"
"Kostroma",57.76647,40.92686,543878,"RU"
"Koszalin",54.19438,16.17222,3095049,"PL"
"Kota",25.18254,75.83907,1266049,"IN"
"Kota Bharu",6.13328,102.2386,1736376,"MY"
"Kota Kinabalu",5.9749,116.0724,1733432,"MY"
"Kottayam",9.58692,76.52132,1265911,"IN"
"Kragujevac",44.01667,20.91667,789128,"RS"
"Krakow",50.06143,19.93658,3094802,"PL"
"Krasnodar",45.04484,38.97603,542420,"RU"
"Krasnoyarsk",56.01839,92.86717,1502026,"RU"
"Kremenchuk",49.06802,33.42041,704147,"UA"
"Kropyvnytskyi",48.5132,32.2597,705812,"UA"
"Krosno",49.68866,21.77058,767470,"PL"
"Krusevac",43.58,21.33389,788975,"RS"
"Kryvyi Rih",47.90966,33.38044,703845,"UA"
"Kuala Lumpur",3.1412,101.68653,1735161,"MY"
"Kuala Terengganu",5.3302,103.1408,1734705,"MY"
"Kuantan",3.8077,103.326,1735227,"MY"
"Kuching",1.55,110.33333,1735634,"MY"
"Kumamoto",32.80589,130.69181,1858421,"JP"
"Kumanovo",42.13222,21.71444,788886,"MK"
"Kurashiki",34.58333,133.76667,1858311,"JP"
"Kurgan",55.45,65.33333,1501321,"RU"
"Kursk",51.73733,36.18735,538560,"RU"
"Kusatsu",35.01667,135.96667,1858067,"JP"
"Kutahya",39.42417,29.98333,305268,"TR"
"Kutaisi",42.26791,42.69459,613607,"GE"
"Kutno",52.23064,19.36409,3094170,"PL"
"Kuwait City",29.36972,47.97833,285787,"KW"
"Kwangmyong",37.47722,126.86639,1948005,"KR"
"Kwangyang",34.97528,127.58917,1841775,"KR"
"Kyiv",50.45466,30.5238,703448,"UA"
"Kyoto",35.02107,135.75385,1857910,"JP"
"Kyustendil",42.28389,22.69111,729730,"BG"
"Kyzyl-Orda",44.8479,65.49989,9862222,"KZ"
"Kyzylorda",44.85278,65.50917,1519922,"KZ"
"L'Hospitalet de Llobregat",41.35967,2.10028,3120619,"ES"
"La Ceiba",15.75971,-86.78221,3608248,"HN"
"La Crosse",43.80136,-91.23958,5258957,"US"
"La Habra",33.93196,-117.94617,5363922,"US"
"La Laguna",28.4853,-16.32014,2511401,"ES"
"La Linea de la Concepcion",36.16809,-5.34777,2515812,"ES"
"La Louviere",50.48657,4.18785,2793508,"BE"
"La Mesa",32.76783,-117.02308,5363990,"US"
"La Paz",-16.5,-68.15,3911925,"BO"
"La Paz",24.14437,-110.3005,4000900,"MX"
"La Plata",-34.92145,-57.95453,3432043,"AR"
"La Rioja",-29.41105,-66.85067,3848950,"AR"
"La Roche-sur-Yon",46.66667,-1.43333,3006767,"FR"
"La Rochelle",46.16667,-1.15,3006787,"FR"
"La Romana",18.42733,-68.97285,3500957,"DO"
"La Serena",-29.90453,-71.24894,3884373,"CL"
"La Seyne-sur-Mer",43.09818,5.88471,3006414,"FR"
"Lafayette",30.22409,-92.01984,4330145,"US"
"Lafayette",40.4167,-86.87529,4922462,"US"
"Lagos",6.45407,3.39467,2332459,"NG"
"Lagos de Moreno",21.35666,-101.93768,4002224,"MX"
"Laguna Niguel",33.52253,-117.70755,5364329,"US"
"Lahore",31.558,74.35071,1172451,"PK"
"Lajeado",-29.46694,-51.96139,3459035,"BR"
"Lake Charles",30.21309,-93.2044,4330236,"US"
"Lake Elsinore",33.66808,-117.32726,5364499,"US"
"Lake Forest",33.64697,-117.68922,5364514,"US"
"Lake Havasu City",34.4839,-114.32245,5301388,"US"
"Lake Ridge",38.68789,-77.29776,4768351,"US"
"Lakeland",28.03947,-81.9498,4161438,"US"
"Lakeville",44.64969,-93.24272,5034059,"US"
"Lakewood",39.70471,-105.08137,5427946,"US"
"Lakewood",40.09789,-74.21764,5100280,"US"
"Lancaster",34.69804,-118.13674,5364940,"US"
"Lancaster",54.04649,-2.79988,2644972,"GB"
"Lansing",42.73253,-84.55553,4998830,"US"
"Laredo",27.50641,-99.50754,4705349,"US"
"Largo",27.90979,-82.78842,4161580,"US"
"Larisa",39.63689,22.41761,258576,"GR"
"Larnaca",34.92291,33.6233,146400,"CY"
"Las Cruces",32.31232,-106.77834,5475352,"US"
"Las Palmas de Gran Canaria",28.09973,-15.41343,2515270,"ES"
"Las Pinas",14.45056,120.98278,1707174,"PH"
"Latina",41.46614,12.9043,3175058,"IT"
"Lausanne",46.516,6.63282,2659994,"CH"
"Laval",45.56995,-73.692,6050610,"CA"
"Laval",48.06667,-0.76667,3005866,"FR"
"Lawrence",38.97167,-95.23525,4274277,"US"
"Lawton",34.60869,-98.39033,4540737,"US"
"Layton",41.06022,-111.97105,5777107,"US"
"Le Blanc-Mesnil",48.93872,2.46138,3005269,"FR"
"Le Havre",49.4938,0.10767,3003796,"FR"
"Le Mans",48,0.2,3003603,"FR"
"League City",29.50745,-95.09493,4705692,"US"
"Lecce",40.35481,18.17244,3174953,"IT"
"Leeds",53.79648,-1.54785,2644688,"GB"
"Leesburg",39.11566,-77.5636,4769125,"US"
"Leeuwarden",53.20139,5.80859,2751792,"NL"
"Leganes",40.32718,-3.7635,3118594,"ES"
"Legaspi",13.14125,123.74073,1706889,"PH"
"Legnica",51.21006,16.1619,3093692,"PL"
"Leicester",52.6386,-1.13169,2644668,"GB"
"Leiden",52.15833,4.49306,2751773,"NL"
"Leigh",53.49642,-2.51973,2644660,"GB"
"Leipzig",51.33962,12.37129,2879139,"DE"
"Leiria",39.74362,-8.80705,2267095,"PT"
"Lelystad",52.50833,5.475,2751738,"NL"
"Leme",-22.18556,-47.39028,3458662,"BR"
"Leon",12.43787,-86.87804,3618030,"NI"
"Leon",42.60003,-5.57032,3118532,"ES"
"Leon de los Aldama",21.12908,-101.67374,3998655,"MX"
"Leskovac",42.99806,21.94611,788709,"RS"
"Leszno",51.84034,16.57494,3093524,"PL"
"Letchworth Garden City",51.97938,-0.22664,8224216,"GB"
"Lethbridge",49.69999,-112.81856,6053154,"CA"
"Leuven",50.87959,4.70093,2792482,"BE"
"Levallois-Perret",48.89389,2.28864,2998975,"FR"
"Levittown",40.15511,-74.82877,5197796,"US"
"Levittown",40.72593,-73.51429,5124276,"US"
"Lewisville",33.04623,-96.99417,4706057,"US"
"Lexington",37.98869,-84.47772,4297983,"US"
"Lexington-Fayette",38.0498,-84.45855,4297999,"US"
"Liberec",50.76711,15.05619,3071961,"CZ"
"Liberia",10.63504,-85.43772,3623076,"CR"
"Libreville",0.39241,9.45356,2399697,"GA"
"Liege",50.63373,5.56749,2792413,"BE"
"Liepaja",56.51667,21.01667,457954,"LV"
"Lille",50.63297,3.05858,2998324,"FR"
"Limassol",34.68406,33.03794,146384,"CY"
"Limoges",45.83153,1.25781,2998286,"FR"
"Limon",9.99074,-83.03596,3622247,"CR"
"Linares",-35.84667,-71.59308,3883167,"CL"
"Linares",38.09519,-3.63602,2515045,"ES"
"Lincoln",-34.86649,-61.5302,3846864,"AR"
"Lincoln",40.8,-96.66696,5072006,"US"
"Lincoln",53.22683,-0.53792,2644487,"GB"
"Linden",40.62205,-74.24459,5100506,"US"
"Linz",48.30639,14.28611,2772400,"AT"
"Lipa City",13.9411,121.1631,1706090,"PH"
"Lipetsk",52.60311,39.57076,535121,"RU"
"Lisbon",38.71667,-9.13333,2267057,"PT"
"Little Rock",34.74648,-92.28959,4119403,"US"
"Liverpool",53.41058,-2.97794,2644210,"GB"
"Livingston",55.90288,-3.52261,2644204,"GB"
"Livonia",42.36837,-83.35271,4999837,"US"
"Ljubljana",46.05108,14.50513,3196359,"SI"
"Lleida",41.61674,0.62218,3118514,"ES"
"Lodi",38.1302,-121.27245,5367565,"US"
"Lodz",51.75,19.46667,3093133,"PL"
"Logan",41.73549,-111.83439,5777544,"US"
"Logrono",42.46667,-2.45,3118150,"ES"
"Loja",-3.99313,-79.20422,3654667,"EC"
"Lome",6.13748,1.21227,2365267,"TG"
"Lomza",53.17806,22.05935,766027,"PL"
"London",42.98339,-81.23304,6058560,"CA"
"London",51.50853,-0.12574,2643743,"GB"
"Londrina",-23.31028,-51.16278,3458449,"BR"
"Long Beach",33.76696,-118.18923,5367929,"US"
"Long Eaton",52.89855,-1.27136,2643697,"GB"
"Longueuil",45.53121,-73.51806,6059891,"CA"
"Longview",32.5007,-94.74049,4707814,"US"
"Lorain",41.45282,-82.18237,5161262,"US"
"Lorca",37.67119,-1.7017,2514891,"ES"
"Lorena",-22.73083,-45.12472,3458425,"BR"
"Lorient",47.75,-3.36667,2997577,"FR"
"Los Angeles",-37.46973,-72.35366,3882428,"CL"
"Los Angeles",34.05223,-118.24368,5368361,"US"
"Los Mochis",25.79302,-108.99808,3997479,"MX"
"Lota",-37.08994,-73.1577,3881276,"CL"
"Loughborough",52.76667,-1.2,2643567,"GB"
"Louisville",38.25424,-85.75941,4299276,"US"
"Lowell",42.63342,-71.31617,4942618,"US"
"Lower Hutt",-41.21667,174.91667,2188164,"NZ"
"Luanda",-8.83682,13.23432,2240449,"AO"
"Luang Prabang",19.88601,102.13503,1655559,"LA"
"Lubbock",33.57786,-101.85517,5525577,"US"
"Lublin",51.25,22.56667,765876,"PL"
"Lucca",43.84369,10.50447,3174530,"IT"
"Lucknow",26.83928,80.92313,1264733,"IN"
"Ludhiana",30.91204,75.85379,1264728,"IN"
"Luebeck",53.86893,10.68729,2875601,"DE"
"Lugano",46.01008,8.96004,2659836,"CH"
"Lugo",43.00992,-7.55602,3117814,"ES"
"Lugoj",45.68861,21.90306,674531,"RO"
"Luimneach",52.66472,-8.62306,2962943,"IE"
"Lujan",-34.57028,-59.105,3430988,"AR"
"Lulea",65.58415,22.15465,604490,"SE"
"Luleburgaz",41.40385,27.35918,741855,"TR"
"Lund",55.70584,13.19321,2693678,"SE"
"Luton",51.87967,-0.41748,2643339,"GB"
"Lutsk",50.75932,25.34244,702569,"UA"
"Luxembourg",49.61167,6.13,2960316,"LU"
"Luzern",47.05048,8.30635,2659811,"CH"
"Lviv",49.83826,24.02324,702550,"UA"
"Lynchburg",37.41375,-79.14225,4771075,"US"
"Lynn",42.46676,-70.94949,4942807,"US"
"Lynwood",33.93029,-118.21146,5369367,"US"
"Lyon",45.74846,4.84671,2996944,"FR"
"Lyubertsy",55.67719,37.89322,532615,"RU"
"Maastricht",50.84833,5.68889,2751283,"NL"
"Macapa",0.03889,-51.06639,3396016,"BR"
"Maceio",-9.66583,-35.73528,3395981,"BR"
"Machala",-3.25861,-79.96053,3654533,"EC"
"Macon",32.84069,-83.6324,4207400,"US"
"Madera",36.96134,-120.06072,5369568,"US"
"Madison",34.69926,-86.74833,4074267,"US"
"Madison",43.07305,-89.40123,5261457,"US"
"Madrid",40.4165,-3.70256,3117735,"ES"
"Madurai",9.91769,78.11898,1264521,"IN"
"Maebashi",36.4,139.08333,1857843,"JP"
"Magdeburg",52.12773,11.62916,2874545,"DE"
"Magnitogorsk",53.41861,59.04722,532288,"RU"
"Mahilyow",53.9168,30.3449,625665,"BY"
"Maidenhead",51.52279,-0.71986,2643186,"GB"
"Maidstone",51.26667,0.51667,2643179,"GB"
"Mainz",49.98419,8.2791,2874225,"DE"
"Maisons-Alfort",48.81171,2.43945,2996568,"FR"
"Makassar",-5.14861,119.43194,1622786,"ID"
"Makati City",14.55027,121.03269,1703417,"PH"
"Makhachkala",42.97638,47.50236,532096,"RU"
"Malacca",2.196,102.2405,1734759,"MY"
"Malang",-7.9797,112.6304,1636722,"ID"
"Malappuram",11.04199,76.08154,1264154,"IN"
"Malatya",38.35018,38.31667,304922,"TR"
"Malden",42.4251,-71.06616,4942939,"US"
"Malmoe",55.60587,13.00073,2692969,"SE"
"Manado",1.48218,124.84892,1636544,"ID"
"Managua",12.13282,-86.2504,3617763,"NI"
"Manama",26.22787,50.58565,290340,"BH"
"Manassas",38.75095,-77.47527,4771401,"US"
"Manaus",-3.10194,-60.025,3663517,"BR"
"Manchester",42.99564,-71.45479,5089178,"US"
"Manchester",53.48095,-2.23743,2643123,"GB"
"Mandaluyong City",14.5832,121.0409,1701966,"PH"
"Mandeville",18.04168,-77.50714,3489577,"JM"
"Mangalore",12.91723,74.85603,1263780,"IN"
"Manhattan",39.18361,-96.57167,4274994,"US"
"Manila",14.6042,120.9822,1701668,"PH"
"Manisa",38.61202,27.42647,304827,"TR"
"Mankato",44.15906,-94.00915,5036420,"US"
"Mannheim",49.4891,8.46694,2873891,"DE"
"Mansfield",32.56319,-97.14168,4709013,"US"
"Mansfield",40.75839,-82.51545,5161723,"US"
"Mansfield",53.13333,-1.2,2643097,"GB"
"Manta",-0.96212,-80.71271,3654410,"EC"
"Manteca",37.79743,-121.21605,5370164,"US"
"Mantes-la-Jolie",48.98333,1.71667,2996148,"FR"
"Manzanillo",19.05222,-104.31583,8858079,"MX"
"Manzanillo",19.11695,-104.34214,3996663,"MX"
"Maple Grove",45.07246,-93.45579,5036493,"US"
"Maple Ridge",49.21939,-122.60193,6065686,"CA"
"Maputo",-25.96553,32.58322,1040652,"MZ"
"Mar del Plata",-38.00228,-57.55754,3430863,"AR"
"Maracaibo",10.66663,-71.61245,3633009,"VE"
"Maracay",10.23535,-67.59113,3632998,"VE"
"Marbella",36.51543,-4.88583,2514169,"ES"
"Margate",26.24453,-80.20644,4163407,"US"
"Maribor",46.55472,15.64667,3195506,"SI"
"Marica",-22.91944,-42.81861,3457708,"BR"
"Marietta",33.9526,-84.54993,4207783,"US"
"Marijampole",54.55991,23.35412,597231,"LT"
"Maringa",-23.42528,-51.93861,3457671,"BR"
"Mariupol",47.09514,37.54131,701822,"UA"
"Markham",43.86682,-79.2663,6066513,"CA"
"Marousi",38.05,23.8,265243,"GR"
"Marrakesh",31.63416,-7.99994,2542997,"MA"
"Marseille",43.29695,5.38107,2995469,"FR"
"Martin",49.06651,18.92399,3058780,"SK"
"Matagalpa",12.92559,-85.91747,3617708,"NI"
"Matao",-21.60333,-48.36583,3457509,"BR"
"Mataram",-8.58333,116.11667,1635882,"ID"
"Mataro",41.54211,2.4445,3117164,"ES"
"Matsudo",35.77995,139.90144,1857553,"JP"
"Matsue",35.48333,133.05,1857550,"JP"
"Matsumoto",36.23333,137.96667,1857519,"JP"
"Matsuyama",33.83916,132.76574,1926099,"JP"
"Maturin",9.74569,-63.18323,3778045,"VE"
"Maua",-23.66778,-46.46139,3457381,"BR"
"Mayagueez",18.20107,-67.13962,4566385,"PR"
"Mazatlan",23.2329,-106.4062,3996322,"MX"
"Mazeikiai",56.31667,22.33333,597188,"LT"
"McAllen",26.20341,-98.23001,4709796,"US"
"McKinney",33.19762,-96.61527,4710178,"US"
"Meaux",48.96014,2.87885,2994798,"FR"
"Mecca",21.42664,39.82563,104515,"SA"
"Mechelen",51.02574,4.47762,2791537,"BE"
"Medan",3.58333,98.66667,1214520,"ID"
"Medford",42.32652,-122.87559,5740099,"US"
"Medford",42.41843,-71.10616,4943629,"US"
"Medgidia",44.25,28.28333,673636,"RO"
"Medias",46.16667,24.35,673634,"RO"
"Medicine Hat",50.03928,-110.67661,6071618,"CA"
"Medina",24.46861,39.61417,109223,"SA"
"Meerut",28.98002,77.70636,1263214,"IN"
"Meknes",33.89352,-5.54727,2542715,"MA"
"Melbourne",-37.814,144.96332,2158177,"AU"
"Melbourne",28.08363,-80.60811,4163971,"US"
"Memphis",35.14953,-90.04898,4641239,"US"
"Mendoza",-32.89084,-68.82717,3844421,"AR"
"Menifee",33.72835,-117.14642,5372205,"US"
"Mentor",41.66616,-81.33955,5162645,"US"
"Merced",37.30216,-120.48297,5372253,"US"
"Mercedes",-34.65145,-59.43068,3430708,"AR"
"Merida",20.97537,-89.61696,3523349,"MX"
"Merida",8.58972,-71.15611,3632308,"VE"
"Meriden",41.53815,-72.80704,4838524,"US"
"Meridian",43.61211,-116.39151,5600685,"US"
"Merignac",44.83248,-0.63381,2994393,"FR"
"Mesa",33.42227,-111.82264,5304391,"US"
"Mesquite",32.7668,-96.59916,4710826,"US"
"Messina",38.19394,15.55256,2524170,"IT"
"Metairie",29.98409,-90.15285,4333177,"US"
"Metepec",19.25934,-99.60175,3523303,"MX"
"Methuen",42.7262,-71.19089,4943828,"US"
"Metz",49.11911,6.17269,2994160,"FR"
"Mexicali",32.62781,-115.45446,3996069,"MX"
"Mexico City",19.42847,-99.12766,3530597,"MX"
"Miami",25.77427,-80.19366,4164138,"US"
"Miami Beach",25.79065,-80.13005,4164143,"US"
"Miami Gardens",25.94204,-80.2456,4164167,"US"
"Michalovce",48.75434,21.9195,724144,"SK"
"Middelburg",51.5,3.61389,2750896,"NL"
"Middlesbrough",54.57623,-1.23483,2642607,"GB"
"Midland",31.99735,-102.07791,5526337,"US"
"Midland",43.61558,-84.24721,5001929,"US"
"Midwest City",35.44951,-97.3967,4542765,"US"
"Mielec",50.28709,21.4239,764849,"PL"
"Miercurea-Ciuc",46.35,25.8,673441,"RO"
"Milagro",-2.13404,-79.59415,3654215,"EC"
"Milan",45.46427,9.18951,3173435,"IT"
"Milpitas",37.42827,-121.90662,5373327,"US"
"Milton",43.51681,-79.88294,6074377,"CA"
"Milton Keynes",52.04172,-0.75583,2642465,"GB"
"Milwaukee",43.0389,-87.90647,5263045,"US"
"Minneapolis",44.97997,-93.26384,5037649,"US"
"Minot",48.23251,-101.29627,5690532,"US"
"Minsk",53.9,27.56667,625144,"BY"
"Miramar",25.98731,-80.23227,4164601,"US"
"Miri",4.39928,113.99163,1738050,"MY"
"Miskolc",48.1,20.78333,717582,"HU"
"Mislata",39.47523,-0.41825,2513811,"ES"
"Mission",26.21591,-98.32529,4711725,"US"
"Mission Viejo",33.60002,-117.672,5373763,"US"
"Mississauga",43.5789,-79.6583,6075357,"CA"
"Missoula",46.87215,-113.994,5666639,"US"
"Missouri City",29.61857,-95.53772,4711801,"US"
"Mitcham",51.40322,-0.16831,2642414,"GB"
"Mito",36.35,140.45,2111901,"JP"
"Miyazaki",31.91667,131.41667,1856717,"JP"
"Mlada Boleslav",50.41135,14.90318,3070544,"CZ"
"Mobile",30.69436,-88.04305,4076598,"US"
"Modena",44.64783,10.92539,3173331,"IT"
"Modesto",37.6391,-120.99688,5373900,"US"
"Moenchengladbach",51.18539,6.44172,2869894,"DE"
"Mokpo",34.81282,126.39181,1841066,"KR"
"Molina de Segura",38.05456,-1.20763,2513759,"ES"
"Moline",41.5067,-90.51513,4902476,"US"
"Monclova",26.90687,-101.42056,3995523,"MX"
"Moncton",46.09454,-64.7965,6076211,"CA"
"Monroe",32.50931,-92.1193,4333669,"US"
"Mons",50.45413,3.95229,2790869,"BE"
"Montauban",44.01667,1.35,2993002,"FR"
"Montebello",34.00946,-118.10535,5374322,"US"
"Montego Bay",18.47116,-77.91883,3489460,"JM"
"Monterrey",25.67507,-100.31847,3995465,"MX"
"Montes Claros",-16.735,-43.86167,3456814,"BR"
"Montevideo",-34.90328,-56.18816,3441575,"UY"
"Montgomery",32.36681,-86.29997,4076784,"US"
"Montpellier",43.61092,3.87723,2992166,"FR"
"Montreal",45.50884,-73.58781,6077243,"CA"
"Montreuil",48.86415,2.44322,2992090,"FR"
"Monza",45.58005,9.27246,3172629,"IT"
"Moore",35.33951,-97.4867,4542975,"US"
"Morelia",19.70078,-101.18443,3995402,"MX"
"Morioka",39.7,141.15,2111834,"JP"
"Moroleon",20.12571,-101.19208,3995343,"MX"
"Moron",-34.6509,-58.61956,3430545,"AR"
"Mossoro",-5.1875,-37.34417,3394682,"BR"
"Most",50.50301,13.63617,3070291,"CZ"
"Mostar",43.34333,17.80806,3194828,"BA"
"Mostoles",40.32234,-3.86496,3116025,"ES"
"Mount Laurel",39.934,-74.891,4503136,"US"
"Mountain View",37.38605,-122.08385,5375480,"US"
"Muenster",51.96236,7.62571,2867543,"DE"
"Mugla",37.21807,28.3665,304184,"TR"
"Mukdahan",16.54531,104.72351,1608597,"TH"
"Mulhouse",47.75,7.33333,2991214,"FR"
"Mumbai",19.07283,72.88261,1275339,"IN"
"Muncie",40.19338,-85.38636,4924006,"US"
"Munich",48.13743,11.57549,2867714,"DE"
"Murcia",37.98704,-1.13004,2513416,"ES"
"Murfreesboro",35.84562,-86.39027,4644312,"US"
"Murmansk",68.97917,33.09251,524305,"RU"
"Murrieta",33.55391,-117.21392,5375911,"US"
"Muscat",23.58413,58.40778,287286,"OM"
"Mykolayiv",46.96591,31.9974,700569,"UA"
"Myslowice",50.20745,19.16668,3091232,"PL"
"Mysore",12.29791,76.63925,1262321,"IN"
"Mytishchi",55.91163,37.73076,523812,"RU"
"Naberezhnyye Chelny",55.72545,52.41122,523750,"RU"
"Nador",35.16813,-2.93352,2541479,"MA"
"Naestved",55.22992,11.76092,2616038,"DK"
"Naga",13.61917,123.18139,1698829,"PH"
"Nagano",36.65,138.18333,1856215,"JP"
"Nagasaki",32.75,129.88333,1856177,"JP"
"Nagoya",35.18147,136.90641,1856057,"JP"
"Nagpur",21.14631,79.08491,1262180,"IN"
"Nagykanizsa",46.45347,16.99104,3047679,"HU"
"Naha",26.21667,127.68333,1856035,"JP"
"Nahariyya",33.00892,35.09814,294117,"IL"
"Nairobi",-1.28333,36.81667,184745,"KE"
"Nakhchivan",39.20889,45.41222,147429,"AZ"
"Nakhon Ratchasima",14.97066,102.10196,1608529,"TH"
"Nal'chik",43.49806,43.61889,523523,"RU"
"Nampa",43.54072,-116.56346,5601933,"US"
"Namur",50.4669,4.86746,2790471,"BE"
"Namyangju",37.63667,127.21417,1897122,"KR"
"Nanaimo",49.16638,-123.94003,6085772,"CA"
"Nancy",48.68439,6.18496,2990999,"FR"
"Nanded",19.16023,77.31497,1261977,"IN"
"Nanterre",48.89198,2.20675,2990970,"FR"
"Nantes",47.21725,-1.55336,2990969,"FR"
"Napa",38.29714,-122.28553,5376095,"US"
"Naperville",41.78586,-88.14729,4903279,"US"
"Napier",-39.4926,176.91233,2186313,"NZ"
"Naples",40.85216,14.26811,3172394,"IT"
"Nara-shi",34.68505,135.80485,1855612,"JP"
"Narbonne",43.18396,3.00141,2990919,"FR"
"Nashik",19.99727,73.79096,1261731,"IN"
"Nashua",42.76537,-71.46757,5090046,"US"
"Nashville",36.16589,-86.78444,4644585,"US"
"Nassau",25.05823,-77.34306,3571824,"BS"
"Natal",-5.795,-35.20944,3394023,"BR"
"Naucalpan de Juarez",19.39694,-99.27667,8858082,"MX"
"Naucalpan de Juarez",19.47851,-99.23963,3522790,"MX"
"Navi Mumbai",19.03681,73.01582,6619347,"IN"
"Navojoa",27.07028,-109.44372,3995019,"MX"
"Nea Ionia",38.0357,23.75733,256614,"GR"
"Necochea",-38.5545,-58.73961,3430443,"AR"
"Nefteyugansk",61.09979,72.60349,1497917,"RU"
"Nellore",14.44992,79.98697,1261529,"IN"
"Netanya",32.33291,34.85992,294071,"IL"
"Neuilly-sur-Seine",48.8846,2.26965,2990611,"FR"
"Neuquen",-38.95161,-68.0591,3843123,"AR"
"Nevers",46.98956,3.159,2990474,"FR"
"Nevsehir",38.625,34.71222,303831,"TR"
"New Bedford",41.63622,-70.93421,4945121,"US"
"New Braunfels",29.703,-98.12445,4714131,"US"
"New Britain",41.66121,-72.77954,4839292,"US"
"New Brunswick",40.48622,-74.45182,5101717,"US"
"New Delhi",28.63576,77.22445,1261481,"IN"
"New Haven",41.30815,-72.92816,4839366,"US"
"New Orleans",29.95465,-90.07507,4335045,"US"
"New Plymouth",-39.06667,174.08333,2186239,"NZ"
"New Rochelle",40.91149,-73.78235,5128549,"US"
"New Westminster",49.20678,-122.91092,6087844,"CA"
"New York City",40.71427,-74.00597,5128581,"US"
"Newark",40.05812,-82.40126,5164466,"US"
"Newcastle",-32.92715,151.77647,2155472,"AU"
"Newcastle upon Tyne",54.97328,-1.61396,2641673,"GB"
"Newmarket",44.05011,-79.46631,6087701,"CA"
"Newport",51.58774,-2.99835,2641598,"GB"
"Newport News",37.08339,-76.46965,4776024,"US"
"Newton",42.33704,-71.20922,4945283,"US"
"Niagara Falls",43.0945,-79.05671,5128723,"US"
"Niagara Falls",43.10012,-79.06627,6087892,"CA"
"Nice",43.70313,7.26608,2990440,"FR"
"Nicolas Romero",19.64177,-99.3068,3522732,"MX"
"Nicosia",35.17531,33.3642,146268,"CY"
"Nieuwegein",52.02917,5.08056,2750325,"NL"
"Nigde",37.96583,34.67935,303827,"TR"
"Niigata",37.88637,139.00589,1855431,"JP"
"Nijmegen",51.8425,5.85278,2750053,"NL"
"Niksic",42.7731,18.94446,3194494,"ME"
"Nimes",43.83333,4.35,2990363,"FR"
"Niort",46.32313,-0.45877,2990355,"FR"
"Nis",43.32472,21.90333,787657,"RS"
"Niteroi",-22.88333,-43.10361,3456283,"BR"
"Nitra",48.30763,18.08453,3058531,"SK"
"Nizhnevartovsk",60.9344,76.5531,1497543,"RU"
"Nizhniy Novgorod",56.32867,44.00205,520555,"RU"
"Nogales",31.30862,-110.94217,4004886,"MX"
"Noida",28.58,77.33,7279746,"IN"
"Noisy-le-Grand",48.84979,2.56266,2990189,"FR"
"Norfolk",36.84681,-76.28522,4776222,"US"
"Norman",35.22257,-97.43948,4543762,"US"
"Norrkoeping",58.59419,16.1826,2688368,"SE"
"North Bay",46.3168,-79.46633,6089426,"CA"
"North Bergen",40.80427,-74.01208,5101879,"US"
"North Bethesda",39.04455,-77.11887,4363843,"US"
"North Charleston",32.85462,-79.97481,4589387,"US"
"North Chicopee",42.18343,-72.59953,4945588,"US"
"North Glendale",34.16056,-118.26452,5377613,"US"
"North Miami",25.89009,-80.18671,4166232,"US"
"North Miami Beach",25.93315,-80.16255,4166233,"US"
"North Richland Hills",32.8343,-97.2289,4715292,"US"
"North Shore",-36.8,174.75,2185964,"NZ"
"North Vancouver",49.31636,-123.06934,6090785,"CA"
"Northampton",52.25,-0.88333,2641430,"GB"
"Norwalk",33.90224,-118.08173,5377995,"US"
"Norwalk",41.1176,-73.4079,4839822,"US"
"Norwich",52.62783,1.29834,2641181,"GB"
"Nottingham",52.9536,-1.15047,2641170,"GB"
"Nouakchott",18.08581,-15.9785,2377450,"MR"
"Noumea",-22.27407,166.44884,2139521,"NC"
"Nova Friburgo",-22.28194,-42.53111,3456166,"BR"
"Nova Iguacu",-22.75917,-43.45111,3456160,"BR"
"Novara",45.44694,8.62118,3172189,"IT"
"Nove Zamky",47.98544,18.16195,3058472,"SK"
"Novi Sad",45.25167,19.83694,3194360,"RS"
"Novokuznetsk",53.7557,87.1099,1496990,"RU"
"Novosibirsk",55.0415,82.9346,1496747,"RU"
"Nowy Sacz",49.62177,20.69705,763534,"PL"
"Noyabrsk",63.19309,75.43728,1496503,"RU"
"Nuernberg",49.45421,11.07752,2861650,"DE"
"Nuevo Laredo",27.47629,-99.51639,3522551,"MX"
"Nuneaton",52.52323,-1.46523,2641157,"GB"
"Nyiregyhaza",47.95539,21.71671,716935,"HU"
"O'Fallon",38.81061,-90.69985,4401242,"US"
"Oak Park",41.88503,-87.7845,4904381,"US"
"Oakland",37.80437,-122.2708,5378538,"US"
"Oaxaca",17.06542,-96.72365,3522507,"MX"
"Oberhausen",51.47805,6.8625,2860410,"DE"
"Ocala",29.1872,-82.14009,4166673,"US"
"Oceanside",33.19587,-117.37948,5378771,"US"
"Ocotlan",20.3553,-102.77358,3994489,"MX"
"Odense",55.39594,10.38831,2615876,"DK"
"Odessa",31.84568,-102.36764,5527554,"US"
"Odessa",46.47747,30.73262,698740,"UA"
"Odintsovo",55.67798,37.27773,516215,"RU"
"Odivelas",38.79269,-9.1838,2265467,"PT"
"OErebro",59.27412,15.2066,2686657,"SE"
"OEstersund",63.1792,14.63566,2685750,"SE"
"Ogden",41.223,-111.97383,5779206,"US"
"Ohrid",41.11722,20.80194,787487,"MK"
"Oita",33.23333,131.6,1854487,"JP"
"Okayama",34.65,133.93333,1854383,"JP"
"Oklahoma City",35.46756,-97.51643,4544349,"US"
"Olathe",38.8814,-94.81913,4276614,"US"
"Olavarria",-36.89272,-60.32254,3842670,"AR"
"Oldenburg",53.14118,8.21467,2857458,"DE"
"Oldham",53.54051,-2.1183,2641022,"GB"
"Olomouc",49.59552,17.25175,3069011,"CZ"
"Olongapo",14.82917,120.28278,1697175,"PH"
"Olsztyn",53.77995,20.49416,763166,"PL"
"Olympia",47.03787,-122.9007,5805687,"US"
"Omaha",41.25626,-95.94043,5074472,"US"
"Omsk",54.99244,73.36859,1496153,"RU"
"Ontario",34.06334,-117.65089,5379439,"US"
"Oosterhout",51.645,4.85972,2749450,"NL"
"Opava",49.93866,17.90257,3068927,"CZ"
"Opole",50.67211,17.92533,3090048,"PL"
"Oradea",47.0458,21.91833,671768,"RO"
"Oral",51.23333,51.36667,608668,"KZ"
"Ordu",40.97782,37.89047,741100,"TR"
"Orekhovo-Zuyevo",55.80672,38.96178,515024,"RU"
"Orel",52.96508,36.07849,515012,"RU"
"Orem",40.2969,-111.69465,5779334,"US"
"Orenburg",51.7727,55.0988,515003,"RU"
"Orlando",28.53834,-81.37924,4167147,"US"
"Orleans",47.90289,1.90389,2989317,"FR"
"Ormond Beach",29.28581,-81.05589,4167178,"US"
"Oruro",-17.98333,-67.15,3909234,"BO"
"Osaka",34.69374,135.50218,1853909,"JP"
"Osan",37.15222,127.07056,1839652,"KR"
"Oshawa",43.90012,-78.84957,6094578,"CA"
"Oshkosh",44.02471,-88.54261,5265838,"US"
"Osijek",45.55111,18.69389,3193935,"HR"
"Osmaniye",37.07417,36.24778,303195,"TR"
"Osnabrueck",52.27264,8.0498,2856883,"DE"
"Osorno",-40.57395,-73.13348,3877949,"CL"
"Oss",51.765,5.51806,2749234,"NL"
"Ostrava",49.83465,18.28204,3068799,"CZ"
"Ostroleka",53.08621,21.57566,762909,"PL"
"Ostrow Wielkopolski",51.65501,17.80686,3089684,"PL"
"Oswiecim",50.03437,19.21037,3089658,"PL"
"Otsu",35,135.86667,1853574,"JP"
"Ottawa",45.41117,-75.69812,6094817,"CA"
"Ouagadougou",12.36566,-1.53388,2357048,"BF"
"Ourense",42.33669,-7.86407,3114965,"ES"
"Overland Park",38.98223,-94.67079,4276873,"US"
"Oviedo",43.36029,-5.84476,3114711,"ES"
"Owensboro",37.77422,-87.11333,4303436,"US"
"Oxford",51.75222,-1.25596,2640729,"GB"
"Oxnard",34.1975,-119.17705,5380184,"US"
"Padang",-0.94924,100.35427,1633419,"ID"
"Paderborn",51.71905,8.75439,2855745,"DE"
"Padova",45.40797,11.88586,3171728,"IT"
"Paernu",58.38588,24.49711,589580,"EE"
"Paisley",55.83173,-4.43254,2640677,"GB"
"Pak Kret",13.91301,100.49883,1608048,"TH"
"Palatine",42.1103,-88.03424,4905211,"US"
"Palembang",-2.91673,104.7458,1633070,"ID"
"Palencia",42.00955,-4.52406,3114531,"ES"
"Palermo",38.13205,13.33561,2523920,"IT"
"Palghat",10.77319,76.65366,1260728,"IN"
"Palm Bay",28.03446,-80.58866,4167499,"US"
"Palm Beach Gardens",26.82339,-80.13865,4167519,"US"
"Palm Coast",29.58497,-81.20784,4167538,"US"
"Palm Desert",33.72255,-116.37697,5380626,"US"
"Palm Harbor",28.07807,-82.76371,4167545,"US"
"Palm Springs",33.8303,-116.54529,5380668,"US"
"Palma",39.56939,2.65024,2512989,"ES"
"Palmas",-10.16745,-48.32766,3474574,"BR"
"Palmdale",34.57943,-118.11646,5380698,"US"
"Palmerston North",-40.35636,175.61113,2185018,"NZ"
"Palo Alto",37.44188,-122.14302,5380748,"US"
"Palu",-0.90833,119.87083,1633034,"ID"
"Pamplona",42.81687,-1.64323,3114472,"ES"
"Panaji",15.49574,73.82624,1260607,"IN"
"Panama",8.9936,-79.51973,3703443,"PA"
"Pancevo",44.87083,20.64028,787237,"RS"
"Panevezys",55.73333,24.35,596128,"LT"
"Pantin",48.89437,2.40935,2988621,"FR"
"Paramaribo",5.86638,-55.16682,3383330,"SR"
"Paramount",33.88946,-118.15979,5381110,"US"
"Parana",-31.73197,-60.5238,3841956,"AR"
"Paranagua",-25.51626,-48.52537,3455070,"BR"
"Pardubice",50.04075,15.77659,3068582,"CZ"
"Paris",48.85341,2.3488,2988507,"FR"
"Parla",40.23604,-3.76752,3114256,"ES"
"Parma",41.40477,-81.72291,5166177,"US"
"Parma",44.79935,10.32618,3171457,"IT"
"Parral",26.93022,-105.6664,4004867,"MX"
"Parsippany",40.85788,-74.42599,5102427,"US"
"Pasadena",29.69106,-95.2091,4717782,"US"
"Pasadena",34.14778,-118.14452,5381396,"US"
"Pasaje",-3.32561,-79.80697,3653403,"EC"
"Pascani",47.2469,26.72291,6945426,"RO"
"Pasco",46.23958,-119.10057,5806298,"US"
"Pasig City",14.58691,121.0614,7290466,"PH"
"Passaic",40.85677,-74.12848,5102443,"US"
"Passau",48.5665,13.43122,2855328,"DE"
"Passos",-20.71889,-46.60972,3454847,"BR"
"Paterson",40.91677,-74.17181,5102466,"US"
"Patiala",30.33625,76.3922,1260107,"IN"
"Patna",25.59408,85.13563,1260086,"IN"
"Pato Branco",-26.22861,-52.67056,3454818,"BR"
"Patos de Minas",-18.57889,-46.51806,3454783,"BR"
"Patra",38.24444,21.73444,255683,"GR"
"Patzcuaro",19.51594,-101.60887,3993179,"MX"
"Pau",43.3,-0.36667,2988358,"FR"
"Pavia",45.19205,9.15917,3171366,"IT"
"Pavlodar",52.28333,76.96667,1520240,"KZ"
"Pawtucket",41.87871,-71.38256,5223869,"US"
"Pazardzhik",42.2,24.33333,728378,"BG"
"Pearland",29.56357,-95.28605,4718097,"US"
"Pecs",46.08333,18.23333,3046526,"HU"
"Pekanbaru",0.51667,101.44167,1631761,"ID"
"Pelotas",-31.77194,-52.3425,3454244,"BR"
"Pembroke Pines",26.00315,-80.22394,4168139,"US"
"Penapolis",-21.41972,-50.0775,3454235,"BR"
"Pensacola",30.42131,-87.21691,4168228,"US"
"Penza",53.20066,45.00464,511565,"RU"
"Peoria",33.5806,-112.23738,5308480,"US"
"Peoria",40.69365,-89.58899,4905687,"US"
"Pergamino",-33.88995,-60.57357,3841490,"AR"
"Perm",58.01046,56.25017,511196,"RU"
"Pernik",42.6,23.03333,728330,"BG"
"Perpignan",42.69764,2.89541,2987914,"FR"
"Perris",33.78252,-117.22865,5382146,"US"
"Perth",-31.95224,115.8614,2063523,"AU"
"Perth",56.39522,-3.43139,2640358,"GB"
"Perth Amboy",40.50677,-74.26542,5102578,"US"
"Perugia",43.1122,12.38878,3171180,"IT"
"Pescara",42.4584,14.20283,3171168,"IT"
"Pessac",44.81011,-0.64129,2987805,"FR"
"Petah Tiqwa",32.08707,34.88747,293918,"IL"
"Petaling Jaya",3.10726,101.60671,1735158,"MY"
"Peterborough",44.30012,-78.31623,6101645,"CA"
"Peterborough",52.57364,-0.24777,2640354,"GB"
"Petrogradka",59.96567,30.31154,8504948,"RU"
"Petrolina",-9.39861,-40.50083,3392242,"BR"
"Petropavl",54.86667,69.15,1520172,"KZ"
"Petrosani",45.41667,23.36667,670938,"RO"
"Petrozavodsk",61.78491,34.34691,509820,"RU"
"Pflugerville",30.43937,-97.62,4718711,"US"
"Phan Rang-Thap Cham",11.56432,108.98858,1571067,"VN"
"Pharr",26.1948,-98.18362,4718721,"US"
"Phatthaya",12.93333,100.88333,1614295,"TH"
"Philadelphia",39.95233,-75.16379,4560349,"US"
"Phitsanulok",16.82481,100.25858,1607708,"TH"
"Phnom Penh",11.56245,104.91601,1821306,"KH"
"Phra Nakhon Si Ayutthaya",14.35167,100.57739,1607532,"TH"
"Piatra Neamt",46.91667,26.33333,670889,"RO"
"Pickering",43.90012,-79.13289,6104111,"CA"
"Pico Rivera",33.98307,-118.09673,5382496,"US"
"Piedras Negras",28.70007,-100.52353,3992619,"MX"
"Piekary Slaskie",50.38017,18.92653,3089125,"PL"
"Pietermaritzburg",-29.61679,30.39278,965301,"ZA"
"Pila",53.15145,16.73782,3089033,"PL"
"Pilsen",49.74747,13.37759,3068160,"CZ"
"Pimpri",18.62292,73.80696,1259652,"IN"
"Pine Hills",28.55778,-81.4534,4168459,"US"
"Pinellas Park",27.8428,-82.69954,4168630,"US"
"Pinto",40.24147,-3.69999,3113415,"ES"
"Piotrkow Trybunalski",51.40547,19.70321,3088972,"PL"
"Piracicaba",-22.72528,-47.64917,3453643,"BR"
"Pisa",43.70853,10.4036,3170647,"IT"
"Piscataway",40.49927,-74.39904,5102713,"US"
"Pitesti",44.85,24.86667,670609,"RO"
"Pittsburg",38.02798,-121.88468,5383465,"US"
"Pittsburgh",40.44062,-79.99589,5206379,"US"
"Pittsfield",42.45008,-73.24538,4947459,"US"
"Piura",-5.19449,-80.63282,3693528,"PE"
"Plainfield",41.62697,-88.20395,4906125,"US"
"Plano",33.01984,-96.69889,4719457,"US"
"Plantation",26.13421,-80.23184,4168782,"US"
"Playa del Carmen",20.6274,-87.07987,3521342,"MX"
"Pleasanton",37.66243,-121.87468,5383777,"US"
"Pleiku",13.98333,108,1569684,"VN"
"Pleven",43.41667,24.61667,728203,"BG"
"Plock",52.54682,19.70638,3088825,"PL"
"Ploiesti",44.95,26.01667,670474,"RO"
"Plovdiv",42.15,24.75,728193,"BG"
"Plymouth",50.37153,-4.14305,2640194,"GB"
"Pocatello",42.8713,-112.44553,5604045,"US"
"Podgorica",42.44111,19.26361,3193044,"ME"
"Podolsk",55.42419,37.55472,508101,"RU"
"Pohang",36.02917,129.36481,1839071,"KR"
"Poinciana",28.14029,-81.45841,4168930,"US"
"Poitiers",46.58333,0.33333,2986495,"FR"
"Pokhara",28.26689,83.96851,1282898,"NP"
"Poltava",49.59373,34.54073,696643,"UA"
"Pomona",34.05529,-117.75228,5384170,"US"
"Pompano Beach",26.23786,-80.12477,4169014,"US"
"Ponce",18.01108,-66.61406,4566880,"PR"
"Ponferrada",42.54664,-6.59619,3113236,"ES"
"Pontevedra",42.431,-8.64435,3113209,"ES"
"Pontianak",-0.03194,109.325,1630789,"ID"
"Poole",50.71429,-1.98458,2640101,"GB"
"Poprad",49.06144,20.29798,723846,"SK"
"Porlamar",10.95771,-63.86971,3629965,"VE"
"Port Elizabeth",-33.91799,25.57007,964420,"ZA"
"Port Louis",-20.16194,57.49889,934154,"MU"
"Port of Spain",10.66668,-61.51889,3573890,"TT"
"Port Saint Lucie",27.29393,-80.35033,4169171,"US"
"Port-au-Prince",18.53917,-72.335,3718426,"HT"
"Porterville",36.06523,-119.01677,5384471,"US"
"Portland",43.66147,-70.25533,4975802,"US"
"Portland",45.52345,-122.67621,5746545,"US"
"Portmore",17.95032,-76.88215,3488981,"JM"
"Porto",41.14961,-8.61099,2735943,"PT"
"Porto Alegre",-30.03306,-51.23,3452925,"BR"
"Porto Velho",-8.76194,-63.90389,3662762,"BR"
"Portoviejo",-1.05458,-80.45445,3652941,"EC"
"Portsmouth",36.83543,-76.29827,4779999,"US"
"Portsmouth",50.79899,-1.09125,2639996,"GB"
"Posadas",-27.36708,-55.89608,3429886,"AR"
"Potosi",-19.58361,-65.75306,3907584,"BO"
"Povazska Bystrica",49.12153,18.42169,3058060,"SK"
"Poway",32.96282,-117.03586,5384690,"US"
"Poza Rica de Hidalgo",20.53315,-97.45946,3521168,"MX"
"Poznan",52.40692,16.92993,3088171,"PL"
"Prague",50.08804,14.42076,3067696,"CZ"
"Praia",14.93152,-23.51254,3374333,"CV"
"Prato",43.8805,11.09699,3169921,"IT"
"Prerov",49.45511,17.4509,3067580,"CZ"
"Presov",48.99839,21.23393,723819,"SK"
"Preston",53.76282,-2.70452,2639912,"GB"
"Pretoria",-25.74486,28.18783,964137,"ZA"
"Prievidza",48.77446,18.6275,3058000,"SK"
"Prilep",41.34514,21.55504,786735,"MK"
"Prince George",53.9166,-122.75301,6113365,"CA"
"Pristina",42.67272,21.16688,786714,"XK"
"Prizren",42.21389,20.73972,786712,"XK"
"Prokop'yevsk",53.9059,86.719,1494114,"RU"
"Prostejov",49.47188,17.11184,3067421,"CZ"
"Providence",41.82399,-71.41283,5224151,"US"
"Provo",40.23384,-111.65853,5780026,"US"
"Pruszkow",52.17072,20.81214,761228,"PL"
"Przemysl",49.78498,22.76728,761168,"PL"
"Pucallpa",-8.37915,-74.55387,3693345,"PE"
"Puducherry",11.93381,79.82979,1259425,"IN"
"Puebla",19.03793,-98.20346,3521081,"MX"
"Pueblo",38.25445,-104.60914,5435464,"US"
"Puerto La Cruz",10.21667,-64.61667,3629672,"VE"
"Puerto Madryn",-42.7692,-65.03851,3840092,"AR"
"Puerto Montt",-41.4693,-72.94237,3874960,"CL"
"Puerto Plata",19.79344,-70.6884,3493175,"DO"
"Puerto Real",36.52819,-6.19011,2512169,"ES"
"Puerto Vallarta",20.617,-105.23018,3991328,"MX"
"Puertollano",38.68712,-4.10734,2512177,"ES"
"Pulawy",51.41655,21.96939,760924,"PL"
"Pune",18.51957,73.85535,1259229,"IN"
"Punta Arenas",-53.15483,-70.91129,3874787,"CL"
"Punta Cana",18.58182,-68.40431,3494242,"DO"
"Punto Fijo",11.6956,-70.19957,3629576,"VE"
"Purmerend",52.505,4.95972,2748413,"NL"
"Putrajaya",2.93527,101.69112,6697380,"MY"
"Pyatigorsk",44.04861,43.05944,503550,"RU"
"Quartu Sant'Elena",39.22935,9.25004,2523665,"IT"
"Quatre Bornes",-20.26381,57.4791,934131,"MU"
"Queimados",-22.71611,-43.55528,3452073,"BR"
"Queluz",38.75657,-9.25451,2264268,"PT"
"Quetzaltenango",14.83472,-91.51806,3590979,"GT"
"Quevedo",-1.02863,-79.46352,3652567,"EC"
"Quezon City",14.6488,121.0509,1692192,"PH"
"Quillota",-32.88341,-71.24882,3874119,"CL"
"Quilmes",-34.72904,-58.26374,3429652,"AR"
"Quilpue",-33.04752,-71.44249,3874096,"CL"
"Quimper",48,-4.1,2984701,"FR"
"Quincy",42.25288,-71.00227,4948247,"US"
"Quito",-0.22985,-78.52495,3652462,"EC"
"Rabat",34.01325,-6.83255,2538475,"MA"
"Raciborz",50.09195,18.21928,3087584,"PL"
"Racine",42.72613,-87.78285,5268249,"US"
"Radom",51.40253,21.14714,760778,"PL"
"Rafaela",-31.25033,-61.4867,3839479,"AR"
"Raipur",21.23333,81.63333,1258980,"IN"
"Raipur",23.0391,90.76808,1185236,"BD"
"Rajkot",22.29161,70.79322,1258847,"IN"
"Raleigh",35.7721,-78.63861,4487042,"US"
"Ramat Gan",32.08227,34.81065,293788,"IL"
"Ramnicu Valcea",45.1,24.36667,668872,"RO"
"Rancagua",-34.17083,-70.74444,3873775,"CL"
"Ranchi",23.34316,85.3094,1258526,"IN"
"Rancho Cordova",38.58907,-121.30273,5385941,"US"
"Rancho Cucamonga",34.1064,-117.59311,5385955,"US"
"Rancho Palos Verdes",33.74446,-118.38702,5386035,"US"
"Randburg",-26.0941,28.00123,963241,"ZA"
"Randers",56.4607,10.03639,2615006,"DK"
"Rapid City",44.08054,-103.23101,5768233,"US"
"Ras al-Khaimah",25.78953,55.9432,291074,"AE"
"Ravenna",44.41344,12.20121,3169561,"IT"
"Reading",51.45625,-0.97113,2639577,"GB"
"Red Deer",52.26682,-113.802,6118158,"CA"
"Redding",40.58654,-122.39168,5570160,"US"
"Redditch",52.3065,-1.94569,2639557,"GB"
"Redlands",34.05557,-117.18254,5386754,"US"
"Redmond",47.67399,-122.12151,5808079,"US"
"Redwood City",37.48522,-122.23635,5386834,"US"
"Regensburg",49.01513,12.10161,2849483,"DE"
"Reggio nell'Emilia",44.69825,10.63125,3169522,"IT"
"Regina",50.45008,-104.6178,6119109,"CA"
"Rehovot",31.89421,34.81199,293725,"IL"
"Reims",49.25,4.03333,2984114,"FR"
"Rennes",48.11198,-1.67429,2983990,"FR"
"Reno",39.52963,-119.8138,5511077,"US"
"Renton",47.48288,-122.21707,5808189,"US"
"Repentigny",45.74222,-73.45008,6119518,"CA"
"Resistencia",-27.46056,-58.98389,3429577,"AR"
"Resita",45.30083,21.88917,668954,"RO"
"Reston",38.96872,-77.3411,4781530,"US"
"Reus",41.15612,1.10687,3111933,"ES"
"Reykjavik",64.13548,-21.89541,3413829,"IS"
"Reynosa",26.08061,-98.28835,3520339,"MX"
"Ribeirao Preto",-21.1775,-47.81028,3451328,"BR"
"Richardson",32.94818,-96.72972,4722625,"US"
"Richmond",37.55376,-77.46026,4781708,"US"
"Richmond",37.93576,-122.34775,5387428,"US"
"Richmond",49.17003,-123.13683,6122085,"CA"
"Richmond Hill",40.69983,-73.83125,5133825,"US"
"Richmond Hill",43.87111,-79.43725,6122091,"CA"
"Riga",56.946,24.10589,456172,"LV"
"Rijeka",45.32673,14.44241,3191648,"HR"
"Rijswijk",52.03634,4.32501,2748076,"NL"
"Rimini",44.05755,12.56528,3169361,"IT"
"Rimouski",48.44879,-68.52396,6354895,"CA"
"Rio Claro",-22.41139,-47.56139,3451234,"BR"
"Rio Cuarto",-33.13067,-64.34992,3838874,"AR"
"Rio de Janeiro",-22.90642,-43.18223,3451190,"BR"
"Rio de Mouro",38.77457,-9.3276,2263827,"PT"
"Rio do Sul",-27.21417,-49.64306,3451152,"BR"
"Rio Gallegos",-51.62261,-69.21813,3838859,"AR"
"Rio Grande",-53.78769,-67.70946,3838854,"AR"
"Rio Tercero",-32.17301,-64.11405,3838793,"AR"
"Rio Tinto",41.18259,-8.55811,2735083,"PT"
"Riobamba",-1.67098,-78.64712,3652350,"EC"
"Rishon LeZiyyon",31.97102,34.78939,293703,"IL"
"Riverside",33.95335,-117.39616,5387877,"US"
"Riverview",27.86614,-82.32648,4170156,"US"
"Riyadh",24.68773,46.72185,108410,"SA"
"Rize",41.02083,40.52194,740483,"TR"
"Roanoke",37.27097,-79.94143,4782167,"US"
"Rochdale",53.61766,-2.1552,2639272,"GB"
"Rochester",43.15478,-77.61556,5134086,"US"
"Rochester",44.02163,-92.4699,5043473,"US"
"Rochester Hills",42.65837,-83.14993,5007402,"US"
"Rock Hill",34.92487,-81.02508,4593142,"US"
"Rockford",42.27113,-89.094,4907959,"US"
"Rocklin",38.79073,-121.23578,5388319,"US"
"Rockville",39.084,-77.15276,4367175,"US"
"Rocky Mount",35.93821,-77.79053,4488762,"US"
"Roermond",51.19417,5.9875,2748000,"NL"
"Roeselare",50.94653,3.12269,2787889,"BE"
"Rogers",36.33202,-94.11854,4128894,"US"
"Roman",46.92119,26.92646,668732,"RO"
"Rome",41.89193,12.51133,3169070,"IT"
"Roodepoort",-26.1625,27.8725,936374,"ZA"
"Roorkee",29.86632,77.89118,1258044,"IN"
"Roosendaal",51.53083,4.46528,2747930,"NL"
"Rosario",-32.94682,-60.63932,3838583,"AR"
"Rosemead",34.08057,-118.07285,5388867,"US"
"Roseville",38.75212,-121.28801,5388881,"US"
"Roseville",42.49726,-82.93714,5007655,"US"
"Roskilde",55.64152,12.08035,2614481,"DK"
"Rosny-sous-Bois",48.87017,2.4991,2982757,"FR"
"Rostock",54.0887,12.14049,2844588,"DE"
"Rostov-na-Donu",47.23135,39.72328,501175,"RU"
"Roswell",34.02316,-84.36159,4219934,"US"
"Rotherham",53.43012,-1.35678,2639093,"GB"
"Rotorua",-38.13874,176.24516,6241325,"NZ"
"Rotterdam",51.9225,4.47917,2747891,"NL"
"Roubaix",50.69421,3.17456,2982681,"FR"
"Rouen",49.44313,1.09932,2982652,"FR"
"Round Rock",30.50826,-97.6789,4724129,"US"
"Royal Leamington Spa",52.3,-1.53333,2644737,"GB"
"Royal Oak",42.48948,-83.14465,5007804,"US"
"Royal Tunbridge Wells",51.13321,0.26256,2639022,"GB"
"Rubi",41.49226,2.03305,3111294,"ES"
"Ruda Slaska",50.2584,18.85632,3086800,"PL"
"Rueil-Malmaison",48.8765,2.18967,2982235,"FR"
"Ruesselsheim",49.98955,8.42251,2842884,"DE"
"Rugby",52.37092,-1.26417,2638978,"GB"
"Runcorn",53.34174,-2.73124,2638960,"GB"
"Ruse",43.85639,25.97083,727523,"BG"
"Rybnik",50.09713,18.54179,3086586,"PL"
"Rzeszow",50.04132,21.99901,759734,"PL"
"Saarbruecken",49.23262,7.00982,2842647,"DE"
"Sabac",44.74667,19.69,3191376,"RS"
"Sabadell",41.54329,2.10942,3111199,"ES"
"Sacramento",38.58157,-121.4944,5389489,"US"
"Saga",33.23333,130.3,1853303,"JP"
"Saguenay",48.41675,-71.06573,6137270,"CA"
"Sahuayo de Morelos",20.05859,-102.71575,3988258,"MX"
"Saint Cloud",45.5608,-94.16249,5044407,"US"
"Saint George",37.10415,-113.58412,5546220,"US"
"Saint Joseph",39.76861,-94.84663,4407010,"US"
"Saint Paul",44.94441,-93.09327,5045360,"US"
"Saint Peters",38.80033,-90.62651,4407237,"US"
"Saint Petersburg",59.93863,30.31413,498817,"RU"
"Saint-Eustache",45.565,-73.90554,6138175,"CA"
"Saint-Germain-en-Laye",48.9,2.08333,2979783,"FR"
"Saint-Hyacinthe",45.63076,-72.95699,6138374,"CA"
"Saint-Jean-sur-Richelieu",45.30713,-73.26259,6138495,"CA"
"Saint-Jerome",45.78036,-74.00365,6138501,"CA"
"Saint-Louis",-21.28585,55.41124,935223,"RE"
"Saint-Louis",16.01793,-16.48962,2246452,"SN"
"Saint-Maur-des-Fosses",48.79395,2.49323,2978179,"FR"
"Saint-Nazaire",47.28333,-2.2,2977921,"FR"
"Saint-Priest",45.69613,4.93891,2977356,"FR"
"Saint-Quentin",49.84889,3.28757,2977295,"FR"
"Saitama",35.90807,139.65657,6940394,"JP"
"Sakai",34.58333,135.46667,1853195,"JP"
"Sakon Nakhon",17.16116,104.14725,1606790,"TH"
"Salamanca",20.57196,-101.19154,3988214,"MX"
"Salamanca",40.96882,-5.66388,3111108,"ES"
"Sale",53.42519,-2.32443,2638678,"GB"
"Salem",11.65376,78.15538,1257629,"IN"
"Salem",42.51954,-70.89672,4950065,"US"
"Salem",44.9429,-123.0351,5750162,"US"
"Salerno",40.67545,14.79328,3168673,"IT"
"Salford",53.48771,-2.29042,2638671,"GB"
"Salihli",38.48258,28.14774,302043,"TR"
"Salina Cruz",16.18405,-95.20143,3520064,"MX"
"Salinas",36.67774,-121.6555,5391295,"US"
"Salt Lake City",40.76078,-111.89105,5780993,"US"
"Salta",-24.7859,-65.41166,3838233,"AR"
"Saltillo",25.42321,-101.0053,3988086,"MX"
"Salzburg",47.79941,13.04399,2766824,"AT"
"Samara",53.20007,50.15,499099,"RU"
"Samarinda",-0.49167,117.14583,1629001,"ID"
"Samsun",41.27976,36.3361,740264,"TR"
"Samut Prakan",13.59934,100.59675,1606590,"TH"
"Samut Sakhon",13.54753,100.27362,1606588,"TH"
"San Angelo",31.46377,-100.43704,5530022,"US"
"San Antonio",-25.42126,-57.54725,3437127,"PY"
"San Antonio",-33.59473,-71.60746,3872395,"CL"
"San Antonio",29.42412,-98.49363,4726206,"US"
"San Bernardino",34.10834,-117.28977,5391710,"US"
"San Carlos de Bariloche",-41.14557,-71.30822,7647007,"AR"
"San Clemente",33.42697,-117.61199,5391791,"US"
"San Cristobal",7.76694,-72.225,3628473,"VE"
"San Diego",32.71533,-117.15726,5391811,"US"
"San Felipe",-32.74976,-70.72584,3872255,"CL"
"San Felipe",10.33991,-68.74247,3628423,"VE"
"San Fernando",15.03425,120.68445,1690039,"PH"
"San Fernando",36.4759,-6.19817,2511388,"ES"
"San Fernando del Valle de Catamarca",-28.46957,-65.78524,3837702,"AR"
"San Francisco",-31.42797,-62.08266,3837675,"AR"
"San Francisco",37.77493,-122.41942,5391959,"US"
"San Francisco de Macoris",19.30099,-70.25259,3493146,"DO"
"San Jacinto",33.78391,-116.95864,5392090,"US"
"San Jose",37.33939,-121.89496,5392171,"US"
"San Jose",9.93333,-84.08333,3621849,"CR"
"San Juan",-31.5375,-68.53639,3837213,"AR"
"San Juan",18.46633,-66.10572,4568127,"PR"
"San Juan de los Lagos",21.24893,-102.33036,3985865,"MX"
"San Juan del Rio",20.38886,-99.99577,3518692,"MX"
"San Leandro",37.72493,-122.15608,5392263,"US"
"San Luis",-33.29501,-66.33563,3837056,"AR"
"San Luis Obispo",35.28275,-120.65962,5392323,"US"
"San Luis Potosi",22.14982,-100.97916,3985606,"MX"
"San Luis Rio Colorado",32.45612,-114.77186,3985604,"MX"
"San Marcos",29.88327,-97.94139,4726491,"US"
"San Marcos",33.14337,-117.16614,5392368,"US"
"San Mateo",37.56299,-122.32553,5392423,"US"
"San Miguel",13.48333,-88.18333,3583446,"SV"
"San Miguel de Allende",20.91528,-100.74389,3985344,"MX"
"San Miguel de Tucuman",-26.82414,-65.2226,3836873,"AR"
"San Nicolas de los Arroyos",-33.33425,-60.2108,3836846,"AR"
"San Pedro de Macoris",18.46156,-69.29718,3493032,"DO"
"San Pedro Sula",15.50417,-88.025,3601782,"HN"
"San Rafael",-34.61772,-68.33007,3836669,"AR"
"San Rafael",37.97353,-122.53109,5392567,"US"
"San Ramon",37.77993,-121.97802,5392593,"US"
"San Salvador",13.68935,-89.18718,3583361,"SV"
"San Salvador de Jujuy",-24.19457,-65.29712,3836564,"AR"
"San Sebastian",43.31283,-1.97499,3110044,"ES"
"Sanaa",15.35472,44.20667,71137,"YE"
"Sandy Springs",33.92427,-84.37854,4221333,"US"
"Sanford",28.80055,-81.27312,4172086,"US"
"Sankt Gallen",47.42391,9.37477,2658822,"CH"
"Sankt Poelten",48.2,15.63333,2766429,"AT"
"Sanliurfa",37.16708,38.79392,298333,"TR"
"Sanlucar de Barrameda",36.77808,-6.3515,2511306,"ES"
"Santa Ana",13.99417,-89.55972,3583334,"SV"
"Santa Ana",33.74557,-117.86783,5392900,"US"
"Santa Barbara",34.42083,-119.69819,5392952,"US"
"Santa Barbara d'Oeste",-22.75361,-47.41361,3450404,"BR"
"Santa Clara",37.35411,-121.95524,5393015,"US"
"Santa Clarita",34.39166,-118.54259,5393049,"US"
"Santa Coloma de Gramenet",41.45152,2.2081,3109981,"ES"
"Santa Cruz",36.97412,-122.0308,5393052,"US"
"Santa Cruz de la Sierra",-17.78629,-63.18117,3904906,"BO"
"Santa Cruz de Tenerife",28.46824,-16.25462,2511174,"ES"
"Santa Cruz do Sul",-29.7175,-52.42583,3450269,"BR"
"Santa Fe",35.68698,-105.9378,5490263,"US"
"Santa Fe de la Vera Cruz",-31.63333,-60.7,3836277,"AR"
"Santa Maria",34.95303,-120.43572,5393180,"US"
"Santa Monica",34.01945,-118.49119,5393212,"US"
"Santa Rosa",-27.87083,-54.48139,3449822,"BR"
"Santa Rosa",-3.44882,-79.95952,3651356,"EC"
"Santa Rosa",-36.61667,-64.28333,3835994,"AR"
"Santa Rosa",14.31222,121.11139,1687894,"PH"
"Santander",43.46472,-3.80444,3109718,"ES"
"Santiago",-29.19167,-54.86722,3449741,"BR"
"Santiago",-33.45694,-70.64827,3871336,"CL"
"Santiago de Compostela",42.88052,-8.54569,3109642,"ES"
"Santiago de los Caballeros",19.4517,-70.69703,3492914,"DO"
"Santiago de Queretaro",20.58806,-100.38806,3991164,"MX"
"Santiago de Veraguas",8.1,-80.98333,3701117,"PA"
"Santiago del Estero",-27.79511,-64.26149,3835869,"AR"
"Santo Andre",-23.66389,-46.53833,3449701,"BR"
"Santo Antonio de Jesus",-12.96889,-39.26139,3449521,"BR"
"Santo Domingo de los Colorados",-0.25305,-79.17536,3651297,"EC"
"Santos",-23.96083,-46.33361,3449433,"BR"
"Sao Bernardo do Campo",-23.69389,-46.565,3449344,"BR"
"Sao Caetano do Sul",-23.62306,-46.55111,3449324,"BR"
"Sao Domingos de Rana",38.70123,-9.3276,2263352,"PT"
"Sao Jose",-28.21171,-49.1632,3448742,"BR"
"Sao Jose do Rio Preto",-20.81972,-49.37944,3448639,"BR"
"Sao Jose dos Campos",-23.17944,-45.88694,3448636,"BR"
"Sao Jose dos Pinhais",-25.5302,-49.20836,3448632,"BR"
"Sao Leopoldo",-29.76028,-51.14722,3448622,"BR"
"Sao Luis",-2.52972,-44.30278,3388368,"BR"
"Sao Paulo",-23.5475,-46.63611,3448439,"BR"
"Sapporo",43.06667,141.35,2128295,"JP"
"Sarajevo",43.84864,18.35644,3191281,"BA"
"Saransk",54.1838,45.1749,498698,"RU"
"Sarasota",27.33643,-82.53065,4172131,"US"
"Saratov",51.54056,46.00861,498677,"RU"
"Sarcelles",49,2.38333,2976043,"FR"
"Sarnia",42.97866,-82.40407,6141190,"CA"
"Sartrouville",48.9482,2.19169,2975921,"FR"
"Saskatoon",52.13238,-106.66892,6141256,"CA"
"Sassari",40.72586,8.55552,3167096,"IT"
"Satu Mare",47.79926,22.86255,667873,"RO"
"Sault Ste. Marie",46.51677,-84.33325,6141439,"CA"
"Savannah",32.08354,-81.09983,4221552,"US"
"Schaumburg",42.03336,-88.08341,4910713,"US"
"Schenectady",42.81424,-73.93957,5136454,"US"
"Schiedam",51.91917,4.38889,2747596,"NL"
"Scottsdale",33.50921,-111.89903,5313457,"US"
"Scranton",41.40916,-75.6649,5211303,"US"
"Scunthorpe",53.57905,-0.65437,2638324,"GB"
"Seattle",47.60621,-122.33207,5809844,"US"
"Secunderabad",17.50427,78.54263,1256922,"IN"
"Segovia",40.94808,-4.11839,3109256,"ES"
"Semarang",-6.99306,110.42083,1627896,"ID"
"Semey",50.42675,80.26669,1519422,"KZ"
"Sendai",38.26667,140.86667,2111149,"JP"
"Seongnam-si",37.43861,127.13778,1897000,"KR"
"Seosan",36.78167,126.45222,1835895,"KR"
"Seoul",37.566,126.9784,1835848,"KR"
"Seremban",2.7297,101.9381,1734810,"MY"
"Serra",-20.12861,-40.30778,3447779,"BR"
"Serres",41.08499,23.54757,734330,"GR"
"Sete Lagoas",-19.46583,-44.24667,3447624,"BR"
"Settat",33.00103,-7.61662,2537406,"MA"
"Sevastopol",44.58883,33.5224,694423,"UA"
"Sevilla",37.38283,-5.97317,2510911,"ES"
"Sevran",48.94472,2.52746,2974681,"FR"
"Sfantu-Gheorghe",45.86667,25.78333,667303,"RO"
"Shah Alam",3.08507,101.53281,1732903,"MY"
"Sharjah",25.33737,55.41206,292672,"AE"
"Sheboygan",43.75083,-87.71453,5272893,"US"
"Sheffield",53.38297,-1.4659,2638077,"GB"
"Sherbrooke",45.40008,-71.89908,6146143,"CA"
"Sherwood Park",53.51684,-113.3187,6146279,"CA"
"Shiliguri",26.71004,88.42851,1256525,"IN"
"Shimla",31.10442,77.16662,1256237,"IN"
"Shizuoka",34.98333,138.38333,1851717,"JP"
"Shkoder",42.06828,19.51258,3184081,"AL"
"Shrewsbury",52.71009,-2.75208,2637891,"GB"
"Shtip",41.74583,22.19583,785482,"MK"
"Shumen",43.27064,26.92286,727233,"BG"
"Shymkent",42.3,69.6,1518980,"KZ"
"Siauliai",55.93333,23.31667,594739,"LT"
"Sibiu",45.8,24.15,667268,"RO"
"Siedlce",52.16772,22.29006,759412,"PL"
"Siegen",50.87481,8.02431,2832495,"DE"
"Siem Reap",13.36179,103.86056,1822214,"KH"
"Siemianowice Slaskie",50.32738,19.02901,3086024,"PL"
"Siena",43.31822,11.33064,3166548,"IT"
"Sighetu Marmatiei",47.93195,23.88603,667227,"RO"
"Silao",20.94356,-101.42703,3983058,"MX"
"Silkeborg",56.1697,9.54508,2614030,"DK"
"Silver Spring",38.99067,-77.02609,4369596,"US"
"Simferopol",44.95719,34.11079,693805,"UA"
"Simi Valley",34.26945,-118.78148,5396003,"US"
"Sinop",-11.86417,-55.5025,6318696,"BR"
"Sint-Niklaas",51.16509,4.1437,2786578,"BE"
"Sioux City",42.49999,-96.40031,4876523,"US"
"Sioux Falls",43.54997,-96.70033,5231851,"US"
"Siracusa",37.07542,15.28664,2523083,"IT"
"Sittard",50.99833,5.86944,2747203,"NL"
"Sivas",39.74833,37.01611,300619,"TR"
"Skierniewice",51.95485,20.15837,759123,"PL"
"Skokie",42.03336,-87.73339,4911600,"US"
"Skopje",41.99646,21.43141,785842,"MK"
"Slatina",44.43333,24.36667,666767,"RO"
"Slavonski Brod",45.16028,18.01556,3190586,"HR"
"Sliven",42.68583,26.32917,727079,"BG"
"Slobozia",44.5647,27.3633,8581467,"RO"
"Slough",51.50949,-0.59541,2637627,"GB"
"Slupsk",54.46405,17.02872,3085450,"PL"
"Smolensk",54.7818,32.0401,491687,"RU"
"Smyrna",33.88399,-84.51438,4223379,"US"
"Soedertaelje",59.19554,17.62525,2676176,"SE"
"Sofia",42.69751,23.32415,727011,"BG"
"Sokcho",38.20701,128.59181,1836553,"KR"
"Solapur",17.67152,75.91044,1256436,"IN"
"Solihull",52.41426,-1.78094,2637546,"GB"
"Songkhla",7.19882,100.5951,1606147,"TH"
"Sonsonate",13.71889,-89.72417,3583102,"SV"
"Sopron",47.68501,16.59049,3045190,"HU"
"Sosnowiec",50.28682,19.10385,3085128,"PL"
"Sousse",35.82539,10.63699,2464915,"TN"
"South Bend",41.68338,-86.25001,4926563,"US"
"South Gate",33.95474,-118.21202,5397603,"US"
"South Jordan",40.56217,-111.92966,5781770,"US"
"South San Francisco",37.65466,-122.40775,5397765,"US"
"South Shields",54.99859,-1.4323,2637329,"GB"
"South Tangerang",-6.28862,106.71789,8581443,"ID"
"Southampton",50.90395,-1.40428,2637487,"GB"
"Southend-on-Sea",51.53782,0.71433,2637433,"GB"
"Southfield",42.47337,-83.22187,5010636,"US"
"Southport",53.64581,-3.01008,2637343,"GB"
"Spijkenisse",51.845,4.32917,2746932,"NL"
"Split",43.50891,16.43915,3190261,"HR"
"Spokane",47.65966,-117.42908,5811696,"US"
"Spring",30.07994,-95.41716,4733624,"US"
"Spring Hill",28.47688,-82.52546,4173838,"US"
"Springdale",36.18674,-94.12881,4132093,"US"
"Springfield",37.21533,-93.29824,4409896,"US"
"Springfield",39.80172,-89.64371,4250542,"US"
"Springfield",39.92423,-83.80882,4525353,"US"
"Springfield",42.10148,-72.58981,4951788,"US"
"St Albans",51.75,-0.33333,2638867,"GB"
"St Helens",53.45,-2.73333,2638785,"GB"
"St. Albert",53.63344,-113.63533,6155033,"CA"
"St. Catharines",43.17126,-79.24267,6155721,"CA"
"St. Louis",38.62727,-90.19789,4407066,"US"
"St. Petersburg",27.77086,-82.67927,4171563,"US"
"Stafford",52.80521,-2.11636,2637142,"GB"
"Stamford",41.05343,-73.53873,4843564,"US"
"Stara Zagora",42.43278,25.64194,726848,"BG"
"Starachowice",51.0374,21.07126,758390,"PL"
"Stargard",53.33672,15.0499,3084840,"PL"
"State College",40.79339,-77.86,5213681,"US"
"Stavropol'",45.0428,41.9734,487846,"RU"
"Sterling Heights",42.58031,-83.0302,5011148,"US"
"Sterlitamak",53.62462,55.95015,487495,"RU"
"Stevenage",51.90224,-0.20256,2636940,"GB"
"Stillwater",36.11561,-97.05837,4552215,"US"
"Stockholm",59.33258,18.0649,2673730,"SE"
"Stockton",37.9577,-121.29078,5399020,"US"
"Stockton-on-Tees",54.56848,-1.3187,2636876,"GB"
"Stoke-on-Trent",53.00415,-2.18538,2636841,"GB"
"Stourbridge",52.45608,-2.14317,2636769,"GB"
"Strasbourg",48.58392,7.74553,2973783,"FR"
"Strumica",41.4375,22.64333,785380,"MK"
"Stuttgart",48.78232,9.17702,2825297,"DE"
"Subang Jaya",3.04384,101.58062,8504423,"MY"
"Subotica",46.1,19.66667,3189595,"RS"
"Suceava",47.63333,26.25,665850,"RO"
"Suffolk",36.72836,-76.58496,4788158,"US"
"Sugar Land",29.61968,-95.63495,4734825,"US"
"Suita",34.76143,135.51567,1851483,"JP"
"Sumare",-22.82194,-47.26694,3447259,"BR"
"Summerville",33.0185,-80.17565,4597919,"US"
"Sumqayit",40.58972,49.66861,584923,"AZ"
"Sumter",33.92044,-80.34147,4597948,"US"
"Sumy",50.9216,34.80029,692194,"UA"
"Suncheon",34.94808,127.48947,1835648,"KR"
"Sunderland",54.90465,-1.38222,2636531,"GB"
"Sundsvall",62.39129,17.3063,2670781,"SE"
"Sungai Petani",5.647,100.48772,1735498,"MY"
"Sunnyvale",37.36883,-122.03635,5400075,"US"
"Surabaya",-7.24917,112.75083,1625822,"ID"
"Surakarta",-7.55611,110.83167,1625812,"ID"
"Surat",21.19594,72.83023,1255364,"IN"
"Surat Thani",9.14011,99.33311,1150515,"TH"
"Suresnes",48.87143,2.22929,2973675,"FR"
"Surgut",61.25,73.41667,1490624,"RU"
"Surprise",33.63059,-112.33322,5316428,"US"
"Surrey",49.10635,-122.82509,6159905,"CA"
"Sutton Coldfield",52.56667,-1.81667,2636486,"GB"
"Sutton in Ashfield",53.12542,-1.26135,2636484,"GB"
"Suva",-18.14161,178.44149,2198148,"FJ"
"Suwalki",54.11175,22.93087,757718,"PL"
"Suwon",37.29111,127.00889,1835553,"KR"
"Swansea",51.62079,-3.94323,2636432,"GB"
"Swidnica",50.84378,16.48859,3084093,"PL"
"Swietochlowice",50.29636,18.91726,3083988,"PL"
"Swinoujscie",53.91053,14.24712,3083955,"PL"
"Sydney",-33.86785,151.20732,2147714,"AU"
"Sydney",46.1351,-60.1831,6354908,"CA"
"Syktyvkar",61.67642,50.80994,485239,"RU"
"Syracuse",43.04812,-76.14742,5140405,"US"
"Szczecin",53.42894,14.55302,3083829,"PL"
"Szeged",46.253,20.14824,715429,"HU"
"Szekesfehervar",47.18995,18.41034,3044774,"HU"
"Szolnok",47.18333,20.2,715126,"HU"
"Szombathely",47.23088,16.62155,3044310,"HU"
"Taby",59.4439,18.06872,2669772,"SE"
"Tacna",-18.01465,-70.25362,3928128,"PE"
"Tacoma",47.25288,-122.44429,5812944,"US"
"Taganrog",47.23617,38.89688,484907,"RU"
"Taguig",14.5243,121.0792,1684308,"PH"
"Takamatsu",34.33333,134.05,1851100,"JP"
"Takarazuka",34.79936,135.35697,1851012,"JP"
"Takasaki",36.33333,139.01667,1851002,"JP"
"Takatsuki",34.84833,135.61678,1850910,"JP"
"Talavera de la Reina",39.96348,-4.83076,2510693,"ES"
"Talca",-35.4264,-71.65542,3870294,"CL"
"Taldykorgan",45.01556,78.37389,1518542,"KZ"
"Taldyqorghan",45,77.91667,1518543,"KZ"
"Tallahassee",30.43826,-84.28073,4174715,"US"
"Tallinn",59.43696,24.75353,588409,"EE"
"Tambov",52.73169,41.44326,484646,"RU"
"Tampa",27.94752,-82.45843,4174757,"US"
"Tampico",22.27817,-97.86772,3516355,"MX"
"Tamworth",52.63399,-1.69587,2636276,"GB"
"Tandil",-37.32167,-59.13316,3427833,"AR"
"Tangerang",-6.17806,106.63,1625084,"ID"
"Tangier",35.76727,-5.79975,2530335,"MA"
"Tanjore",10.78523,79.13909,1254649,"IN"
"Taranto",40.46438,17.24707,3165926,"IT"
"Taraz",42.9,71.36667,1516905,"KZ"
"Tarbes",43.23333,0.08333,2973385,"FR"
"Targoviste",44.92543,25.4567,665024,"RO"
"Targu-Mures",46.54245,24.55747,665004,"RO"
"Tarija",-21.53549,-64.72956,3903320,"BO"
"Tarnobrzeg",50.57304,21.67937,757033,"PL"
"Tarnow",50.01381,20.98698,757026,"PL"
"Tarnowskie Gory",50.44548,18.86147,3083440,"PL"
"Tarragona",41.11667,1.25,3108288,"ES"
"Tartu",58.38062,26.72509,588335,"EE"
"Tashkent",41.26465,69.21627,1512569,"UZ"
"Tatabanya",47.58494,18.39325,3044082,"HU"
"Tatui",-23.35556,-47.85694,3446692,"BR"
"Taubate",-23.02639,-45.55528,3446682,"BR"
"Taunton",41.9001,-71.08977,4952629,"US"
"Taunton",51.01494,-3.10293,2636177,"GB"
"Tauranga",-37.68611,176.16667,2208032,"NZ"
"Taylor",42.24087,-83.26965,5011908,"US"
"Tbilisi",41.69411,44.83368,611717,"GE"
"Tczew",54.09242,18.77787,3083426,"PL"
"Teaneck",40.8976,-74.01597,5105262,"US"
"Tecuci",45.84973,27.43441,665355,"RO"
"Tegucigalpa",14.0818,-87.20681,3600949,"HN"
"Tehran",35.69439,51.42151,112931,"IR"
"Tehuacan",18.46422,-97.39735,3516109,"MX"
"Tekirdag",40.9781,27.51101,738927,"TR"
"Tel Aviv",32.08088,34.78057,293397,"IL"
"Telde",27.99243,-15.41915,2510542,"ES"
"Telford",52.67659,-2.44926,3345439,"GB"
"Temecula",33.49364,-117.14836,5401395,"US"
"Tempe",33.41477,-111.90931,5317058,"US"
"Temple",31.09823,-97.34278,4735966,"US"
"Temuco",-38.73965,-72.59842,3870011,"CL"
"Tepic",21.50951,-104.89569,3981941,"MX"
"Teplice",50.6404,13.82451,3064288,"CZ"
"Terni",42.56335,12.64329,3165771,"IT"
"Ternopil",49.55342,25.58918,691650,"UA"
"Terrassa",41.56667,2.01667,3108286,"ES"
"Terre Haute",39.4667,-87.41391,4265737,"US"
"Terrebonne",45.70004,-73.64732,6163012,"CA"
"Tetovo",42.00973,20.97155,785082,"MK"
"Texcoco",19.51194,-98.88293,3515715,"MX"
"Thane",19.19704,72.96355,1254661,"IN"
"Thanh Pho Cao Bang",22.66568,106.25786,1586185,"VN"
"Thanh Pho Ha Long",20.95045,107.07336,1580410,"VN"
"Thanh Pho Hai Duong",20.94099,106.33302,1581326,"VN"
"Thanh Pho Lang Son",21.85264,106.76101,1576633,"VN"
"Thanh Pho Nam Dinh",20.43389,106.17729,1573517,"VN"
"Thanh Pho Thai Binh",20.45,106.34002,1566346,"VN"
"Thanh Pho Thai Nguyen",21.59422,105.84817,1566319,"VN"
"The Hague",52.07667,4.29861,2747373,"NL"
"The Hammocks",25.67149,-80.4445,4175117,"US"
"The Woodlands",30.15799,-95.48938,4736476,"US"
"Thessaloniki",40.64361,22.93086,734077,"GR"
"Thionville",49.36667,6.16667,2972811,"FR"
"Thiruvananthapuram",8.4855,76.94924,1254163,"IN"
"Thornton",39.86804,-104.97192,5441492,"US"
"Thousand Oaks",34.17056,-118.83759,5402405,"US"
"Thunder Bay",48.38202,-89.25018,6166142,"CA"
"Tiel",51.88667,5.42917,2746331,"NL"
"Tijuana",32.5027,-117.00371,3981609,"MX"
"Tilburg",51.55551,5.0913,2746301,"NL"
"Timisoara",45.75372,21.22571,665087,"RO"
"Timmins",48.46686,-81.33312,6166739,"CA"
"Tirana",41.3275,19.81889,3183875,"AL"
"Tiraspol",46.84274,29.62909,617239,"MD"
"Tiruchirappalli",10.8155,78.69651,1254388,"IN"
"Tirunelveli",8.72742,77.6838,1254361,"IN"
"Tirupati",13.63551,79.41989,1254360,"IN"
"Tlaxcala",19.31905,-98.19982,3815415,"MX"
"Tokat",40.31389,36.55444,738743,"TR"
"Tokorozawa",35.79916,139.46903,1850181,"JP"
"Tokushima",34.06667,134.56667,1850158,"JP"
"Tol'yatti",53.5303,49.3461,482283,"RU"
"Toledo",-24.71361,-53.74306,3446370,"BR"
"Toledo",39.8581,-4.02263,2510409,"ES"
"Toledo",41.66394,-83.55521,5174035,"US"
"Toluca",19.28786,-99.65324,3515302,"MX"
"Tomaszow Mazowiecki",51.53131,20.00855,756867,"PL"
"Toms River",39.95373,-74.19792,4504476,"US"
"Tomsk",56.49771,84.97437,1489425,"RU"
"Topeka",39.04833,-95.67804,4280539,"US"
"Toronto",43.70011,-79.4163,6167865,"CA"
"Torquay",50.46198,-3.52522,2635650,"GB"
"Torrance",33.83585,-118.34063,5403022,"US"
"Torrejon de Ardoz",40.45535,-3.46973,3107784,"ES"
"Torrelavega",43.34943,-4.04785,3107775,"ES"
"Torrent",39.43705,-0.46546,2510279,"ES"
"Torreon",25.54389,-103.41898,3981254,"MX"
"Torrevieja",37.97872,-0.68222,2510253,"ES"
"Torun",53.01375,18.59814,3083271,"PL"
"Tottori",35.5,134.23333,1849892,"JP"
"Toulon",43.12442,5.92836,2972328,"FR"
"Toulouse",43.60426,1.44367,2972315,"FR"
"Tourcoing",50.72391,3.16117,2972284,"FR"
"Tournai",50.60715,3.38932,2785341,"BE"
"Tours",47.38333,0.68333,2972191,"FR"
"Town 'n' Country",28.01057,-82.57732,4175538,"US"
"Toyama",36.7,137.21667,1849876,"JP"
"Toyonaka",34.78244,135.46932,1849837,"JP"
"Toyota",35.08333,137.15,1849814,"JP"
"Trabzon",41.005,39.72694,738648,"TR"
"Tracy",37.73987,-121.42618,5403191,"US"
"Trang",7.55633,99.61141,1150007,"TH"
"Trelew",-43.24895,-65.30505,3833883,"AR"
"Trencin",48.89452,18.04436,3057140,"SK"
"Trento",46.06787,11.12108,3165243,"IT"
"Trenton",40.21705,-74.74294,5105496,"US"
"Tres Arroyos",-38.37394,-60.27978,3833859,"AR"
"Tres Coracoes",-21.69694,-45.25333,3446138,"BR"
"Treviso",45.66673,12.2416,3165201,"IT"
"Trichur",10.51667,76.21667,1254187,"IN"
"Trier",49.75565,6.63935,2821164,"DE"
"Trikala",39.55493,21.76837,252664,"GR"
"Tripoli",32.87519,13.18746,2210247,"LY"
"Trnava",48.37741,17.58723,3057124,"SK"
"Trois-Rivieres",46.34515,-72.5477,6169141,"CA"
"Trowbridge",51.31889,-2.20861,2635427,"GB"
"Troy",42.60559,-83.14993,5012639,"US"
"Troy",42.72841,-73.69179,5141502,"US"
"Troyes",48.3,4.08333,2971549,"FR"
"Trujillo",-8.11599,-79.02998,3691175,"PE"
"Tsu",34.73333,136.51667,1849796,"JP"
"Tsukuba",36.2,140.1,2110683,"JP"
"Tuckahoe",37.59015,-77.55638,4790207,"US"
"Tucson",32.22174,-110.92648,5318313,"US"
"Tuebingen",48.52266,9.05222,2820860,"DE"
"Tula",54.19609,37.61822,480562,"RU"
"Tulancingo",20.08355,-98.36288,3515062,"MX"
"Tulare",36.20773,-119.34734,5403783,"US"
"Tulcan",0.81187,-77.71727,3650472,"EC"
"Tulcea",45.16667,28.8,664518,"RO"
"Tulsa",36.15398,-95.99277,4553433,"US"
"Tunis",36.81897,10.16579,2464470,"TN"
"Turda",46.56667,23.78333,664460,"RO"
"Turin",45.07049,7.68682,3165524,"IT"
"Turlock",37.49466,-120.84659,5404024,"US"
"Tuscaloosa",33.20984,-87.56917,4094455,"US"
"Tustin",33.74585,-117.82617,5404119,"US"
"Tuxpam de Rodriguez Cano",20.95777,-97.40805,3515011,"MX"
"Tuxtla",16.75973,-93.11308,3515001,"MX"
"Tuzla",44.53842,18.66709,3188582,"BA"
"Tver",56.85836,35.90057,480060,"RU"
"Twin Falls",42.56297,-114.46087,5610810,"US"
"Tychy",50.13717,18.96641,3082914,"PL"
"Tyler",32.35126,-95.30106,4738214,"US"
"Tyumen",57.15222,65.52722,1488754,"RU"
"Uberaba",-19.74833,-47.93194,3445839,"BR"
"Uberlandia",-18.91861,-48.27722,3445831,"BR"
"Udaipur",24.58584,73.71346,1253986,"IN"
"Udine",46.0693,13.23715,3165072,"IT"
"Udon Thani",17.41567,102.78589,1605239,"TH"
"Ufa",54.74306,55.96779,479561,"RU"
"Uijeongbu-si",37.7415,127.0474,1833788,"KR"
"Ukhta",63.56705,53.68348,479411,"RU"
"Ulan Bator",47.90771,106.88324,2028462,"MN"
"Ulan-Ude",51.82721,107.60627,2014407,"RU"
"Ulhasnagar",19.21667,73.15,1253894,"IN"
"Ulm",48.39841,9.99155,2820256,"DE"
"Ulsan",35.53722,129.31667,1833747,"KR"
"Ulyanovsk",54.32824,48.38657,479123,"RU"
"Umea",63.82842,20.25972,602150,"SE"
"Umuarama",-23.76639,-53.325,3445782,"BR"
"Union",40.6976,-74.2632,5105608,"US"
"Union City",37.59577,-122.01913,5404555,"US"
"Union City",40.77955,-74.02375,5105634,"US"
"Upland",34.09751,-117.64839,5404915,"US"
"Uppsala",59.85882,17.63889,2666199,"SE"
"Uruapan",19.41116,-102.05644,3980760,"MX"
"Uruguaiana",-29.75472,-57.08833,3445679,"BR"
"Usak",38.67351,29.4058,298299,"TR"
"Ushuaia",-54.8,-68.3,3833367,"AR"
"Ussuriysk",43.80291,131.94578,2014006,"RU"
"Ust-Kamenogorsk",49.97143,82.60586,1520316,"KZ"
"Usti nad Labem",50.6607,14.03227,3063548,"CZ"
"Usulutan",13.35,-88.45,3582883,"SV"
"Utica",43.1009,-75.23266,5142056,"US"
"Utrecht",52.09083,5.12222,2745912,"NL"
"Utsunomiya",36.56667,139.88333,1849053,"JP"
"Uzhgorod",48.61667,22.3,690548,"UA"
"Vacaville",38.35658,-121.98774,5405228,"US"
"Vacoas",-20.29806,57.47833,933945,"MU"
"Vadodara",22.29941,73.20812,1253573,"IN"
"Vaesteras",59.61617,16.55276,2664454,"SE"
"Vaexjoe",56.87767,14.80906,2663536,"SE"
"Valdosta",30.83334,-83.28032,4228147,"US"
"Valence",44.93333,4.9,2971053,"FR"
"Valencia",10.16202,-68.00765,3625549,"VE"
"Valencia",39.46975,-0.37739,2509954,"ES"
"Valenciennes",50.35,3.53333,2971041,"FR"
"Valera",9.31778,-70.60361,3625542,"VE"
"Vallejo",38.10409,-122.25664,5405380,"US"
"Valparaiso",-33.036,-71.62963,3868626,"CL"
"Van",38.49457,43.38323,298117,"TR"
"Vancouver",45.63873,-122.66149,5814616,"US"
"Vancouver",49.24966,-123.11934,6173331,"CA"
"Vannes",47.66667,-2.75,2970777,"FR"
"Varanasi",25.31668,83.01041,1253405,"IN"
"Varazdin",46.30444,16.33778,3188383,"HR"
"Varna",43.21667,27.91667,726050,"BG"
"Varzea Grande",-15.64667,-56.1325,3445451,"BR"
"Vaslui",46.63333,27.73333,663118,"RO"
"Vaughan",43.8361,-79.49827,6173577,"CA"
"Veenendaal",52.02863,5.55891,2745774,"NL"
"Vejle",55.70927,9.5357,2610613,"DK"
"Veles",41.71556,21.77556,785058,"MK"
"Veliko Turnovo",43.08124,25.62904,725993,"BG"
"Vellore",12.9184,79.13255,1253286,"IN"
"Venado Tuerto",-33.74556,-61.96885,3833062,"AR"
"Venice",33.99084,-118.46008,5405841,"US"
"Venice",45.43713,12.33265,3164603,"IT"
"Venissieux",45.70254,4.87147,2970072,"FR"
"Venlo",51.37,6.16806,2745641,"NL"
"Ventspils",57.38988,21.57288,454310,"LV"
"Ventura",34.27834,-119.29317,5405878,"US"
"Veracruz",19.18095,-96.1429,3514783,"MX"
"Vernon",50.26729,-119.27337,6173864,"CA"
"Verona",45.4299,10.98444,3164527,"IT"
"Versailles",48.8,2.13333,2969679,"FR"
"Verviers",50.58907,5.86241,2784821,"BE"
"Veszprem",47.09327,17.91149,3042929,"HU"
"Vicenza",45.54672,11.5475,3164419,"IT"
"Victoria",28.80527,-97.0036,4739157,"US"
"Victoria",48.43294,-123.3693,6174041,"CA"
"Victoria de Durango",24.02032,-104.65756,4011743,"MX"
"Victorville",34.53611,-117.29116,5406222,"US"
"Vidin",43.99,22.8725,725905,"BG"
"Vienna",48.20849,16.37208,2761369,"AT"
"Vientiane",17.96667,102.6,1651944,"LA"
"Viet Tri",21.32274,105.40198,1562820,"VN"
"Vigo",42.23282,-8.72264,3105976,"ES"
"Vijayawada",16.50745,80.6466,1253184,"IN"
"Vila Nova de Gaia",41.13363,-8.61742,2732544,"PT"
"Vila Velha",-20.32972,-40.2925,3445026,"BR"
"Vila-real",39.9383,-0.10087,2509509,"ES"
"Vilhena",-12.74056,-60.14583,3924679,"BR"
"Villa Alemana",-33.04222,-71.37333,3868192,"CL"
"Villa Carlos Paz",-31.42414,-64.49778,3832791,"AR"
"Villa Mercedes",-33.67571,-65.45783,7116866,"AR"
"Villach",46.61028,13.85583,2762372,"AT"
"Villahermosa",17.98689,-92.93028,3514670,"MX"
"Villejuif",48.7939,2.35992,2968705,"FR"
"Villeneuve-d'Ascq",50.61669,3.16664,6543862,"FR"
"Villeurbanne",45.76667,4.88333,2968254,"FR"
"Vilnius",54.68916,25.2798,593116,"LT"
"Vina del Mar",-33.02457,-71.55183,3868121,"CL"
"Vineland",39.48623,-75.02573,4504621,"US"
"Vinh",18.67337,105.69232,1562798,"VN"
"Vinnytsia",49.23278,28.48097,689558,"UA"
"Virar",19.45591,72.81136,1253133,"IN"
"Virginia Beach",36.85293,-75.97799,4791259,"US"
"Visakhapatnam",17.68009,83.20161,1253102,"IN"
"Visalia",36.33023,-119.29206,5406567,"US"
"Vista",33.20004,-117.24254,5406602,"US"
"Vitebsk",55.1904,30.2049,620127,"BY"
"Vitoria",-20.31944,-40.33778,3444924,"BR"
"Vitoria de Santo Antao",-8.11806,-35.29139,3384987,"BR"
"Vitry-sur-Seine",48.78716,2.40332,2967849,"FR"
"Vlaardingen",51.9125,4.34167,2745467,"NL"
"Vladikavkaz",43.03667,44.66778,473249,"RU"
"Vladimir",56.13655,40.39658,473247,"RU"
"Vladivostok",43.10562,131.87353,2013348,"RU"
"Vlissingen",51.4425,3.57361,2745392,"NL"
"Vlore",40.46667,19.48972,3183719,"AL"
"Volgograd",48.71939,44.50183,472757,"RU"
"Vologda",59.2239,39.88398,472459,"RU"
"Volos",39.36103,22.94248,251833,"GR"
"Volzhskiy",48.78583,44.77973,472231,"RU"
"Voronezh",51.67204,39.1843,472045,"RU"
"Vratsa",43.21,23.5625,725712,"BG"
"Waco",31.54933,-97.14667,4739526,"US"
"Wakayama",34.23333,135.16667,1926004,"JP"
"Wakefield",53.68331,-1.49768,2634910,"GB"
"Walbrzych",50.77141,16.28432,3082707,"PL"
"Walnut Creek",37.90631,-122.06496,5406990,"US"
"Walsall",52.58528,-1.98396,2634853,"GB"
"Waltham",42.37649,-71.23561,4954380,"US"
"Warner Robins",32.61574,-83.62664,4229476,"US"
"Warren",42.49044,-83.01304,5014051,"US"
"Warrington",53.39254,-2.58024,2634739,"GB"
"Warsaw",52.22977,21.01178,756135,"PL"
"Warwick",41.7001,-71.41617,5225507,"US"
"Washington, D.C.",38.89511,-77.03637,4140963,"US"
"Waterbury",41.55815,-73.0515,4845193,"US"
"Waterford",52.25833,-7.11194,2960992,"IE"
"Waterloo",42.49276,-92.34296,4880889,"US"
"Waterloo",43.4668,-80.51639,6176823,"CA"
"Watford",51.65531,-0.39602,2634677,"GB"
"Watsonville",36.91023,-121.75689,5407529,"US"
"Waukegan",42.36363,-87.84479,4915734,"US"
"Waukesha",43.01168,-88.23148,5278052,"US"
"Wayne",40.92538,-74.27654,5106160,"US"
"Wejherowo",54.60568,18.23559,3082473,"PL"
"Welland",42.98342,-79.24958,6177869,"CA"
"Wellington",-41.28664,174.77557,2179537,"NZ"
"Wellington",26.65868,-80.24144,4177703,"US"
"Wels",48.16667,14.03333,2761524,"AT"
"West Babylon",40.71816,-73.35429,5143630,"US"
"West Bridgford",52.92979,-1.12537,2634493,"GB"
"West Bromwich",52.51868,-1.9945,2634491,"GB"
"West Covina",34.06862,-117.93895,5407933,"US"
"West Des Moines",41.57721,-93.71133,4881346,"US"
"West Jerusalem",31.78199,35.21961,7498240,"IL"
"West Jordan",40.60967,-111.9391,5784549,"US"
"West Lafayette",40.42587,-86.90807,4928096,"US"
"West Orange",40.78949,-74.26277,7259174,"US"
"West Orange",40.79871,-74.23904,5106298,"US"
"West Palm Beach",26.71534,-80.05337,4177887,"US"
"West Sacramento",38.58046,-121.53023,5408211,"US"
"West Valley City",40.69161,-112.00105,5784607,"US"
"Westland",42.3242,-83.40021,5014681,"US"
"Westminster",33.75918,-118.00673,5408406,"US"
"Westminster",39.83665,-105.0372,5443910,"US"
"Weston",26.10037,-80.39977,4178003,"US"
"Wheaton",41.86614,-88.10701,4916288,"US"
"White Plains",41.03399,-73.76291,5144336,"US"
"Whittier",33.97918,-118.03284,5409059,"US"
"Wichita",37.69224,-97.33754,4281730,"US"
"Wichita Falls",33.91371,-98.49339,4741752,"US"
"Widnes",53.3618,-2.73406,2633954,"GB"
"Wiesbaden",50.08258,8.24932,2809346,"DE"
"Wigan",53.54296,-2.63706,2633948,"GB"
"Wilkes-Barre",41.24591,-75.88131,5219488,"US"
"Willemstad",12.1084,-68.93354,3513090,"CW"
"Wilmington",34.22573,-77.94471,4499379,"US"
"Wilmington",39.74595,-75.54659,4145381,"US"
"Wilson",35.72127,-77.91554,4499389,"US"
"Winchester",51.06513,-1.3187,2633858,"GB"
"Windhoek",-22.55941,17.08323,3352136,"NA"
"Windsor",42.30008,-83.01654,6182962,"CA"
"Winnipeg",49.8844,-97.14704,6183235,"CA"
"Winston-Salem",36.09986,-80.24422,4499612,"US"
"Winter Garden",28.56528,-81.58618,4178550,"US"
"Winterthur",47.50564,8.72413,2657970,"CH"
"Wloclawek",52.64817,19.0678,3081741,"PL"
"Wodzislaw Slaski",50.00377,18.47205,3081677,"PL"
"Woerden",52.085,4.88333,2744248,"NL"
"Woking",51.31903,-0.55893,2633709,"GB"
"Wolverhampton",52.58547,-2.12296,2633691,"GB"
"Wonju",37.35139,127.94528,1833105,"KR"
"Woonsocket",42.00288,-71.51478,5225809,"US"
"Worcester",42.26259,-71.80229,4956184,"US"
"Worcester",52.18935,-2.22001,2633563,"GB"
"Worthing",50.81795,-0.37538,2633521,"GB"
"Wrexham",53.04664,-2.99132,2633485,"GB"
"Wroclaw",51.1,17.03333,3081368,"PL"
"Wuerzburg",49.79391,9.95121,2805615,"DE"
"Wuppertal",51.27027,7.16755,2805753,"DE"
"Wylie",33.01512,-96.53888,4743275,"US"
"Wyoming",42.91336,-85.70531,5015618,"US"
"Xalapa de Enriquez",19.53124,-96.91589,3526617,"MX"
"Xanthi",41.13488,24.888,733840,"GR"
"Yakima",46.60207,-120.5059,5816605,"US"
"Yakutsk",62.03389,129.73306,2013159,"RU"
"Yala",6.53995,101.28128,1604870,"TH"
"Yalova",40.65501,29.27693,738025,"TR"
"Yamagata",38.23333,140.36667,2110556,"JP"
"Yamaguchi",34.18333,131.46667,1848689,"JP"
"Yambol",42.48333,26.5,725578,"BG"
"Yangju",37.83311,127.06169,1832847,"KR"
"Yangsan",35.34199,129.03358,1832828,"KR"
"Yaounde",3.86667,11.51667,2220957,"CM"
"Yaroslavl",57.62987,39.87368,468902,"RU"
"Yekaterinburg",56.8519,60.6122,1486209,"RU"
"Yeosu",34.76062,127.66215,1884138,"KR"
"Yeovil",50.94159,-2.63211,2633373,"GB"
"Yerevan",40.18111,44.51361,616052,"AM"
"Yogyakarta",-7.80139,110.36472,1621177,"ID"
"Yokkaichi",34.96667,136.61667,1848373,"JP"
"Yokohama",35.43333,139.65,1848354,"JP"
"Yokosuka",35.28361,139.66722,1848313,"JP"
"Yonkers",40.93121,-73.89875,5145215,"US"
"York",39.9626,-76.72774,4562407,"US"
"York",53.95763,-1.08271,2633352,"GB"
"Yoshkar-Ola",56.63877,47.89078,466806,"RU"
"Youngstown",41.09978,-80.64952,5177568,"US"
"Yozgat",39.82,34.80444,296562,"TR"
"Yuba City",39.14045,-121.61691,5411015,"US"
"Yucaipa",34.03363,-117.04309,5411046,"US"
"Yuma",32.72532,-114.6244,5322053,"US"
"Yuzhno-Sakhalinsk",46.95407,142.73603,2119441,"RU"
"Zaandam",52.43854,4.82643,2744118,"NL"
"Zabrze",50.32492,18.78576,3080985,"PL"
"Zadar",44.11972,15.24222,3186952,"HR"
"Zagreb",45.81444,15.97798,3186886,"HR"
"Zalaegerszeg",46.84,16.84389,3042638,"HU"
"Zalau",47.2,23.05,662334,"RO"
"Zamboanga",6.91028,122.07389,1679432,"PH"
"Zamora",19.9855,-102.28387,3979802,"MX"
"Zamora",41.50633,-5.74456,3104342,"ES"
"Zamosc",50.72314,23.25196,753866,"PL"
"Zapopan",20.72356,-103.38479,3979770,"MX"
"Zaporizhia",47.82289,35.19031,687700,"UA"
"Zaragoza",41.65606,-0.87734,3104324,"ES"
"Zarate",-34.09814,-59.02858,3427213,"AR"
"Zdunska Wola",51.59915,18.93974,3080414,"PL"
"Zeist",52.09,5.23333,2743977,"NL"
"Zenica",44.20169,17.90397,3186573,"BA"
"Zhytomyr",50.26487,28.67669,686967,"UA"
"Zielona Gora",51.93548,15.50643,3080165,"PL"
"Zilina",49.22315,18.73941,3056508,"SK"
"Zlin",49.22645,17.67065,3061370,"CZ"
"Zoetermeer",52.0575,4.49306,2743856,"NL"
"Zonguldak",41.45139,31.79305,737022,"TR"
"Zory",50.04523,18.70062,3080004,"PL"
"Zrenjanin",45.38361,20.38194,783814,"RS"
"Zugdidi",42.5088,41.87088,610824,"GE"
"Zumpango",19.7967,-99.09946,3513966,"MX"
"Zurich",47.36667,8.55,2657896,"CH"
"Zvolen",48.57442,19.15324,3056459,"SK"
"Zwolle",52.5125,6.09444,2743477,"NL"
"geo_name","latitude","longitude","geonameid"
"Aruba",12.52111,-69.968338,""
"Antigua and Barbuda",17.060816,-61.796428,""
"United Arab Emirates",23.424076,53.847818,""
"Afghanistan",33.93911,67.709953,""
"Algeria",28.033886,1.659626,""
"Azerbaijan",40.143105,47.576927,""
"Albania",41.153332,20.168331,""
"Armenia",40.069099,45.038189,""
"Andorra",42.506285,1.521801,""
"Angola",-11.202692,17.873887,""
"American Samoa",-14.270972,-170.132217,""
"Argentina",-38.416097,-63.616672,""
"Australia",-25.274398,133.775136,""
"Austria",47.516231,14.550072,""
"Anguilla",18.220554,-63.068615,""
"land Islands",60.1785247,19.9156105,""
"Bahrain",26.0667,50.5577,""
"Barbados",13.193887,-59.543198,""
"Botswana",-22.328474,24.684866,""
"Bermuda",32.3078,-64.7505,""
"Belgium",50.503887,4.469936,""
"The Bahamas",25.03428,-77.39628,""
"Bangladesh",23.684994,90.356331,""
"Belize",17.189877,-88.49765,""
"Bosnia and Herzegovina",43.915886,17.679076,""
"Bolivia",-16.290154,-63.588653,""
"St Barthlemy",17.9,-62.833333,""
"Myanmar (Burma)",21.916221,95.955974,""
"Benin",9.30769,2.315834,""
"Belarus",53.709807,27.953389,""
"Solomon Islands",-9.64571,160.156194,""
"Brazil",-14.235004,-51.92528,""
"Bhutan",27.514162,90.433601,""
"Bulgaria",42.733883,25.48583,""
"Brunei",4.535277,114.727669,""
"Burundi",-3.373056,29.918886,""
"Canada",56.130366,-106.346771,""
"Cambodia",12.565679,104.990963,""
"Chad",15.454166,18.732207,""
"Sri Lanka",7.873054,80.771797,""
"Republic of the Congo",-0.228021,15.827659,""
"Democratic Republic of the Congo",-4.038333,21.758664,""
"China",35.893323,104.1964574,""
"Chile",-35.675147,-71.542969,""
"Cayman Islands",19.3133,-81.2546,""
"Cocos (Keeling) Islands",-12.164165,96.870956,""
"Cameroon",7.369722,12.354722,""
"Comoros",-11.6455,43.3333,""
"Colombia",4.570868,-74.297333,""
"Northern Mariana Islands",15.0979,145.6739,""
"Costa Rica",9.748917,-83.753428,""
"Central African Republic",6.611111,20.939444,""
"Cuba",21.521757,-77.781167,""
"Cape Verde",16.5388,-23.0418,""
"Cook Islands",-21.236736,-159.777671,""
"Cyprus",35.126413,33.429859,""
"Denmark",56.26392,9.501785,""
"Djibouti",11.825138,42.590275,""
"Dominica",15.414999,-61.370976,""
"Dominican Republic",18.735693,-70.162651,""
"Ecuador",-1.831239,-78.183406,""
"Egypt",26.820553,30.802498,""
"Ireland",53.1423672,-7.6920536,""
"Equatorial Guinea",1.650801,10.267895,""
"Estonia",58.595272,25.0136071,""
"Eritrea",15.179384,39.782334,""
"El Salvador",13.794185,-88.89653,""
"Ethiopia",9.145,40.489673,""
"Czechia",49.817492,15.472962,""
"French Guiana",3.933889,-53.125782,""
"Finland",61.92411,25.7481511,""
"Fiji",-17.713371,178.065032,""
"FIQQ 1ZZ, Falkland Islands (Islas Malvinas)",-51.796253,-59.523613,""
"Federated States of Micronesia",7.425554,150.550812,""
"Faroe Islands",61.892635,-6.9118061,""
"French Polynesia",-17.679742,-149.406843,""
"France",46.227638,2.213749,""
"French Southern and Antarctic Lands",-49.280366,69.3485571,""
"The Gambia",13.443182,-15.310139,""
"Gabon",-0.803689,11.609444,""
"Georgia",42.315407,43.356892,""
"Ghana",7.946527,-1.023194,""
"Gibraltar",36.140751,-5.353585,""
"Grenada",12.1165,-61.679,""
"Guernsey",49.465691,-2.585278,""
"Greenland",71.706936,-42.604303,""
"Germany",51.165691,10.451526,""
"Guadeloupe",16.265,-61.551,""
"Guam",13.444304,144.793731,""
"Greece",39.074208,21.824312,""
"Guatemala",15.783471,-90.230759,""
"Guinea",9.945587,-9.696645,""
"Guyana",4.860416,-58.93018,""
"Haiti",18.971187,-72.285215,""
"Hong Kong",22.396428,114.109497,""
"Heard Island and McDonald Islands",-53.08181,73.504158,""
"Honduras",15.199999,-86.241905,""
"Croatia",45.1,15.2000001,""
"Hungary",47.162494,19.5033041,""
"Iceland",64.963051,-19.020835,""
"Indonesia",-0.789275,113.921327,""
"Isle of Man",54.236107,-4.548056,""
"India",20.593684,78.96288,""
"British Indian Ocean Territory",-6.343194,71.876519,""
"Iran",32.427908,53.688046,""
"Israel",31.046051,34.851612,""
"Italy",41.87194,12.56738,""
"Cte d'Ivoire",7.539989,-5.54708,""
"Iraq",33.223191,43.679291,""
"Japan",36.204824,138.252924,""
"Jersey",49.214439,-2.13125,""
"Jamaica",18.109581,-77.297508,""
"Jordan",30.585164,36.238414,""
"Kenya",-0.023559,37.906193,""
"Kyrgyzstan",41.20438,74.766098,""
"North Korea",40.339852,127.510093,""
"Kiribati",-3.370417,-168.734039,""
"South Korea",35.907757,127.766922,""
"6798, Christmas Island",-10.447525,105.690449,""
"Kuwait",29.31166,47.481766,""
"Kosovo",42.6026359,20.902977,""
"Kazakhstan",48.019573,66.923684,""
"Laos",19.85627,102.495496,""
"Lebanon",33.854721,35.862285,""
"Latvia",56.879635,24.603189,""
"Lithuania",55.169438,23.881275,""
"Liberia",6.428055,-9.429499,""
"Slovakia",48.669026,19.699024,""
"United States Minor Outlying Islands",19.2823192,166.647047,""
"Liechtenstein",47.166,9.555373,""
"Lesotho",-29.609988,28.233608,""
"Luxembourg",49.815273,6.129583,""
"Libya",26.3351,17.228331,""
"Madagascar",-18.766947,46.869107,""
"Martinique",14.641528,-61.024174,""
"Macau",22.198745,113.543873,""
"Moldova",47.411631,28.369885,""
"Mayotte",-12.8275,45.166244,""
"Mongolia",46.862496,103.846656,""
"Montserrat",16.742498,-62.187366,""
"Malawi",-13.254308,34.301525,""
"Montenegro",42.708678,19.37439,""
"Macedonia (FYROM)",41.608635,21.745275,""
"Mali",17.570692,-3.996166,""
"Monaco",43.7384176,7.4246158,""
"Morocco",31.791702,-7.09262,""
"Mauritius",-20.348404,57.552152,""
"Mauritania",21.00789,-10.940835,""
"Malta",35.937496,14.375416,""
"Oman",21.4735329,55.975413,""
"Maldives",3.202778,73.22068,""
"Mexico",23.634501,-102.552784,""
"Malaysia",4.210484,101.975766,""
"Mozambique",-18.665695,35.529562,""
"New Caledonia",-20.904305,165.618042,""
"Niue",-19.054445,-169.867233,""
"Norfolk Island",-29.040835,167.954712,""
"Niger",17.607789,8.081666,""
"Vanuatu",-15.376706,166.959158,""
"Nigeria",9.081999,8.675277,""
"Netherlands",52.132633,5.291266,""
"Norway",60.472024,8.468946,""
"Nepal",28.394857,84.124008,""
"Nauru",-0.522778,166.931503,""
"Suriname",3.919305,-56.027783,""
"Caribbean Netherlands",12.1783611,-68.2385339,""
"Nicaragua",12.865416,-85.207229,""
"New Zealand",-40.900557,174.885971,""
"Paraguay",-23.442503,-58.443832,""
"Pitcairn Islands",-24.3767537,-128.3242376,""
"Peru",-9.189967,-75.015152,""
"Pakistan",30.375321,69.345116,""
"Poland",51.919438,19.145136,""
"Panama",8.537981,-80.782127,""
"Portugal",39.399872,-8.224454,""
"Papua New Guinea",-6.314993,143.95555,""
"Palau",7.51498,134.58252,""
"Guinea-Bissau",11.803749,-15.180413,""
"Qatar",25.354826,51.183884,""
"Reunion",-21.115141,55.536384,""
"Serbia",44.016521,21.005859,""
"Marshall Islands",7.131474,171.184478,""
"Romania",45.943161,24.96676,""
"Philippines",12.879721,121.774017,""
"Puerto Rico",18.220833,-66.590149,""
"Russia",61.52401,105.318756,""
"Rwanda",-1.940278,29.873888,""
"Saudi Arabia",23.885942,45.079162,""
"St Pierre and Miquelon",46.8852,-56.3159,""
"St Kitts & Nevis",17.357822,-62.782998,""
"Seychelles",-4.679574,55.491977,""
"South Africa",-30.559482,22.937506,""
"Senegal",14.497401,-14.452362,""
"Slovenia",46.151241,14.995463,""
"Sierra Leone",8.460555,-11.779889,""
"San Marino",43.94236,12.457777,""
"Singapore",1.352083,103.819836,""
"Somalia",5.152149,46.199616,""
"Spain",40.463667,-3.74922,""
"South Sudan",6.8769919,31.3069788,""
"St Lucia",13.909444,-60.978893,""
"Sudan",12.862807,30.217636,""
"Sweden",60.128161,18.643501,""
"Sint Maarten",18.04248,-63.05483,""
"Syria",34.802075,38.996815,""
"Switzerland",46.818188,8.227512,""
"Trinidad and Tobago",10.691803,-61.222503,""
"Thailand",15.870032,100.992541,""
"Tajikistan",38.861034,71.276093,""
"TKCA 1ZZ, Turks and Caicos Islands",21.694025,-71.797928,""
"Tokelau",-9.2002,-171.8484,""
"Tonga",-21.178986,-175.198242,""
"Togo",8.619543,0.824782,""
"So Tom and Prncipe",0.18636,6.613081,""
"Tunisia",33.886917,9.537499,""
"Timor-Leste",-8.874217,125.727539,""
"Turkey",38.963745,35.243322,""
"Tuvalu",-7.109535,177.64933,""
"Taiwan",23.69781,120.960515,""
"Turkmenistan",38.969719,59.556278,""
"Tanzania",-6.369028,34.888822,""
"Curaao",12.16957,-68.99002,""
"Uganda",1.373333,32.290275,""
"United Kingdom",55.378051,-3.435973,""
"Ukraine",48.379433,31.1655799,""
"United States",37.09024,-95.712891,""
"Burkina Faso",12.238333,-1.561593,""
"Uruguay",-32.522779,-55.765835,""
"Uzbekistan",41.377491,64.585262,""
"St Vincent and the Grenadines",12.984305,-61.287228,""
"Venezuela",6.42375,-66.58973,""
"British Virgin Islands",18.420695,-64.639968,""
"Vietnam",14.058324,108.277199,""
"U.S. Virgin Islands",18.335765,-64.896335,""
"00120, Vatican City",41.902916,12.453389,""
"Palestine",31.952162,35.233154,""
"Wallis and Futuna",-14.2938,-178.1165,""
"Western Sahara",24.215527,-12.885834,""
"Samoa",-13.759029,-172.104629,""
"Swaziland",-26.522503,31.465866,""
"Yemen",15.552727,48.516388,""
"Zambia",-13.133897,27.849332,""
"Zimbabwe",-19.015438,29.154857,""